{"type":"Feature","properties":{"name":"Arctic Basin Federal Marine Bioregion (Canada)","source":"Fisheries and Oceans Canada (DFO), Marine Planning and Conservation Directorate, Federal Marine Bioregions","source_url":"https://open.canada.ca/data/en/dataset/23eb8b56-dac8-4efc-be7c-b8fa11ba62e9","source_record":"23eb8b56-dac8-4efc-be7c-b8fa11ba62e9","license":"Open Government Licence - Canada","components":["Arctic Basin"],"retrieved":"2026-10-07","note":"Reprojected from Canada Albers Equal Area Conic (NAD83) to WGS84, the Albers edges densified at 2 km first. Interior rings that are islands are dropped: land is excluded by sst_daily holding ocean cells only, not by the geometry. Parts holding no 0.05-degree cell centre are dropped. This is Canada's own marine-planning framework, not a maritime limit: the dataset describes its boundaries as fuzzy and revisable on ecosystem grounds. Longitudes are 0-360, as everywhere else in this project.","simplify_tolerance_deg":0.005,"dfo_area_km2":752053,"cells":152678,"cells_moved_by_simplification":102},"geometry":{"type":"MultiPolygon","coordinates":[[[[299.843,83.23199],[299.479,83.25699],[298.618,83.36799],[298.11701,83.39999],[297.672,83.40799],[297.11801,83.40399],[296.01254,83.3715],[293.38578,83.31796],[292.64657,83.31069],[292.11547,83.31744],[291.4532,83.30887],[289.59887,83.23003],[288.5505,83.22832],[287.87039,83.25048],[287.49472,83.23332],[287.01638,83.1701],[286.75594,83.1184],[286.43889,83.08164],[286.15793,83.06836],[285.94635,83.06789],[286.00843,83.07913],[285.77808,83.09134],[285.5846,83.08728],[285.8581,83.06233],[285.82731,83.06292],[283.50033,83.14628],[282.79658,83.12574],[282.24619,83.09521],[281.81788,83.05617],[280.17125,83.04214],[279.69535,82.98693],[278.80492,82.89831],[277.84641,82.77395],[277.47605,82.74293],[276.97112,82.74727],[276.68319,82.79038],[276.67651,82.85095],[276.5719,82.88958],[276.17956,82.91041],[275.82127,82.9101],[275.00296,82.85465],[274.34318,82.78716],[273.13553,82.57213],[272.1745,82.32289],[271.87396,82.23587],[271.51057,82.15034],[270.98571,82.08761],[270.4072,82.03946],[268.65039,81.91684],[268.23242,81.86484],[268.06263,81.83038],[267.96047,81.79061],[267.92547,81.70514],[267.74536,81.61395],[266.52275,81.47642],[266.15077,81.46919],[265.99713,81.4565],[265.63595,81.39533],[265.27987,81.29325],[264.47356,81.09907],[264.3178,81.08246],[264.23665,81.05947],[264.04221,80.95147],[264.04862,80.90424],[263.60133,80.68412],[260.46204,80.42699],[260.00904,80.44699],[259.57205,80.44999],[259.28905,80.46399],[258.85105,80.43899],[258.70905,80.41699],[258.45405,80.35299],[258.40505,80.31299],[258.28636,79.89956],[255.84684,79.74419],[254.35805,79.63799],[254.14204,79.61599],[253.97204,79.54499],[253.92704,79.51499],[253.91605,79.46299],[254.08705,79.35299],[253.76604,78.97399],[253.60105,79.00399],[253.48404,79.00299],[253.42904,78.99999],[253.35205,78.97299],[251.4344,78.93766],[249.44405,78.88699],[249.21605,78.91099],[249.06405,78.91099],[248.84705,78.88399],[248.09905,78.87899],[247.99405,78.92999],[247.85605,78.96599],[247.66005,78.98599],[247.40605,78.98899],[246.90205,78.92499],[244.50005,78.29999],[244.13805,78.25199],[244.01704,78.21599],[242.10603,78.03398],[240.26805,77.84199],[239.34204,77.54499],[239.10504,77.51499],[239.03605,77.48699],[238.23705,77.25299],[238.22104,77.23799],[238.25304,77.05199],[237.91105,76.99099],[237.87305,76.95399],[237.89104,76.886],[237.87104,76.83199],[237.78405,76.76199],[237.62805,76.70699],[237.36904,76.64999],[236.48404,76.56799],[235.91905,76.47399],[235.83704,76.43399],[235.73004,76.40399],[235.71104,76.38199],[235.72404,76.37699],[235.71904,76.34999],[235.61304,76.31999],[235.62704,76.296],[235.77504,76.235],[235.76304,76.2],[235.08316,75.71338],[234.28696,75.10205],[233.62525,74.56254],[232.91204,73.941],[232.74204,73.90499],[232.63904,73.86299],[232.57204,73.78099],[232.36704,73.72399],[232.35704,73.701],[232.36304,73.655],[232.40204,73.62299],[232.37304,73.58899],[232.30604,73.56099],[232.31104,73.54199],[232.39904,73.52799],[232.45604,73.53399],[232.59504,73.56999],[232.65904,73.56299],[232.70503,73.54599],[232.68703,73.51],[232.56604,73.422],[232.55204,73.39199],[232.49004,73.345],[232.48704,73.31],[232.62104,73.22499],[232.69604,73.187],[232.73104,73.121],[232.71504,73.02999],[232.70103,73.0],[232.59003,72.92799],[232.55504,72.87899],[232.44404,72.834],[232.38604,72.82099],[232.27003,72.821],[232.13503,72.83799],[232.00103,72.827],[231.89203,72.782],[230.80353,72.18082],[229.72303,71.545],[229.31103,71.457],[229.30103,71.44799],[229.35103,71.418],[229.35903,71.401],[229.34203,71.383],[229.30303,71.368],[229.22903,71.354],[227.92203,71.22],[226.92203,71.054],[226.58603,71.035],[226.19803,70.981],[225.87003,70.95],[225.67403,70.903],[225.16703,70.803],[224.75403,70.695],[223.90603,70.507],[223.13103,70.382],[222.51303,70.306],[222.35303,70.269],[222.20203,70.205],[222.09303,70.122],[221.95203,69.979],[221.88803,69.927],[221.85103,69.911],[221.73803,69.889],[221.61903,69.894],[221.44803,69.928],[221.29903,69.98],[221.14103,70.059],[220.99703,70.106],[220.77103,70.138],[220.39703,70.151],[220.24703,70.168],[219.81903,70.306],[219.60104,70.362],[219.34403,70.397],[219.00003,70.40374],[219.00004,72.96632],[220.05948,72.94891],[220.65757,72.95879],[221.2498,72.95771],[222.26931,72.9304],[222.86327,72.98897],[223.45987,73.0353],[223.4731,73.04612],[223.46793,73.20323],[223.48746,73.35489],[223.30273,73.49447],[223.13445,73.63876],[222.99093,73.78078],[222.86784,73.92436],[222.76593,74.06927],[222.68796,74.21094],[222.63132,74.35338],[222.59668,74.49634],[222.5847,74.63956],[222.59602,74.78279],[222.63127,74.92575],[222.68888,75.06386],[222.773,75.20548],[222.87903,75.34175],[223.00961,75.47671],[223.16729,75.61176],[223.26356,75.82437],[223.1671,75.96795],[223.09445,76.11365],[222.97285,76.28713],[222.89523,76.44231],[222.85879,76.5505],[222.83709,76.6589],[222.83052,76.7674],[222.8388,76.87156],[222.88191,77.0362],[222.96293,77.20013],[223.08309,77.36292],[223.2388,77.5199],[223.43372,77.67492],[223.66188,77.82347],[223.92876,77.96934],[224.22594,78.10818],[224.61167,78.26276],[225.03548,78.40871],[225.50654,78.54938],[226.03096,78.68574],[226.60314,78.92524],[227.13359,79.13665],[227.44187,79.24843],[227.76702,79.35389],[228.30572,79.50702],[228.89063,79.65004],[229.5335,79.78598],[230.22737,79.91314],[230.61868,80.08049],[231.08051,80.24476],[231.59753,80.39999],[232.16576,80.54586],[232.73137,80.67188],[233.33042,80.78915],[233.88216,80.88519],[234.48165,80.97873],[235.04855,81.08421],[235.59624,81.17606],[238.58896,81.60999],[239.85714,81.77932],[241.15334,81.94165],[242.16241,82.12298],[243.21942,82.30203],[243.28464,82.38238],[243.36312,82.45979],[243.5608,82.60946],[243.81229,82.75346],[244.12528,82.89571],[244.40791,83.00305],[244.72944,83.10895],[245.77717,83.40527],[245.99379,83.49918],[246.23674,83.59064],[246.80124,83.76654],[247.49038,83.93787],[248.29042,84.0999],[249.24559,84.25933],[250.31449,84.40747],[251.01703,84.55285],[251.8333,84.69398],[253.2546,84.89558],[255.13273,85.12994],[257.89033,85.44666],[259.6553,85.61439],[261.26595,85.73837],[263.27868,85.86788],[266.66691,86.0516],[269.13148,86.16085],[271.69637,86.2483],[274.3753,86.3163],[278.47488,86.3919],[281.96961,86.43655],[284.61624,86.45192],[287.21,86.45172],[293.22115,86.41907],[295.61766,86.39646],[297.88914,86.36208],[300.14564,86.31438],[300.84525,86.09332],[301.00056,85.97804],[301.1397,85.85332],[301.21034,85.77746],[301.47285,85.46948],[301.71747,85.1391],[302.30658,84.86629],[302.64662,84.63991],[302.9084,84.45447],[303.18138,84.24682],[303.40897,84.05765],[303.20978,83.65673],[303.01227,83.20504],[302.78,83.21299],[302.42199,83.20799],[301.957,83.17199],[301.562,83.16799],[299.843,83.23199]]]]}}