{"type":"Feature","properties":{"name":"Coral Triangle (MEOW provinces)","source":"Spalding et al. 2007, Marine Ecoregions of the World (Bioscience 57(7):573-584, doi:10.1641/B570707), via Flanders Marine Institute (VLIZ), Marine Regions","source_url":"https://marineregions.org/mrgid/21728","license":"NOT VERIFIED. MEOW is distributed by TNC/WWF and via Marine Regions; check its terms before publishing.","components":["Western Coral Triangle","Eastern Coral Triangle"],"retrieved":"2026-10-02","note":"The union of MEOW's two Coral Triangle provinces. NOT the Coral Triangle Initiative's scientific boundary (Veron et al. 2009) nor its implementation area, neither of which is published as a downloadable polygon. MEOW provinces are coastal and shelf bioregions, so this omits the deep basins inside the triangle. Interior rings dropped (land inside the region is excluded by sst_daily holding ocean cells only). Longitudes are continuous across the region, on the 0-360 frame where the region allows and as negative degrees east where it crosses the prime meridian.","simplify_tolerance_deg":0.01,"outer_area_km2":8722358,"cells":286146,"cells_moved_by_simplification":100},"geometry":{"type":"MultiPolygon","coordinates":[[[[164.042,-10.835769],[163.272238,-14.147176],[163.017549,-14.212642],[162.903485,-14.222749],[162.140674,-14.786311],[161.790876,-14.948047],[161.30401,-15.112618],[160.497467,-15.211733],[160.093347,-15.187142],[159.97186,-15.156699],[159.789676,-15.13744],[159.19628,-14.953512],[158.322368,-14.50325],[157.873437,-14.157134],[157.669441,-13.996096],[157.434739,-13.694882],[157.059423,-13.274701],[156.645139,-13.80108],[156.13157,-14.221197],[155.527056,-14.535389],[155.257833,-14.617352],[155.045565,-14.728725],[154.918738,-14.754239],[154.487046,-14.89408],[154.198532,-14.92995],[154.011398,-14.975591],[153.566071,-15.0084],[152.907943,-14.942742],[152.284391,-14.753448],[152.009671,-14.635947],[151.942449,-14.591031],[151.35994,-14.49605],[151.226624,-14.522568],[150.415939,-14.422416],[149.946317,-14.267616],[149.49996,-14.042097],[149.392336,-13.958282],[148.963847,-13.823643],[148.591935,-13.667871],[148.439202,-13.585966],[148.3424,-13.593428],[145.856764,-11.6058],[144.910594,-10.712196],[146.462377,-8.893586],[146.444125,-8.628373],[146.567475,-8.807498],[146.545812,-8.900135],[146.586636,-8.999162],[146.630529,-9.030284],[146.840166,-9.095732],[146.921373,-9.103058],[146.953287,-9.068957],[146.948436,-9.037916],[146.97126,-9.029924],[146.981196,-9.055205],[146.969703,-9.091394],[146.906955,-9.133361],[146.888883,-9.183338],[146.895813,-9.278477],[146.926638,-9.282779],[147.058722,-9.469997],[147.099411,-9.489167],[147.101364,-9.451808],[147.079998,-9.434159],[147.12939,-9.443609],[147.147813,-9.50102],[147.248568,-9.505835],[147.296601,-9.534131],[147.48939,-9.769031],[147.504294,-9.871109],[147.60135,-9.975275],[147.766086,-10.056113],[147.872187,-10.0475],[147.952458,-10.145834],[148.08609,-10.136528],[148.149423,-10.097639],[148.155993,-10.076435],[148.304691,-10.130282],[148.334823,-10.178333],[148.403322,-10.200554],[148.639986,-10.18736],[148.678866,-10.151387],[148.794435,-10.239164],[148.934961,-10.267226],[148.981626,-10.268612],[149.093289,-10.23416],[149.536656,-10.361663],[149.56956,-10.341395],[149.747742,-10.342781],[149.866362,-10.398059],[150.078852,-10.462778],[150.035535,-10.502639],[149.98968,-10.518056],[149.966352,-10.50389],[149.880105,-10.506392],[149.851638,-10.548611],[150.011226,-10.570553],[150.113007,-10.667501],[150.209685,-10.700558],[150.426225,-10.689164],[150.476814,-10.62548],[150.568029,-10.621943],[150.689952,-10.563191],[150.649416,-10.475558],[150.353145,-10.394441],[150.369111,-10.321946],[150.418854,-10.300688],[150.635115,-10.350485],[150.878016,-10.230002],[150.844122,-10.224719],[150.778044,-10.260278],[150.615648,-10.276523],[150.579684,-10.241108],[150.308316,-10.192499],[150.186645,-10.094309],[150.016662,-10.073339],[149.989968,-10.081871],[149.914152,-10.048895],[149.762205,-9.901664],[149.717187,-9.833471],[149.767344,-9.791252],[149.926635,-9.769445],[150.053724,-9.722366],[150.051771,-9.685349],[150.008886,-9.631394],[149.877594,-9.642635],[149.742873,-9.601667],[149.454405,-9.603053],[149.437476,-9.571391],[149.348844,-9.521945],[149.27373,-9.51146],[149.219973,-9.474722],[149.179761,-9.355553],[149.338008,-9.129716],[149.314482,-9.01979],[149.257899,-8.998469],[149.137758,-9.006668],[149.069277,-9.03986],[148.753602,-9.104165],[148.60413,-9.082502],[148.530825,-8.993051],[148.49442,-8.866664],[148.479264,-8.73584],[148.444407,-8.676944],[148.349547,-8.61236],[148.300533,-8.611388],[148.230531,-8.559728],[148.206222,-8.298332],[148.135257,-8.066105],[148.114683,-8.055278],[148.007196,-8.066663],[147.98385,-8.04986],[147.9744,-7.996112],[147.866634,-7.937216],[147.731625,-7.939997],[147.70233,-7.905977],[147.694689,-7.830557],[147.668724,-7.792496],[147.457737,-7.597781],[147.334545,-7.504307],[147.213585,-7.490969],[147.178593,-7.463888],[147.139713,-7.325279],[147.140253,-7.221113],[147.037473,-7.044443],[146.945664,-6.956666],[146.943027,-6.840278],[146.96136,-6.747218],[147.088863,-6.714449],[147.149991,-6.713891],[147.199986,-6.745832],[147.416382,-6.734996],[147.568023,-6.751943],[147.810519,-6.717779],[147.869694,-6.657785],[147.866634,-6.47],[147.826359,-6.337214],[147.590514,-6.072218],[147.480615,-5.977241],[147.284946,-5.935292],[147.231873,-5.971814],[147.107439,-5.966387],[146.96271,-5.89778],[146.926755,-5.845004],[146.894958,-5.828894],[146.796309,-5.83442],[146.773278,-5.792498],[146.653047,-5.751944],[146.470896,-5.607575],[146.289159,-5.588891],[145.963593,-5.473052],[145.766394,-5.485274],[145.7244,-5.412221],[145.738863,-5.305283],[145.786923,-5.231393],[145.813599,-5.069024],[145.735497,-4.802786],[145.617327,-4.704029],[145.451079,-4.494167],[145.335933,-4.390838],[145.305234,-4.377221],[145.228572,-4.388057],[145.09233,-4.372784],[145.034856,-4.337216],[144.979965,-4.224581],[144.85428,-4.095692],[144.729675,-4.031387],[144.613863,-4.014449],[144.571356,-3.991949],[144.543852,-3.953609],[144.551088,-3.878612],[144.513738,-3.822218],[144.375246,-3.802499],[144.280944,-3.806387],[144.250308,-3.870971],[144.016938,-3.810554],[143.9892,-3.794651],[143.95509,-3.740003],[143.795862,-3.613265],[143.73108,-3.604166],[143.610363,-3.545837],[143.569431,-3.475556],[143.518446,-3.435551],[143.238285,-3.384449],[143.194698,-3.359996],[143.03691,-3.36347],[142.551909,-3.218336],[142.124976,-3.059441],[142.003602,-2.956112],[141.892344,-2.970971],[141.608853,-2.812499],[141.345792,-2.707784],[141.2811,-2.66903],[141.270534,-2.645558],[141.214149,-2.622221],[141.042888,-2.590001],[141.002469,-2.607083],[140.823855,-2.60972],[140.727177,-2.63708],[140.700456,-2.614715],[140.748561,-2.529026],[140.721894,-2.490002],[140.631345,-2.457215],[140.477175,-2.434445],[140.381208,-2.432501],[140.375583,-2.448404],[140.322213,-2.45834],[140.211972,-2.407157],[140.162337,-2.326661],[140.105376,-2.32334],[140.031648,-2.358611],[139.884426,-2.376395],[139.780827,-2.361392],[139.407471,-2.16611],[139.046355,-1.999718],[138.933315,-1.961387],[138.843567,-1.95389],[138.744108,-1.846943],[138.655827,-1.790837],[138.41388,-1.732499],[138.061017,-1.606949],[137.931498,-1.489445],[137.875788,-1.473056],[137.751102,-1.503053],[137.585232,-1.568051],[137.344977,-1.711943],[137.131074,-1.792781],[137.113866,-1.816667],[137.109681,-1.874447],[137.162403,-1.935206],[137.198817,-1.952333],[137.235924,-2.057219],[137.233431,-2.074031],[137.188152,-2.104163],[137.066931,-2.110283],[136.99134,-2.13389],[136.754001,-2.249792],[136.601901,-2.251664],[136.546488,-2.237921],[136.532745,-2.214161],[136.482723,-2.211389],[136.409427,-2.2175],[136.356624,-2.253887],[136.333998,-2.282498],[136.342188,-2.366666],[136.254699,-2.576105],[136.182735,-2.635001],[136.02609,-2.701106],[135.95517,-2.785976],[135.936648,-2.944448],[135.9072,-2.99042],[135.76401,-3.052502],[135.740934,-3.082364],[135.766665,-3.116258],[135.713349,-3.158684],[135.605655,-3.201812],[135.568575,-3.246947],[135.555543,-3.304997],[135.491913,-3.35834],[135.333306,-3.393611],[135.004158,-3.341393],[134.876619,-3.248891],[134.812611,-3.12389],[134.822484,-3.040838],[134.850798,-3.014585],[134.854695,-2.90681],[134.828505,-2.904443],[134.804898,-2.954447],[134.751915,-2.988332],[134.724969,-2.990969],[134.698023,-2.970134],[134.657199,-2.781665],[134.657199,-2.574719],[134.64207,-2.521601],[134.540037,-2.469716],[134.485794,-2.525552],[134.471619,-2.559167],[134.474544,-2.627918],[134.526384,-2.835692],[134.494965,-2.862503],[134.462889,-2.861297],[134.319969,-2.504996],[134.253603,-2.438612],[134.222886,-2.428334],[134.159697,-2.319443],[134.13303,-2.051666],[134.145261,-1.933892],[134.12259,-1.883888],[134.088291,-1.677914],[134.221149,-1.557215],[134.23482,-1.410974],[134.280387,-1.360556],[134.204958,-1.221668],[134.12691,-1.152368],[134.029494,-0.966941],[134.111079,-0.83528],[133.981353,-0.729998],[133.755264,-0.723959],[133.750944,-0.756665],[133.574967,-0.753893],[133.402464,-0.728891],[133.349121,-0.702782],[133.173036,-0.542501],[133.11468,-0.537083],[132.713154,-0.367082],[132.434145,-0.344447],[132.269715,-0.384164],[132.160248,-0.432215],[131.918301,-0.622781],[131.863284,-0.698057],[131.57775,-0.762497],[131.51331,-0.734309],[131.255559,-0.822779],[131.286087,-0.918332],[131.248836,-1.096946],[131.178861,-1.218887],[131.059557,-1.243475],[130.96359,-1.403054],[131.049405,-1.455137],[131.111082,-1.451663],[131.177475,-1.477781],[131.207733,-1.527218],[131.287752,-1.498337],[131.33304,-1.460555],[131.330943,-1.438613],[131.283603,-1.407221],[131.274063,-1.384235],[131.590791,-1.49084],[131.705109,-1.544165],[131.723019,-1.581947],[131.882445,-1.64222],[131.956632,-1.708055],[131.971365,-1.762361],[131.927184,-1.810556],[131.931225,-1.875833],[132.041223,-2.085695],[132.156099,-2.151665],[132.299001,-2.268476],[132.393033,-2.259998],[132.456078,-2.220281],[132.574554,-2.189861],[132.615783,-2.224997],[132.639165,-2.283893],[132.68997,-2.308607],[132.817743,-2.24792],[132.900822,-2.283893],[132.963867,-2.288051],[133.201359,-2.213756],[133.297767,-2.201111],[133.438446,-2.239028],[133.645806,-2.237219],[133.876062,-2.114162],[133.934283,-2.1041],[133.945821,-2.17097],[133.788456,-2.25674],[133.821,-2.298401],[133.839144,-2.300282],[133.92414,-2.271662],[133.946973,-2.210552],[133.955532,-2.329163],[133.914429,-2.389445],[133.840521,-2.425004],[133.781643,-2.48111],[133.804134,-2.495285],[133.820667,-2.541941],[133.816374,-2.659166],[133.740801,-2.523194],[133.705656,-2.516255],[133.693029,-2.698055],[133.678593,-2.718053],[133.678035,-2.586527],[133.648587,-2.543894],[133.604676,-2.538611],[133.506099,-2.565836],[133.385814,-2.521808],[133.309422,-2.448053],[133.245801,-2.417498],[133.105797,-2.446109],[133.01874,-2.496806],[132.842529,-2.730473],[132.722748,-2.817215],[132.572331,-2.716946],[132.317748,-2.682215],[132.207453,-2.678894],[132.138306,-2.693339],[131.956911,-2.78702],[132.080382,-2.967362],[132.190245,-2.938895],[132.273315,-2.938895],[132.465789,-3.044996],[132.556914,-3.116942],[132.592473,-3.185279],[132.596838,-3.234788],[132.663726,-3.325553],[132.722199,-3.343337],[132.731919,-3.282785],[132.766506,-3.268889],[132.796512,-3.276665],[132.819003,-3.30542],[132.801417,-3.371597],[132.822756,-3.452786],[132.850035,-3.474584],[132.882462,-3.470975],[132.927066,-3.55472],[132.889167,-3.594446],[132.783057,-3.632786],[132.750828,-3.71834],[132.818031,-3.891941],[132.827103,-3.927365],[132.815736,-3.936455],[132.84747,-4.010003],[132.912198,-4.097915],[132.990786,-4.117499],[133.048305,-4.062086],[133.237458,-4.076387],[133.451082,-3.869306],[133.441164,-3.832217],[133.406217,-3.801941],[133.399134,-3.732497],[133.585506,-3.568337],[133.589781,-3.534443],[133.543827,-3.460553],[133.605099,-3.418793],[133.642917,-3.411125],[133.658874,-3.136661],[133.828857,-2.961665],[133.862184,-3.007502],[133.860231,-3.082634],[133.713009,-3.192785],[133.687503,-3.276782],[133.699131,-3.413051],[133.635528,-3.473333],[133.707456,-3.631949],[133.778592,-3.677219],[133.804134,-3.671108],[133.796214,-3.614444],[133.832403,-3.589028],[133.92468,-3.750281],[134.026092,-3.805001],[134.126694,-3.752288],[134.141355,-3.758606],[134.192466,-3.828743],[134.162469,-3.893057],[134.182737,-3.934583],[134.30304,-4.01084],[134.339967,-3.991661],[134.366058,-3.897215],[134.433045,-3.913613],[134.521632,-4.026392],[134.59761,-4.010138],[134.617464,-3.95819],[134.673039,-3.915134],[134.90055,-3.929444],[134.969409,-3.950972],[134.913591,-3.980132],[134.8533,-3.954167],[134.708571,-3.936392],[134.683875,-3.949163],[134.646228,-4.125554],[134.801226,-4.256108],[134.871627,-4.285895],[134.261795,-4.69831],[133.98204,-4.873762],[133.601929,-5.08475],[133.580208,-6.141334],[133.259267,-6.433099],[132.675738,-7.600158],[132.65548,-8.106597],[132.123264,-8.521726],[131.100839,-9.09933],[130.32406,-9.358256],[129.766374,-9.471121],[129.515616,-9.484861],[128.534516,-9.367505],[128.23619,-9.393447],[127.94435,-9.510183],[127.666035,-9.671323],[127.477406,-9.808508],[126.90021,-10.093863],[126.394354,-10.30788],[125.888497,-10.424616],[125.538289,-10.554322],[125.259419,-10.807251],[124.870299,-11.092606],[124.708165,-11.053694],[124.357957,-11.105576],[123.702937,-11.326078],[122.970094,-11.676286],[122.748265,-11.84963],[122.606389,-12.097987],[122.463444,-12.426762],[122.477738,-12.827009],[122.391971,-13.1129],[122.234731,-13.313024],[121.920251,-13.527442],[121.63436,-13.670387],[120.81186,-13.898101],[120.258904,-13.749539],[120.135215,-13.701268],[119.808944,-13.690451],[119.369018,-13.593526],[118.831305,-13.449068],[118.39765,-13.176154],[117.964999,-12.878777],[117.681176,-12.766853],[117.254652,-12.537073],[117.172194,-12.471548],[117.046097,-12.477289],[116.234368,-12.376875],[115.89572,-12.271003],[115.142942,-9.845427],[114.690884,-9.242682],[114.488437,-8.764909],[114.568326,-8.782496],[114.609987,-8.769716],[114.621228,-8.707634],[114.584022,-8.663201],[114.493734,-8.622368],[114.463728,-8.629721],[114.372621,-8.523476],[114.35679,-8.435555],[114.505402,-7.691485],[114.711743,-7.22868],[115.521906,-3.807995],[115.748874,-3.711392],[115.839423,-3.630554],[115.975809,-3.601106],[116.011386,-3.431663],[116.099271,-3.265154],[116.171658,-3.165551],[116.21637,-3.142781],[116.210826,-3.085559],[116.121087,-2.975282],[116.10999,-2.923334],[116.131923,-2.823335],[116.151093,-2.826107],[116.206101,-2.921948],[116.22249,-3.004586],[116.244981,-3.014864],[116.274429,-2.999996],[116.34444,-2.912363],[116.37387,-2.845835],[116.362197,-2.665286],[116.303787,-2.612366],[116.306586,-2.517983],[116.421228,-2.494718],[116.464905,-2.51792],[116.481294,-2.563055],[116.504172,-2.561948],[116.54721,-2.481668],[116.603955,-2.189861],[116.518599,-2.167496],[116.417484,-2.213756],[116.327205,-2.147498],[116.372484,-2.096108],[116.435529,-2.073608],[116.458038,-2.044997],[116.445456,-1.783187],[116.383329,-1.766105],[116.261442,-1.812365],[116.223939,-1.779029],[116.402769,-1.679165],[116.539704,-1.624445],[116.564994,-1.573613],[116.536923,-1.527785],[116.539011,-1.473758],[116.625672,-1.413053],[116.755542,-1.367504],[116.787483,-1.251395],[116.753598,-1.174868],[116.712765,-1.134161],[116.740251,-1.027916],[116.758881,-1.035836],[116.740953,-1.101185],[116.81694,-1.273895],[116.923599,-1.254446],[117.026379,-1.199447],[117.144711,-1.005002],[117.25776,-0.868058],[117.265851,-0.821645],[117.290007,-0.80639],[117.330552,-0.854999],[117.45387,-0.861947],[117.623457,-0.777221],[117.574434,-0.648611],[117.63135,-0.424025],[117.593604,-0.426662],[117.44478,-0.52397],[117.471096,-0.342503],[117.435402,-0.240281],[117.481518,-0.096812],[117.528813,-0.032786],[117.467478,0.103609],[117.522495,0.297496],[117.569304,0.398053],[117.621648,0.436663],[117.720549,0.641665],[117.721089,0.694999],[117.742203,0.73972],[117.811512,0.807499],[117.903321,0.837496],[117.936918,0.831394],[117.999999,0.78472],[118.034991,0.81028],[118.029843,0.853741],[117.891369,1.092079],[117.893052,1.117783],[117.953469,1.099999],[117.992187,1.066807],[118.030815,0.96166],[118.071378,0.91972],[118.165815,0.877222],[118.343871,0.843058],[118.504989,0.828613],[118.676655,0.844714],[118.794564,0.800281],[118.934712,0.89722],[119.009016,0.98389],[118.994427,1.048609],[118.839429,1.098055],[118.795536,1.150003],[118.77498,1.203472],[118.595547,1.358335],[118.526931,1.363195],[118.450539,1.398745],[118.419984,1.477504],[118.13499,1.64611],[117.87192,1.876663],[117.86832,2.037781],[117.85617,2.079064],[117.829287,2.104165],[117.904707,2.080837],[118.073322,2.238472],[118.09665,2.276668],[118.091925,2.314441],[117.998028,2.439721],[117.816381,2.615554],[117.777213,2.762218],[117.730818,2.790838],[117.671652,2.801107],[117.688725,2.967985],[117.618318,3.088954],[117.461925,3.157786],[117.345546,3.178054],[117.2754,3.220003],[117.262836,3.257362],[117.311922,3.245284],[117.433314,3.359449],[117.442476,3.432367],[117.395955,3.44458],[117.323325,3.435832],[117.237618,3.489715],[117.204993,3.539998],[117.205263,3.613474],[117.124155,3.620836],[117.031383,3.600694],[117.071874,3.642706],[117.355815,3.636667],[117.515547,3.613888],[117.760275,3.63916],[117.82944,3.704311],[117.831375,3.718189],[117.770076,3.73672],[117.782208,3.788893],[117.70902,3.866662],[117.618732,3.876454],[117.522558,3.93166],[117.623871,3.946942],[117.471096,4.07611],[117.401508,4.095559],[117.39276,4.139722],[117.40248,4.150558],[117.492759,4.124719],[117.592056,4.169818],[117.651924,4.266946],[117.629154,4.353607],[117.693036,4.374721],[117.863037,4.287214],[117.905679,4.245976],[117.995895,4.22416],[118.18359,4.30777],[118.404423,4.348891],[118.549575,4.35097],[118.644849,4.43764],[118.594845,4.521241],[118.544031,4.525471],[118.509282,4.500577],[118.467261,4.538449],[118.486971,4.5649],[118.485261,4.592782],[118.44054,4.613194],[118.417212,4.59334],[118.282347,4.680838],[118.132344,4.853611],[118.140543,4.888333],[118.207359,4.961809],[118.354284,5.035834],[118.413306,5.030551],[118.446786,4.999024],[118.54971,4.958605],[118.701666,4.943053],[118.91331,5.02777],[119.069721,5.069998],[119.223873,5.148613],[119.272491,5.22361],[119.275821,5.345002],[119.238876,5.40361],[119.1897,5.443327],[119.13138,5.435695],[119.070261,5.404447],[118.934712,5.429719],[118.692198,5.591395],[118.579023,5.688892],[118.373598,5.807503],[118.25874,5.827501],[118.176651,5.803894],[118.156374,5.786947],[118.125531,5.689441],[117.955476,5.685076],[117.908172,5.797576],[117.931374,5.813605],[118.08027,5.810275],[118.124694,5.864023],[118.048599,6.019444],[118.006866,6.061249],[117.886923,5.952637],[117.782208,5.914999],[117.503055,5.896108],[117.629964,5.940271],[117.674838,5.982364],[117.662769,6.088888],[117.600399,6.192496],[117.642213,6.243607],[117.722619,6.257008],[117.739287,6.386941],[117.724428,6.423337],[117.648468,6.514714],[117.558594,6.537772],[117.466515,6.539446],[117.301653,6.626242],[117.277074,6.666391],[117.253053,6.767785],[117.249291,6.945139],[117.145134,7.001524],[117.077625,6.987502],[117.031095,6.934861],[117.048024,6.825556],[116.862489,6.596389],[116.824158,6.58],[116.783802,6.584239],[116.780823,6.643333],[116.851383,6.756949],[116.859708,6.803335],[116.839854,6.948748],[116.766378,7.023124],[116.715816,6.967774],[116.656938,6.846661],[116.643879,6.701113],[116.507214,6.544306],[116.50068,6.493474],[116.3286,6.363334],[116.10999,6.127777],[116.090271,5.977774],[116.053308,5.900275],[116.051094,5.840839],[115.918875,5.7475],[115.895268,5.644864],[115.848873,5.563891],[115.81749,5.533894],[115.7625,5.520277],[115.52832,5.517496],[115.380252,5.400973],[115.359705,5.309578],[115.48512,5.220838],[115.559145,5.202496],[115.574157,5.179168],[115.564698,5.089168],[115.546104,5.053051],[115.479711,5.022775],[115.356933,4.899448],[115.327827,4.893742],[115.207902,4.954996],[115.145784,4.903237],[115.133589,4.857634],[115.049979,4.798333],[115.029126,4.820212],[115.018434,4.895794],[114.982065,4.889719],[115.103601,5.039101],[115.082208,5.052214],[115.040268,5.047498],[114.913602,4.996387],[114.736644,4.88584],[114.529167,4.695832],[114.30081,4.595554],[114.203043,4.581667],[114.160536,4.594168],[113.974848,4.591945],[113.963049,4.56958],[113.994711,4.439719],[113.943861,4.274443],[113.776659,4.044718],[113.645955,3.912743],[112.805007,4.83014],[112.104834,5.406753],[114.662871,6.844328],[116.051612,7.664478],[116.907303,8.675713],[117.140562,9.166633],[117.752215,10.138083],[118.26755,10.911084],[118.42215,11.632552],[118.525217,13.333155],[119.186818,13.961588],[119.465309,17.012969],[119.465309,17.952576],[119.517509,18.735582],[120.999701,18.726659],[121.818468,18.677036],[122.165823,18.701847],[125.667762,18.153626],[125.828622,17.551693],[125.853235,17.22919],[125.8498,16.938944],[126.144625,16.718527],[126.411437,16.549445],[126.57918,16.401991],[127.021595,15.90733],[127.171551,15.700248],[127.258831,15.537277],[127.498495,15.080314],[127.584993,14.854365],[128.093202,14.271584],[128.265769,13.992815],[128.388226,13.838419],[128.594331,13.439774],[128.658625,13.34355],[128.75267,13.046052],[128.847056,12.724305],[128.906137,12.298381],[129.050013,12.004662],[129.157218,11.70648],[129.211441,11.353048],[129.293705,11.017563],[129.309097,10.822152],[129.388451,10.569601],[129.417411,10.33407],[129.451781,10.220309],[129.553231,9.614382],[129.615219,9.391916],[129.63581,9.189703],[129.739117,8.610331],[129.866925,8.112117],[129.916062,7.740637],[129.727754,4.275971],[130.397811,3.181545],[130.896088,1.431574],[134.338736,2.539378],[134.452575,2.51131],[134.762699,2.603234],[135.38916,2.662666],[135.842804,2.631633],[136.432332,2.476153],[137.089268,2.345862],[137.203043,2.3024],[137.621629,2.082269],[137.921186,1.860568],[138.003191,1.816695],[138.246237,1.802566],[138.588204,1.71504],[138.725525,1.729333],[139.967383,1.486564],[140.834633,0.963461],[141.215781,1.275484],[141.648409,1.507209],[141.791213,1.601705],[141.976434,1.663509],[142.223372,1.720356],[142.302152,1.766324],[142.40547,1.786876],[142.731441,1.89651],[143.384677,1.985254],[143.696815,2.042612],[144.13269,2.153683],[144.359335,2.16654],[144.517212,2.197944],[144.759314,2.158513],[145.043035,2.134674],[145.228135,2.082156],[145.576317,2.025091],[145.667777,1.969082],[145.793748,1.94365],[145.987464,1.815136],[146.358182,1.616521],[146.644569,1.381621],[146.897024,1.397989],[147.716184,1.303699],[148.291318,1.687991],[148.918169,1.877944],[149.598526,1.940047],[150.554905,1.795141],[150.865748,1.689337],[151.357573,1.439889],[151.554704,1.317714],[152.386102,0.652844],[152.802042,0.601541],[153.351789,0.406656],[153.73981,0.343092],[153.831209,0.287118],[153.957078,0.261705],[154.601648,-0.16806],[154.799408,-0.128723],[156.074161,-0.382287],[156.521242,-0.681017],[156.871755,-0.887247],[157.000405,-1.001183],[157.154843,-1.104376],[157.585687,-1.646377],[157.660586,-1.786179],[157.812243,-1.668835],[158.230863,-1.459872],[159.505615,-1.206308],[160.421277,-1.34469],[160.747969,-1.453427],[161.143061,-1.636546],[161.866819,-2.18521],[162.22366,-2.606811],[162.59483,-3.285592],[162.765156,-3.824358],[162.812178,-4.226996],[162.88863,-4.688737],[163.015527,-5.107348],[163.59098,-5.187862],[164.013288,-5.327128],[164.518131,-5.639647],[164.619895,-5.722903],[165.114316,-6.053264],[165.532293,-6.563613],[165.693298,-6.864771],[164.042,-10.835769]]]]}}