{"type":"Feature","properties":{"name":"Gulf of Saint Lawrence Federal Marine Bioregion (Canada)","source":"Fisheries and Oceans Canada (DFO), Marine Planning and Conservation Directorate, Federal Marine Bioregions","source_url":"https://open.canada.ca/data/en/dataset/23eb8b56-dac8-4efc-be7c-b8fa11ba62e9","source_record":"23eb8b56-dac8-4efc-be7c-b8fa11ba62e9","license":"Open Government Licence - Canada","components":["Gulf of Saint Lawrence"],"retrieved":"2026-10-07","note":"Reprojected from Canada Albers Equal Area Conic (NAD83) to WGS84, the Albers edges densified at 2 km first. Interior rings that are islands are dropped: land is excluded by sst_daily holding ocean cells only, not by the geometry. Parts holding no 0.05-degree cell centre are dropped. This is Canada's own marine-planning framework, not a maritime limit: the dataset describes its boundaries as fuzzy and revisable on ecosystem grounds. Longitudes are 0-360, as everywhere else in this project.","simplify_tolerance_deg":0.005,"dfo_area_km2":246648,"cells":12761,"cells_moved_by_simplification":47},"geometry":{"type":"MultiPolygon","coordinates":[[[[304.29659,51.57918],[304.29177,51.56303],[304.26936,51.55906],[304.26712,51.55054],[304.25541,51.54768],[304.26707,51.57357],[304.26055,51.58229],[304.23917,51.55447],[304.24277,51.54609],[304.27054,51.52926],[304.28854,51.53705],[304.29841,51.53279],[304.28708,51.52566],[304.29422,51.51211],[304.28542,51.49688],[304.31982,51.49604],[304.32779,51.48749],[304.31581,51.48497],[304.33062,51.47502],[304.37706,51.4737],[304.32434,51.46702],[304.31317,51.4766],[304.24755,51.49212],[304.19542,51.48375],[304.1791,51.4974],[304.16687,51.48823],[304.15823,51.49381],[304.10717,51.48903],[304.1013,51.4929],[304.10902,51.5011],[304.10458,51.50469],[304.13063,51.51267],[304.12278,51.52692],[304.13538,51.54409],[304.10182,51.53455],[304.10326,51.54617],[304.09679,51.54777],[304.1176,51.56625],[304.11896,51.58108],[304.13563,51.59833],[304.16044,51.60819],[304.13945,51.6117],[304.11813,51.59988],[304.10105,51.6021],[304.10459,51.6125],[304.11692,51.61458],[304.10047,51.62364],[304.03642,51.59868],[304.02527,51.58511],[304.01588,51.58293],[304.01978,51.58943],[304.01223,51.5913],[303.99317,51.57961],[304.0017,51.57634],[303.99179,51.56821],[303.96512,51.56571],[303.92457,51.53896],[303.85435,51.51642],[303.81522,51.51362],[303.7341,51.47352],[303.65457,51.45094],[303.58259,51.41663],[303.55702,51.40806],[303.52258,51.41211],[303.49206,51.4055],[303.3628,51.36023],[303.32591,51.33593],[303.30006,51.33212],[303.30785,51.32388],[303.27879,51.31604],[303.28577,51.30668],[303.26688,51.30792],[303.27336,51.30179],[303.25005,51.29239],[303.24881,51.26521],[303.218,51.25259],[303.19315,51.22631],[303.24738,51.21034],[303.2332,51.20572],[303.23674,51.19922],[303.2606,51.20195],[303.23983,51.19158],[303.23951,51.18221],[303.2302,51.1843],[303.22291,51.19938],[303.20679,51.19801],[303.18836,51.18458],[303.20597,51.15091],[303.20183,51.12861],[303.17087,51.11234],[303.17201,51.12854],[303.1527,51.11239],[303.14423,51.12636],[303.13331,51.12094],[303.12442,51.11341],[303.13786,51.11327],[303.12468,51.10151],[303.12489,51.0784],[303.09856,51.05466],[303.08958,51.06131],[303.07529,51.0489],[303.02313,51.05032],[303.0153,51.04184],[303.03732,51.0401],[303.04076,51.032],[303.06563,51.04024],[303.07301,51.02608],[303.08672,51.03028],[303.10077,51.02372],[303.08702,51.01884],[303.09642,51.01309],[303.07564,51.01161],[303.07307,50.99999],[303.02038,50.99999],[303.01629,50.98779],[302.99281,50.99999],[302.99847,51.01256],[302.9835,51.02187],[302.94389,51.01515],[302.94089,51.03033],[302.90321,51.01416],[302.92967,51.01392],[302.95287,51.00279],[302.94713,50.99999],[302.95927,50.9934],[302.95956,50.97334],[302.98246,50.97538],[302.99439,50.94721],[303.01246,50.94278],[302.99899,50.9318],[303.04269,50.93228],[303.05255,50.94314],[303.05683,50.93776],[303.04688,50.92121],[303.08265,50.91713],[303.06097,50.91211],[303.03772,50.91465],[303.03074,50.92239],[303.00376,50.9141],[303.00205,50.90116],[303.02674,50.89402],[302.94549,50.83519],[302.89698,50.78353],[302.86349,50.77814],[302.85923,50.76915],[302.8412,50.76854],[302.81979,50.75116],[302.77573,50.75837],[302.77742,50.74191],[302.76323,50.73457],[302.70624,50.73164],[302.64149,50.70497],[302.63606,50.7147],[302.65253,50.72427],[302.64627,50.73242],[302.62661,50.72864],[302.62913,50.7183],[302.60945,50.71954],[302.58424,50.70291],[302.6032,50.69646],[302.63244,50.70385],[302.67778,50.67432],[302.68366,50.64542],[302.74878,50.6479],[302.74731,50.64246],[302.69757,50.6391],[302.72787,50.62638],[302.72461,50.62077],[302.7058,50.62359],[302.71951,50.61453],[302.82321,50.63524],[302.83516,50.62691],[302.82597,50.61897],[302.82913,50.61318],[302.77806,50.59597],[302.72058,50.59923],[302.67122,50.62138],[302.61581,50.60309],[302.5988,50.57962],[302.59826,50.53494],[302.58136,50.52857],[302.52423,50.47699],[302.51267,50.44288],[302.46929,50.39159],[302.45501,50.36414],[302.45707,50.34105],[302.37519,50.18604],[302.38966,50.18429],[302.38929,50.17859],[302.34013,50.13721],[302.29183,50.06224],[302.28425,50.03711],[302.3138,50.03338],[302.31876,50.01614],[302.34272,49.99133],[302.35566,49.98871],[302.35689,50.00831],[302.37711,49.99181],[302.39157,50.00215],[302.40353,49.98951],[302.44106,49.98395],[302.43939,49.96893],[302.35477,49.97459],[302.3139,49.98911],[302.30474,49.99574],[302.30726,50.02511],[302.27098,50.02877],[302.2219,49.96702],[302.23789,49.94449],[302.21337,49.93095],[302.2147,49.91768],[302.1628,49.91919],[302.16277,49.91258],[302.19237,49.91093],[302.1637,49.88631],[302.16072,49.87177],[302.20275,49.87142],[302.20155,49.8573],[302.23363,49.86791],[302.21743,49.84526],[302.23722,49.85709],[302.2446,49.84481],[302.27544,49.83512],[302.28978,49.83864],[302.29917,49.8247],[302.33152,49.82272],[302.31411,49.81519],[302.20592,49.81199],[302.19349,49.85248],[302.16938,49.86289],[302.16274,49.84593],[302.12074,49.83418],[302.13698,49.82214],[302.12207,49.80858],[302.12175,49.79078],[302.07945,49.76669],[302.07257,49.74495],[302.04543,49.7198],[302.02539,49.68283],[302.03402,49.60455],[302.07037,49.59455],[302.07362,49.58991],[302.05541,49.58486],[302.10374,49.52685],[302.14153,49.53095],[302.14936,49.55702],[302.15994,49.5636],[302.15986,49.53826],[302.17542,49.51618],[302.2212,49.48946],[302.26693,49.47984],[302.29016,49.45824],[302.25967,49.46427],[302.24587,49.45047],[302.22429,49.47065],[302.20153,49.47123],[302.13493,49.51399],[302.10391,49.50538],[302.08599,49.4864],[302.10549,49.4656],[302.10355,49.45012],[302.11971,49.43854],[302.10038,49.43741],[302.06996,49.48199],[302.08043,49.50572],[302.07315,49.52599],[302.04643,49.55014],[302.00325,49.56304],[301.97292,49.55438],[301.94646,49.53262],[301.86801,49.49603],[301.86599,49.4842],[301.85334,49.48381],[301.78367,49.43099],[301.76044,49.40112],[301.76504,49.36745],[301.73487,49.31694],[301.74036,49.28006],[301.78722,49.23314],[301.82353,49.24011],[301.83981,49.23107],[301.96338,49.21226],[302.04,49.2413],[302.05913,49.23992],[302.00286,49.2006],[302.01139,49.1972],[301.99552,49.19393],[302.00386,49.1871],[301.99284,49.18325],[301.94256,49.17551],[301.87756,49.1923],[301.87611,49.17132],[301.89435,49.15377],[301.95146,49.14652],[302.06956,49.19484],[302.05806,49.17735],[302.03023,49.17208],[302.00329,49.15125],[302.05037,49.13939],[302.08376,49.15069],[302.11918,49.17907],[302.14339,49.18167],[302.07198,49.13955],[302.06805,49.12548],[301.99151,49.13987],[301.97438,49.12588],[301.93258,49.11931],[301.87367,49.14487],[301.84496,49.13547],[301.841,49.12619],[301.84594,49.08039],[301.8676,49.07533],[301.87502,49.0642],[301.87419,49.04183],[301.92048,49.01632],[301.93701,48.99401],[302.02193,48.97785],[302.08478,48.98981],[302.10431,48.97265],[302.09432,48.96193],[302.06233,48.96728],[302.03272,48.95931],[301.90734,48.98486],[301.86198,49.01446],[301.82569,49.06553],[301.71272,49.07438],[301.64375,49.05825],[301.61779,49.06083],[301.61563,49.0739],[301.62838,49.09328],[301.65237,49.10718],[301.61094,49.09981],[301.63185,49.1076],[301.64239,49.12406],[301.6382,49.14562],[301.62167,49.14984],[301.56135,49.11132],[301.56525,49.09046],[301.52708,49.03204],[301.48695,49.00542],[301.47997,48.97357],[301.48523,48.94377],[301.45692,48.88446],[301.40617,48.82534],[301.38405,48.80998],[301.31416,48.70227],[301.31974,48.69532],[301.30323,48.68876],[301.32013,48.62995],[301.27578,48.56584],[301.19253,48.5689],[301.16882,48.57959],[301.15682,48.59899],[301.1523,48.65209],[301.13818,48.58948],[301.11246,48.56545],[301.08439,48.56088],[301.07889,48.57057],[301.09259,48.59617],[301.03692,48.61056],[301.02387,48.63133],[301.03028,48.64654],[301.06305,48.67435],[301.22928,48.79152],[301.08832,48.7041],[301.07064,48.70234],[300.97634,48.65309],[300.89551,48.62986],[300.88823,48.61854],[300.85327,48.60396],[300.76192,48.53737],[300.75465,48.50273],[300.72626,48.4741],[300.74086,48.46773],[300.90894,48.517],[300.97193,48.52678],[300.98364,48.52683],[300.98263,48.51771],[301.02468,48.51933],[301.02619,48.51359],[301.05532,48.51016],[301.07117,48.51996],[301.21665,48.5342],[301.24939,48.54345],[301.26514,48.55826],[301.41644,48.54359],[301.43768,48.53312],[301.45806,48.50324],[301.48488,48.50273],[301.52999,48.51851],[301.56389,48.492],[301.55804,48.50721],[301.57853,48.52576],[301.58858,48.50498],[301.59518,48.51376],[301.65988,48.52773],[301.70085,48.52755],[301.72229,48.5152],[301.65261,48.51257],[301.56791,48.48963],[301.55677,48.45671],[301.54652,48.45075],[301.51284,48.43588],[301.42088,48.4155],[301.41671,48.40666],[301.38027,48.40598],[301.40104,48.42571],[301.44588,48.44519],[301.48207,48.44723],[301.50432,48.46051],[301.46111,48.45541],[301.39534,48.42901],[301.36452,48.39896],[301.31028,48.37459],[301.29625,48.33369],[301.20496,48.2713],[301.17997,48.26304],[301.09876,48.19789],[301.0563,48.178],[301.01765,48.13952],[300.93829,48.11721],[300.84494,48.07241],[300.72724,48.00592],[300.68116,47.9688],[300.67412,47.94923],[300.60478,47.92931],[300.57928,47.90539],[300.5786,47.89305],[300.62091,47.86097],[300.62499,47.84902],[300.60975,47.8387],[300.63558,47.83883],[300.65435,47.82967],[300.65558,47.84886],[300.67951,47.85358],[300.7547,47.85554],[300.79892,47.84532],[300.7744,47.83286],[300.7568,47.84636],[300.73209,47.84968],[300.72747,47.84311],[300.67397,47.8381],[300.66202,47.82454],[300.65622,47.78779],[300.66177,47.76829],[300.71513,47.77078],[300.73917,47.78029],[300.7041,47.75355],[300.67919,47.76028],[300.69174,47.73702],[300.67435,47.69859],[300.67185,47.6705],[300.68556,47.66437],[300.67727,47.62331],[300.75574,47.62134],[300.76957,47.60879],[300.74931,47.61021],[300.75499,47.58543],[300.7666,47.57795],[300.7721,47.58085],[300.76678,47.58389],[300.78589,47.58935],[300.97775,46.64302],[300.18705,46.1728],[300.18031,46.18209],[300.15741,46.17997],[300.11959,46.1934],[300.07257,46.18177],[300.08268,46.17551],[300.05483,46.16331],[300.04768,46.16982],[300.06636,46.18503],[300.05085,46.19801],[300.04712,46.21777],[299.99176,46.22132],[299.97614,46.2148],[299.95716,46.22632],[299.96115,46.21411],[299.92948,46.2095],[299.91374,46.21793],[299.96441,46.23033],[299.97149,46.24252],[299.87361,46.2686],[299.86521,46.25729],[299.82815,46.24097],[299.80589,46.21452],[299.78438,46.20556],[299.79738,46.20723],[299.79449,46.18848],[299.80502,46.17097],[299.80343,46.15647],[299.79194,46.15442],[299.80362,46.1354],[299.77845,46.11288],[299.79588,46.1363],[299.78074,46.15042],[299.77227,46.18669],[299.74233,46.17956],[299.70392,46.15259],[299.69506,46.15348],[299.69245,46.16848],[299.73553,46.19212],[299.78194,46.23155],[299.79295,46.26167],[299.74435,46.27047],[299.72913,46.31022],[299.70896,46.31879],[299.71442,46.32585],[299.70915,46.33882],[299.66837,46.32356],[299.6368,46.32589],[299.5769,46.28502],[299.56288,46.26553],[299.52263,46.24175],[299.49035,46.20916],[299.44951,46.1894],[299.40634,46.13276],[299.34474,46.09771],[299.33325,46.07369],[299.3992,46.08951],[299.43536,46.12095],[299.46496,46.12985],[299.47122,46.14072],[299.44867,46.13025],[299.47193,46.14918],[299.53659,46.18039],[299.58719,46.22644],[299.62676,46.24184],[299.65389,46.22476],[299.70593,46.25276],[299.67825,46.20876],[299.64903,46.21243],[299.60968,46.20262],[299.5763,46.15035],[299.55359,46.14647],[299.49605,46.10114],[299.35528,46.02466],[299.30898,46.01332],[299.25611,45.97583],[299.24132,45.97333],[299.25015,45.97246],[299.21117,45.96055],[299.19901,45.93914],[299.21405,45.93219],[299.25333,45.93474],[299.27187,45.90238],[299.27373,45.92224],[299.28057,45.92476],[299.28043,45.89952],[299.33869,45.90757],[299.34881,45.91358],[299.33058,45.91254],[299.34949,45.92432],[299.3679,45.92313],[299.35956,45.92815],[299.37308,45.93254],[299.36,45.93402],[299.42023,45.94677],[299.44343,45.94566],[299.43815,45.93972],[299.45393,45.9438],[299.41182,45.95146],[299.41284,45.95672],[299.44564,45.96256],[299.45772,45.95785],[299.52392,45.97494],[299.53161,45.97743],[299.52744,45.98288],[299.5891,46.01129],[299.64413,46.0276],[299.59873,46.00957],[299.57425,45.98362],[299.50155,45.94754],[299.45697,45.90465],[299.3613,45.8582],[299.32648,45.82315],[299.25892,45.79726],[299.24754,45.78261],[299.25408,45.77925],[299.24988,45.76677],[299.24279,45.76727],[299.25563,45.75219],[299.23314,45.75972],[299.25786,45.74441],[299.24154,45.73532],[299.25824,45.73405],[299.26101,45.74022],[299.27504,45.73229],[299.25268,45.72618],[299.25175,45.70537],[299.26136,45.68974],[299.24124,45.7059],[299.22354,45.70662],[299.21645,45.70136],[299.22089,45.69179],[299.20995,45.684],[299.18018,45.68723],[299.17291,45.67852],[299.18101,45.6714],[299.14756,45.66824],[299.1617,45.6674],[299.17015,45.65389],[299.15787,45.65766],[299.15486,45.64995],[299.12214,45.661],[299.14953,45.67295],[299.14849,45.67943],[299.17005,45.67832],[299.15774,45.68848],[299.17921,45.69145],[299.16903,45.70112],[299.18101,45.69589],[299.18078,45.70716],[299.19979,45.70113],[299.18852,45.71271],[299.19378,45.71768],[299.17748,45.72795],[299.18964,45.72587],[299.18978,45.73674],[299.17427,45.73601],[299.15106,45.75305],[299.05988,45.77387],[299.0553,45.76677],[299.03577,45.76787],[298.97096,45.72594],[298.92269,45.70896],[298.90168,45.68903],[298.90928,45.70133],[298.89612,45.69738],[298.87699,45.70601],[298.86328,45.69965],[298.8302,45.70998],[298.88342,45.73642],[298.87002,45.74394],[298.87833,45.76333],[298.85855,45.74029],[298.84819,45.7442],[298.85577,45.74629],[298.85791,45.75083],[298.84255,45.74705],[298.8393,45.75361],[298.86022,45.75467],[298.86451,45.76093],[298.84717,45.75718],[298.89584,45.79164],[298.95956,45.8169],[298.97503,45.8321],[298.99701,45.83347],[298.98781,45.82568],[299.0008,45.82758],[299.02408,45.84267],[299.02327,45.85295],[299.03859,45.85334],[299.03057,45.84133],[299.04951,45.83465],[299.05736,45.84702],[299.05957,45.84123],[299.0685,45.84427],[299.02358,45.86394],[299.03359,45.87202],[299.01639,45.86595],[299.0052,45.87765],[299.01676,45.8733],[299.01204,45.87946],[299.02683,45.88179],[299.04783,45.87196],[299.0416,45.87035],[299.04784,45.86143],[299.07243,45.85687],[299.08816,45.86946],[299.06157,45.87159],[299.05672,45.88429],[299.04008,45.88504],[299.02614,45.90356],[298.98055,45.90189],[298.97662,45.89731],[299.01823,45.8975],[299.02933,45.88869],[298.95915,45.88237],[298.94785,45.86522],[298.93375,45.86612],[298.92363,45.85565],[298.92079,45.86223],[298.90259,45.8611],[298.90417,45.87067],[298.89923,45.86738],[298.88876,45.88688],[298.92675,45.8816],[298.94506,45.89246],[298.97149,45.89465],[298.93726,45.89794],[298.93611,45.89229],[298.90313,45.90407],[298.92247,45.9084],[298.9274,45.90316],[298.94115,45.91363],[298.94478,45.90733],[298.96687,45.91053],[298.96119,45.9053],[298.96972,45.90279],[299.00504,45.9075],[299.01306,45.91495],[298.99496,45.91564],[299.00775,45.92299],[298.99224,45.9281],[299.0074,45.93076],[299.00307,45.94492],[299.01094,45.94801],[299.00839,45.93797],[299.02776,45.91613],[299.04548,45.91866],[299.06122,45.93377],[299.08321,45.93309],[299.08156,45.94316],[299.10618,45.94339],[299.08452,45.92713],[299.06005,45.92275],[299.09043,45.92073],[299.09666,45.93171],[299.10717,45.92943],[299.09995,45.92439],[299.11045,45.92462],[299.12959,45.93447],[299.12384,45.9438],[299.18398,45.94451],[299.1955,45.96259],[299.18895,45.9745],[299.1938,45.99989],[299.22307,46.02377],[299.20262,46.0236],[299.22884,46.02924],[299.25877,46.05709],[299.26151,46.07141],[299.22737,46.07298],[299.16953,46.04143],[299.17843,46.05103],[299.17185,46.05333],[299.13422,46.01823],[299.13369,46.02643],[299.1502,46.04193],[299.14663,46.04867],[299.15686,46.05239],[299.14984,46.05644],[299.12985,46.0513],[299.13215,46.05909],[299.10349,46.04234],[299.07952,46.04156],[299.07236,46.03814],[299.07515,46.0322],[299.10062,46.03713],[299.09312,46.02796],[299.11239,46.02517],[299.08512,46.02279],[299.07611,46.01348],[299.07412,46.01987],[299.06019,46.01319],[299.06356,46.00538],[299.02288,45.99652],[299.0078,45.97475],[299.01294,45.95624],[298.97326,45.95636],[298.96042,45.94536],[298.95938,45.95479],[298.94539,45.94714],[298.94533,45.93898],[298.91875,45.94071],[298.91482,45.93659],[298.92644,45.92582],[298.89871,45.94089],[298.89423,45.93251],[298.88298,45.93859],[298.86715,45.92842],[298.86619,45.93775],[298.85292,45.94222],[298.8726,45.95164],[298.86592,45.96688],[298.87812,45.97244],[298.91502,45.96056],[299.00699,45.98874],[298.99683,46.00124],[299.01418,46.01003],[299.00753,45.99569],[299.03177,46.00583],[299.02348,46.01515],[299.05926,46.05153],[299.09109,46.05824],[299.08988,46.08374],[299.11851,46.09475],[299.13583,46.09177],[299.13875,46.10398],[299.1478,46.10289],[299.14289,46.09411],[299.16248,46.09841],[299.11249,46.07654],[299.10924,46.0669],[299.11976,46.06577],[299.12525,46.07638],[299.15989,46.07164],[299.22869,46.0892],[299.2709,46.11046],[299.29107,46.1297],[299.30242,46.12448],[299.28279,46.11282],[299.28205,46.09498],[299.3516,46.11683],[299.38338,46.13473],[299.36014,46.13947],[299.35781,46.14627],[299.36938,46.14144],[299.4024,46.14961],[299.46814,46.22019],[299.49513,46.22817],[299.51531,46.25768],[299.55786,46.29058],[299.5826,46.29483],[299.58317,46.34398],[299.55334,46.34724],[299.53089,46.33798],[299.45786,46.2884],[299.43482,46.24375],[299.4053,46.20931],[299.40066,46.20612],[299.39929,46.21525],[299.4074,46.22067],[299.39989,46.22495],[299.37695,46.20669],[299.40693,46.25645],[299.37638,46.26434],[299.39098,46.26781],[299.38138,46.30334],[299.39895,46.2688],[299.42446,46.27679],[299.44956,46.30617],[299.45715,46.29557],[299.45447,46.31771],[299.47687,46.3464],[299.46693,46.35026],[299.47357,46.35527],[299.48049,46.35021],[299.47736,46.37723],[299.50401,46.39187],[299.54236,46.43051],[299.54149,46.45308],[299.56674,46.50507],[299.58056,46.51811],[299.59095,46.54937],[299.64605,46.61422],[299.64906,46.62781],[299.56576,46.63305],[299.60967,46.63502],[299.61183,46.65312],[299.65318,46.65568],[299.6143,46.65783],[299.59331,46.67029],[299.60576,46.68764],[299.6429,46.68892],[299.6567,46.70098],[299.64667,46.71192],[299.64983,46.72323],[299.67131,46.73983],[299.67794,46.76914],[299.66669,46.77499],[299.68326,46.78551],[299.66282,46.80996],[299.68413,46.80735],[299.6777,46.82207],[299.68757,46.82561],[299.6978,46.85067],[299.68792,46.85395],[299.68912,46.86289],[299.64899,46.88449],[299.64632,46.87401],[299.63297,46.8699],[299.57754,46.87697],[299.53341,46.86753],[299.53197,46.87731],[299.5458,46.88123],[299.53611,46.88203],[299.541,46.88529],[299.57038,46.88024],[299.55707,46.89403],[299.52491,46.88586],[299.55357,46.89685],[299.54113,46.91969],[299.54285,46.90795],[299.50459,46.89725],[299.47842,46.9],[299.51548,46.91834],[299.52537,46.93148],[299.54167,46.9252],[299.54007,46.94997],[299.59878,46.9989],[299.61321,47.01597],[299.60955,47.03043],[299.58361,47.03805],[299.54378,47.00795],[299.51946,47.00205],[299.4908,47.0027],[299.46753,47.02871],[299.44215,47.02665],[299.4068,47.04231],[299.37703,47.02677],[299.37728,47.01634],[299.32777,46.97495],[299.30989,46.92062],[299.29314,46.90183],[299.23382,46.86421],[299.20091,46.83169],[299.14905,46.8208],[299.10718,46.79009],[299.06864,46.72207],[299.03602,46.68867],[299.0382,46.6732],[298.99745,46.6504],[298.98046,46.62446],[298.97298,46.6088],[298.98009,46.61341],[298.97747,46.604],[298.98684,46.59742],[298.96601,46.60685],[298.98264,46.64915],[298.97056,46.65142],[298.94434,46.61864],[298.93802,46.60337],[298.96313,46.60247],[298.9671,46.57211],[298.92118,46.52049],[298.92181,46.49623],[298.88906,46.4448],[298.92131,46.42032],[298.92749,46.40595],[298.92076,46.38744],[298.91152,46.42159],[298.87213,46.43993],[298.84021,46.39896],[298.82739,46.39279],[298.81765,46.36352],[298.74428,46.30316],[298.72802,46.26603],[298.67594,46.22787],[298.58508,46.19297],[298.54982,46.15811],[298.5495,46.14832],[298.53358,46.13624],[298.53898,46.12821],[298.52366,46.11144],[298.52482,46.10118],[298.51504,46.09499],[298.55445,46.08177],[298.58677,46.08179],[298.61325,46.07092],[298.61566,46.06404],[298.58553,46.07294],[298.57964,46.06975],[298.58919,46.06232],[298.57197,46.05683],[298.56471,46.06284],[298.5716,46.07059],[298.56535,46.07722],[298.55117,46.07458],[298.52277,46.08552],[298.44633,46.04155],[298.44959,46.02762],[298.46755,46.01143],[298.46167,46.00133],[298.46741,45.9697],[298.47304,45.96248],[298.48685,45.96893],[298.48645,45.95474],[298.46555,45.95626],[298.47967,45.93455],[298.47436,45.92658],[298.48751,45.90652],[298.51782,45.90396],[298.50891,45.88742],[298.50299,45.89512],[298.49499,45.86479],[298.50792,45.81639],[298.5038,45.80355],[298.5305,45.76043],[298.5407,45.70235],[298.5522,45.69623],[298.5708,45.66044],[298.56076,45.65704],[298.50838,45.69428],[298.47744,45.6928],[298.48417,45.69089],[298.4826,45.67716],[298.47005,45.68513],[298.47366,45.69366],[298.42999,45.69205],[298.40507,45.67261],[298.41557,45.63867],[298.39633,45.65174],[298.37325,45.64634],[298.36805,45.6317],[298.38137,45.61394],[298.34489,45.63429],[298.3424,45.64353],[298.31625,45.62604],[298.31502,45.63732],[298.25403,45.6342],[298.24177,45.64056],[298.24446,45.65001],[298.20494,45.63447],[298.19912,45.62491],[298.21649,45.61506],[298.2116,45.6091],[298.19942,45.61345],[298.20468,45.60311],[298.19928,45.60047],[298.18489,45.60656],[298.19652,45.63701],[298.17437,45.64056],[298.15762,45.63144],[298.15238,45.63837],[298.16775,45.66108],[298.17578,45.65955],[298.16753,45.64898],[298.17186,45.6444],[298.21362,45.64457],[298.1848,45.65279],[298.17918,45.66692],[298.16372,45.67689],[298.11572,45.69258],[298.10817,45.68718],[298.12656,45.68237],[298.11717,45.68154],[298.11072,45.6625],[298.09032,45.65374],[298.09189,45.64372],[298.10852,45.63877],[298.09454,45.63469],[298.08488,45.60647],[298.08483,45.61694],[298.07486,45.61852],[298.08535,45.62218],[298.07312,45.63975],[298.03963,45.62223],[298.05089,45.64561],[298.07823,45.65289],[298.07018,45.66207],[298.09184,45.66012],[298.09134,45.66745],[298.1084,45.67443],[298.08529,45.67711],[298.09251,45.67803],[298.08805,45.68788],[298.09798,45.68943],[298.09683,45.70136],[298.10995,45.69269],[298.10182,45.70672],[298.11084,45.73739],[298.09907,45.75231],[298.10353,45.75874],[298.09042,45.76301],[298.09176,45.80087],[298.07624,45.84279],[298.08001,45.85829],[298.10513,45.87431],[298.06689,45.8872],[298.01991,45.87182],[298.00904,45.85605],[297.91508,45.78862],[297.87493,45.78277],[297.82851,45.76278],[297.77564,45.72602],[297.7005,45.69248],[297.6644,45.68701],[297.64722,45.67361],[297.65147,45.66498],[297.64274,45.66843],[297.62003,45.65251],[297.60648,45.65315],[297.57771,45.6376],[297.56011,45.63916],[297.55233,45.63304],[297.55871,45.62784],[297.54786,45.63144],[297.51319,45.61843],[297.50315,45.61186],[297.49933,45.5903],[297.49154,45.6073],[297.4764,45.60617],[297.49102,45.61604],[297.47928,45.61594],[297.51937,45.65252],[297.48544,45.66362],[297.46082,45.65752],[297.48266,45.66021],[297.49608,45.65075],[297.43791,45.65048],[297.44158,45.65417],[297.42102,45.66292],[297.44323,45.66079],[297.4494,45.67145],[297.37729,45.68497],[297.362,45.67618],[297.33217,45.68202],[297.31954,45.67724],[297.31334,45.68353],[297.35346,45.69848],[297.36106,45.71593],[297.3135,45.73748],[297.26471,45.7289],[297.25332,45.73467],[297.25144,45.74514],[297.22475,45.75787],[297.25869,45.75673],[297.27805,45.74651],[297.2889,45.7481],[297.28884,45.75961],[297.30527,45.75648],[297.31888,45.76479],[297.26596,45.76106],[297.121,45.77163],[297.00329,45.79427],[296.90373,45.79726],[296.88959,45.80713],[296.87028,45.80329],[296.92011,45.77957],[296.92967,45.76571],[296.92214,45.755],[296.88735,45.76383],[296.80093,45.73375],[296.7879,45.74177],[296.78954,45.7482],[296.82208,45.76487],[296.79121,45.76712],[296.78347,45.7508],[296.7352,45.73296],[296.75892,45.72229],[296.74506,45.71793],[296.73046,45.73288],[296.7327,45.74687],[296.74454,45.75328],[296.72445,45.75039],[296.70863,45.73882],[296.71093,45.7325],[296.69635,45.7279],[296.6756,45.73947],[296.63423,45.74089],[296.62986,45.74538],[296.64166,45.75232],[296.6175,45.75852],[296.65101,45.76341],[296.65111,45.75239],[296.66494,45.7559],[296.66458,45.76403],[296.76528,45.79972],[296.74956,45.80954],[296.70025,45.80839],[296.66882,45.79688],[296.62572,45.79896],[296.59216,45.81461],[296.57006,45.81392],[296.57057,45.83537],[296.51296,45.85098],[296.58574,45.84887],[296.58438,45.86092],[296.53117,45.8782],[296.38603,45.87835],[296.35767,45.87116],[296.32808,45.87626],[296.32083,45.87136],[296.33239,45.85356],[296.29958,45.8572],[296.26904,45.87343],[296.18914,45.8935],[296.17861,45.9196],[296.12912,45.93424],[296.1352,45.96301],[296.10783,45.96963],[296.09296,45.9818],[296.02548,45.99836],[295.996,45.99553],[295.97422,46.00534],[295.9618,45.99442],[295.94527,45.99432],[295.9158,46.00548],[295.91089,46.01736],[295.89417,46.01531],[295.89273,46.02453],[295.92079,46.04491],[295.90139,46.05284],[295.92134,46.05909],[295.93114,46.05433],[295.94092,46.0651],[295.93898,46.05355],[295.95312,46.04952],[295.97562,46.05845],[296.07342,46.05066],[296.12688,46.07427],[296.18852,46.08193],[296.21963,46.10165],[296.22189,46.11576],[296.2049,46.1337],[296.1673,46.13945],[296.16265,46.14652],[296.13631,46.15086],[296.12628,46.14556],[296.11088,46.15425],[296.10728,46.1434],[296.01858,46.18175],[295.97666,46.18167],[295.9314,46.17346],[295.92715,46.16998],[295.94602,46.16673],[295.92927,46.16393],[295.94214,46.1524],[295.92167,46.1521],[295.92856,46.14111],[295.92327,46.1404],[295.91165,46.1444],[295.91906,46.16022],[295.87581,46.1833],[295.85587,46.16601],[295.86377,46.1579],[295.85763,46.14372],[295.84283,46.17181],[295.83346,46.15844],[295.81976,46.15625],[295.83225,46.17544],[295.82384,46.18134],[295.84644,46.18334],[295.83013,46.19752],[295.77455,46.21601],[295.76045,46.22917],[295.72569,46.23628],[295.69987,46.23157],[295.71797,46.2226],[295.69926,46.2199],[295.68363,46.23083],[295.62324,46.21897],[295.57912,46.23715],[295.55685,46.23548],[295.56093,46.22995],[295.52549,46.23501],[295.53023,46.23227],[295.52323,46.22782],[295.51249,46.2383],[295.48501,46.24162],[295.4704,46.23644],[295.47994,46.22738],[295.45209,46.2259],[295.43851,46.21243],[295.4283,46.25152],[295.43415,46.26756],[295.42055,46.27406],[295.42256,46.28448],[295.46303,46.29924],[295.46564,46.29021],[295.48382,46.31999],[295.46097,46.35382],[295.43836,46.36542],[295.4193,46.3542],[295.42996,46.32496],[295.37142,46.33712],[295.38503,46.34745],[295.37708,46.35598],[295.38209,46.38282],[295.37352,46.40946],[295.38138,46.41696],[295.3306,46.46413],[295.30398,46.45318],[295.28615,46.47282],[295.2965,46.47817],[295.27508,46.48008],[295.27407,46.49078],[295.30363,46.48043],[295.32329,46.48614],[295.30175,46.52743],[295.34503,46.50227],[295.37456,46.47429],[295.37887,46.46015],[295.37209,46.45576],[295.38678,46.45873],[295.37695,46.47997],[295.34601,46.50644],[295.30794,46.52681],[295.2767,46.56885],[295.27366,46.59482],[295.28887,46.62061],[295.27756,46.68739],[295.22507,46.70846],[295.26179,46.68875],[295.2394,46.68003],[295.22327,46.68701],[295.20627,46.6826],[295.19096,46.66177],[295.18682,46.66991],[295.20906,46.68697],[295.16588,46.68945],[295.1607,46.70061],[295.17971,46.72248],[295.09666,46.74559],[295.09968,46.75421],[295.11067,46.75038],[295.12008,46.76082],[295.10901,46.77836],[295.08706,46.78368],[295.09059,46.80988],[295.07311,46.80795],[295.08497,46.81533],[295.08519,46.82768],[295.07306,46.8306],[295.03819,46.81877],[295.06203,46.83508],[295.04887,46.84239],[295.04201,46.83507],[294.9984,46.83652],[295.0338,46.84175],[295.03268,46.84934],[295.04346,46.84624],[295.05961,46.85737],[295.04909,46.86435],[295.07291,46.86608],[295.07966,46.8699],[295.07598,46.87771],[295.08983,46.8824],[295.07943,46.84046],[295.12797,46.77157],[295.08485,46.84164],[295.09885,46.88786],[295.08406,46.89133],[295.102,46.89461],[295.11468,46.9269],[295.18689,46.9773],[295.18677,46.994],[295.16689,47.01505],[295.17438,47.0212],[295.16807,47.05413],[295.19294,47.06884],[295.19348,47.07614],[295.06199,47.07899],[295.04844,47.07692],[295.06043,47.07126],[295.04779,47.0678],[295.04542,47.05803],[295.01178,47.0505],[294.98953,47.06354],[294.99058,47.0786],[294.9694,47.07266],[294.98279,47.08686],[294.96744,47.08782],[294.92351,47.07277],[294.92412,47.06223],[294.88872,47.07365],[294.82944,47.0339],[294.81386,47.04125],[294.76464,47.03851],[294.78556,47.04876],[294.79154,47.08334],[294.74282,47.07112],[294.72119,47.07842],[294.71142,47.05698],[294.70822,47.0644],[294.69401,47.0595],[294.6822,47.07136],[294.63777,47.07841],[294.63487,47.09085],[294.64918,47.08928],[294.69001,47.10909],[294.72482,47.11353],[294.78384,47.149],[294.79278,47.16316],[294.79894,47.16245],[294.79564,47.15504],[294.87646,47.20373],[294.87725,47.21537],[294.89089,47.21837],[294.88071,47.22166],[294.8906,47.2337],[294.91127,47.23624],[294.93561,47.25788],[294.9872,47.2793],[295.02098,47.2801],[295.03546,47.3006],[295.02921,47.31681],[295.04611,47.36977],[295.07114,47.39455],[295.08846,47.39649],[295.07205,47.33784],[295.08133,47.34669],[295.09863,47.42062],[295.12248,47.46098],[295.13106,47.52704],[295.15803,47.5827],[295.15569,47.59157],[295.2373,47.6695],[295.23012,47.67752],[295.23987,47.68999],[295.27733,47.69258],[295.32465,47.71311],[295.31547,47.71709],[295.3176,47.72674],[295.29827,47.73163],[295.2906,47.74219],[295.26652,47.74211],[295.27905,47.75082],[295.26307,47.76372],[295.24953,47.76418],[295.24968,47.74817],[295.23826,47.74514],[295.23099,47.75682],[295.21953,47.74418],[295.22688,47.73821],[295.21854,47.73096],[295.22308,47.72371],[295.23685,47.72187],[295.24341,47.70999],[295.22212,47.69288],[295.2052,47.70672],[295.21165,47.72378],[295.2073,47.73068],[295.20266,47.72398],[295.19812,47.73897],[295.16487,47.73872],[295.1513,47.72958],[295.15063,47.73874],[295.12067,47.75095],[295.19144,47.74948],[295.2122,47.75952],[295.20453,47.78876],[295.18431,47.80412],[295.02946,47.78915],[294.99019,47.77146],[294.95955,47.77472],[294.90063,47.75671],[294.90393,47.76529],[294.92158,47.76542],[294.93598,47.7773],[294.90238,47.79185],[294.92912,47.78598],[294.96512,47.80563],[294.97465,47.80121],[294.97606,47.81145],[295.00733,47.81684],[295.01226,47.824],[295.02996,47.81538],[295.01241,47.83085],[294.98039,47.83439],[294.80789,47.81468],[294.75056,47.79495],[294.67602,47.75514],[294.63747,47.75147],[294.59704,47.71838],[294.50481,47.66823],[294.42806,47.66444],[294.38447,47.64874],[294.3814,47.64265],[294.39329,47.64169],[294.37226,47.63124],[294.37533,47.62042],[294.3631,47.61367],[294.34128,47.61654],[294.34447,47.60755],[294.33074,47.59641],[294.33904,47.62438],[294.31612,47.64305],[294.3426,47.63891],[294.34535,47.65094],[294.3773,47.65327],[294.3295,47.68488],[294.32305,47.68447],[294.33799,47.66966],[294.32654,47.66163],[294.33121,47.67537],[294.31412,47.68621],[294.29558,47.68163],[294.31344,47.69155],[294.30266,47.69176],[294.2988,47.70448],[294.32,47.69146],[294.29822,47.71322],[294.28244,47.77395],[294.28815,47.77883],[294.26946,47.80171],[294.26255,47.82886],[294.23341,47.85932],[294.18173,47.88851],[294.16866,47.90392],[294.11091,47.91064],[294.10045,47.91821],[294.06277,47.9132],[294.01192,47.91581],[293.9894,47.92709],[293.91854,47.92443],[293.89281,47.93988],[293.88806,47.95346],[293.86586,47.95169],[293.83776,47.96786],[293.7663,47.97471],[293.73103,47.99125],[293.70919,47.98305],[293.71416,47.99436],[293.69465,47.99204],[293.63892,48.0115],[293.62691,48.03827],[293.64568,48.05425],[293.63093,48.06531],[293.52656,48.05599],[293.45775,48.02121],[293.37697,47.99999],[293.28979,47.99999],[293.25284,47.98319],[293.21531,47.98642],[293.22101,47.99649],[293.2719,48.0174],[293.30975,48.00935],[293.34311,48.02554],[293.34911,48.04171],[293.37123,48.04236],[293.3874,48.03394],[293.46034,48.05297],[293.46258,48.05929],[293.44884,48.06489],[293.52932,48.11546],[293.53334,48.1031],[293.55865,48.11604],[293.58673,48.1028],[293.64485,48.10023],[293.66573,48.07625],[293.7016,48.0577],[293.72178,48.0655],[293.727,48.08617],[293.70095,48.09201],[293.6927,48.10299],[293.70451,48.10687],[293.77211,48.09424],[293.83079,48.10602],[293.85818,48.10023],[293.87069,48.0849],[293.87168,48.09068],[293.89247,48.09114],[293.87422,48.07969],[293.89875,48.08463],[293.94843,48.10569],[293.9678,48.13445],[294.02331,48.17571],[294.0219,48.18158],[294.0517,48.19281],[294.07665,48.19026],[294.0882,48.19958],[294.08881,48.16619],[294.11698,48.16519],[294.17943,48.11472],[294.28921,48.09942],[294.38315,48.0697],[294.45903,48.05684],[294.50087,48.03058],[294.51969,48.03312],[294.52119,48.02267],[294.51482,48.02167],[294.53107,47.99999],[294.67126,47.99999],[294.72692,48.01534],[294.74892,48.00404],[294.77291,48.0253],[294.84504,48.04311],[294.86323,48.06157],[294.96157,48.10087],[295.03965,48.14259],[295.01466,48.15313],[295.01787,48.18987],[295.042,48.17014],[295.05842,48.16996],[295.21899,48.19919],[295.21599,48.20547],[295.23176,48.21918],[295.22923,48.23119],[295.25441,48.27526],[295.29468,48.29823],[295.29794,48.32147],[295.27881,48.31722],[295.25938,48.33377],[295.33217,48.34006],[295.51741,48.39615],[295.60409,48.40967],[295.67068,48.40999],[295.66347,48.42937],[295.67322,48.45512],[295.68928,48.47197],[295.77288,48.49529],[295.77511,48.5132],[295.78566,48.51863],[295.78103,48.5244],[295.70309,48.54567],[295.6963,48.56027],[295.70661,48.59587],[295.71837,48.61118],[295.741,48.61662],[295.81534,48.61028],[295.82315,48.61971],[295.80441,48.64119],[295.74703,48.67012],[295.72923,48.69985],[295.64467,48.75308],[295.60373,48.76223],[295.55955,48.76117],[295.58417,48.77952],[295.61439,48.78597],[295.59063,48.82277],[295.57777,48.82707],[295.59139,48.80679],[295.53385,48.8187],[295.50062,48.80731],[295.43621,48.80722],[295.4016,48.82634],[295.37044,48.82511],[295.36562,48.83201],[295.39751,48.83194],[295.44663,48.81428],[295.49774,48.81589],[295.51677,48.82739],[295.44652,48.85979],[295.44157,48.86462],[295.45213,48.87397],[295.57077,48.84692],[295.55628,48.84612],[295.55754,48.83999],[295.60721,48.8424],[295.67323,48.81707],[295.69433,48.81742],[295.7535,48.79406],[295.80894,48.74927],[295.83185,48.74418],[295.82665,48.75633],[295.77206,48.79567],[295.78758,48.85228],[295.78006,48.86709],[295.72352,48.91069],[295.68683,48.9253],[295.68285,48.94275],[295.59947,48.98916],[295.59891,48.9992],[295.42117,49.0882],[295.24965,49.13189],[295.13699,49.18041],[294.94649,49.21575],[294.71838,49.22751],[294.67847,49.23433],[294.66663,49.24339],[294.42464,49.24885],[294.35917,49.2433],[294.3409,49.23506],[294.31719,49.24028],[294.26848,49.22338],[294.24321,49.23285],[294.19263,49.2172],[294.16588,49.22727],[294.09904,49.21324],[294.08274,49.22064],[294.02497,49.22102],[293.75309,49.18905],[293.59178,49.15566],[293.51932,49.12284],[293.43935,49.12002],[293.39597,49.10532],[293.35046,49.10607],[293.3192,49.08976],[293.25396,49.08194],[293.18748,49.04604],[293.15694,49.04487],[293.15373,49.03802],[293.08785,49.02548],[293.03184,48.99563],[292.9231,48.95987],[292.72857,48.91225],[292.71326,48.9007],[292.62515,48.88962],[292.57626,48.86365],[292.53229,48.85106],[292.44482,48.84102],[292.39916,48.81082],[292.1418,48.73274],[292.03019,48.67494],[291.9753,48.66679],[291.9586,48.67257],[291.95867,48.67946],[291.92429,48.66788],[291.91841,48.65497],[291.86812,48.63233],[291.83468,48.64155],[291.80983,48.63525],[291.70054,48.58586],[291.6643,48.55918],[291.63072,48.54723],[291.59946,48.55028],[291.52972,48.51802],[291.53398,48.51199],[291.48902,48.48126],[291.45956,48.44789],[291.41653,48.44547],[291.35592,48.41022],[291.28846,48.39559],[291.23766,48.36057],[291.22673,48.37274],[291.23209,48.37653],[291.19552,48.3564],[291.18758,48.37274],[291.17487,48.37035],[291.16209,48.35786],[291.18378,48.3583],[291.18226,48.35015],[291.13646,48.33954],[291.14018,48.33196],[291.12972,48.32598],[291.04591,48.30101],[291.01502,48.27635],[290.93594,48.23495],[290.85103,48.17232],[290.8475,48.16657],[290.85629,48.16329],[290.78449,48.1303],[290.76374,48.10818],[290.77141,48.10176],[290.71874,48.09325],[290.70329,48.06965],[290.63361,48.01721],[290.58895,48.02215],[290.56202,48.00632],[290.54561,47.97344],[290.51933,47.94777],[290.49826,47.94676],[290.48442,47.93665],[290.48247,47.92843],[290.49901,47.94015],[290.50354,47.92853],[290.45038,47.87874],[290.4467,47.8737],[290.45523,47.87009],[290.43039,47.84486],[290.44701,47.84563],[290.4464,47.83855],[290.41451,47.80916],[290.40219,47.7897],[290.40698,47.78607],[290.36187,47.73936],[290.32456,47.72601],[290.25623,47.67002],[290.25239,47.65415],[290.22749,47.62812],[290.17891,47.59103],[290.14688,47.58298],[290.10598,47.53183],[290.08068,47.52066],[290.0669,47.53035],[290.02593,47.49416],[290.00927,47.50109],[289.98183,47.48989],[289.96877,47.46785],[289.97471,47.45694],[289.96983,47.44799],[289.94393,47.42834],[289.97696,47.42727],[289.95857,47.42048],[289.95531,47.39784],[289.92983,47.359],[289.86334,47.32136],[289.80512,47.30935],[289.77831,47.27618],[289.77142,47.25417],[289.72926,47.21876],[289.72521,47.20569],[289.67999,47.16132],[289.62803,47.1349],[289.55887,47.07671],[289.50897,47.0162],[289.44159,46.98698],[289.38046,46.9857],[289.28707,46.93822],[289.20401,47.02161],[289.1895,47.05378],[289.283,47.10979],[289.37936,47.2261],[289.41181,47.25282],[289.42941,47.28321],[289.43646,47.31827],[289.49918,47.3842],[289.4972,47.41935],[289.5047,47.42813],[289.49735,47.43831],[289.54011,47.42674],[289.75968,47.48683],[289.79841,47.51944],[289.80034,47.56856],[289.86234,47.62285],[289.85218,47.65495],[289.87896,47.65179],[290.01729,47.70578],[290.04322,47.75052],[290.08939,47.76413],[290.13663,47.85946],[290.19794,47.91195],[290.20483,47.94966],[290.19325,47.9514],[290.1904,47.95938],[290.21516,47.9632],[290.22506,47.98381],[290.22299,48.01542],[290.21098,48.03121],[290.22047,48.0419],[290.21919,48.05641],[290.23769,48.0792],[290.25657,48.08296],[290.27919,48.10299],[290.25805,48.11403],[290.26938,48.12554],[290.26313,48.1304],[290.26778,48.14217],[290.30032,48.14099],[290.37176,48.18735],[290.40189,48.21726],[290.4062,48.23763],[290.41611,48.22149],[290.41867,48.23349],[290.43536,48.24627],[290.43578,48.23617],[290.46296,48.24262],[290.48892,48.27138],[290.5162,48.27576],[290.52429,48.2879],[290.55996,48.30392],[290.59634,48.34992],[290.5809,48.35633],[290.59795,48.37367],[290.62864,48.38517],[290.68918,48.45517],[290.70895,48.49986],[290.70835,48.51846],[290.76864,48.58709],[290.84945,48.57303],[290.88644,48.621],[290.89312,48.64675],[290.90498,48.65281],[290.91176,48.7058],[290.92434,48.72647],[290.93652,48.73958],[290.95391,48.7433],[290.94996,48.75112],[290.93709,48.752],[290.93721,48.76885],[290.97707,48.7673],[290.99723,48.77808],[290.9878,48.76138],[291.00098,48.76511],[291.01135,48.78693],[291.01904,48.76913],[291.04926,48.78639],[291.05844,48.80629],[291.07008,48.80622],[291.04659,48.81304],[291.07487,48.81654],[291.05161,48.82393],[291.1181,48.82114],[291.115,48.82845],[291.12506,48.83814],[291.14971,48.84554],[291.22347,48.89684],[291.21214,48.88587],[291.28768,48.90375],[291.35053,48.8944],[291.36833,48.90196],[291.37766,48.92248],[291.35979,48.90986],[291.34404,48.90905],[291.31444,48.91786],[291.28439,48.94252],[291.29904,48.94525],[291.31374,48.93191],[291.36201,48.93635],[291.36401,48.99844],[291.38296,49.00638],[291.37578,49.0165],[291.40037,49.04566],[291.42972,49.05774],[291.44924,49.05325],[291.47141,49.07062],[291.50809,49.06659],[291.56443,49.07709],[291.5983,49.10215],[291.61257,49.13334],[291.62462,49.13608],[291.62679,49.12826],[291.60407,49.09212],[291.53613,49.04268],[291.5901,49.04252],[291.68767,49.0936],[291.75558,49.08851],[291.80791,49.09939],[291.82117,49.12995],[291.81155,49.15496],[291.76781,49.15452],[291.72419,49.1717],[291.75015,49.18628],[291.85165,49.20228],[291.85517,49.21766],[291.84829,49.22273],[291.86116,49.23311],[291.85903,49.25462],[291.86819,49.268],[291.91641,49.25224],[291.94151,49.26658],[291.94935,49.28028],[291.94583,49.2888],[291.95816,49.29989],[291.95544,49.28537],[291.96906,49.27867],[292.06033,49.27672],[292.12287,49.28918],[292.1941,49.26592],[292.21406,49.27052],[292.24616,49.30192],[292.30388,49.30773],[292.34869,49.29771],[292.37243,49.31173],[292.41093,49.30814],[292.42868,49.32242],[292.59322,49.31688],[292.60225,49.32206],[292.63448,49.31569],[292.68937,49.37919],[292.70594,49.38577],[292.70584,49.41399],[292.73383,49.422],[292.73579,49.43222],[292.76868,49.45431],[292.78197,49.47352],[292.78011,49.58563],[292.824,49.65268],[292.84572,49.66577],[292.84486,49.76761],[292.86243,49.78731],[292.86382,49.80163],[292.92067,49.84122],[292.94778,49.83785],[292.94511,49.82484],[292.95401,49.81277],[292.97045,49.81907],[293.00722,49.85829],[293.01662,49.89076],[293.04096,49.90395],[293.0404,49.91264],[293.02982,49.91451],[293.04241,49.92791],[293.03659,49.9505],[293.04754,49.95828],[293.04982,49.97173],[293.08755,49.99835],[293.11794,50.00478],[293.11954,50.01336],[293.13737,50.01076],[293.16331,50.02334],[293.19138,50.01401],[293.1978,50.02379],[293.23945,50.02398],[293.26862,50.03419],[293.3062,50.09559],[293.33983,50.11751],[293.39206,50.12925],[293.3997,50.13841],[293.39455,50.14862],[293.408,50.15301],[293.41582,50.13797],[293.47755,50.14586],[293.48341,50.13702],[293.49755,50.14058],[293.55122,50.12137],[293.55009,50.13484],[293.56501,50.14576],[293.58008,50.14523],[293.57926,50.15643],[293.48544,50.16099],[293.46604,50.20553],[293.48475,50.23045],[293.5353,50.25028],[293.54629,50.26145],[293.59693,50.25741],[293.61056,50.23087],[293.59351,50.21961],[293.63694,50.18395],[293.68153,50.19766],[293.76274,50.2076],[293.87482,50.18109],[293.92367,50.18713],[293.895,50.19615],[293.89083,50.22],[293.90074,50.23176],[293.97181,50.25729],[293.958,50.26459],[293.93758,50.25091],[293.92255,50.25103],[293.94704,50.26631],[293.96434,50.26814],[293.98031,50.25797],[293.90574,50.2208],[293.91919,50.21074],[293.94707,50.20785],[293.9394,50.19805],[293.95401,50.20387],[294.00069,50.26637],[294.04105,50.2781],[294.04528,50.28703],[294.12199,50.26301],[294.12939,50.26683],[294.15495,50.24819],[294.1748,50.24668],[294.18738,50.2519],[294.17941,50.26135],[294.19497,50.26283],[294.22083,50.25313],[294.31298,50.25085],[294.34025,50.26182],[294.46223,50.27027],[294.49551,50.28218],[294.60119,50.29611],[294.75412,50.29233],[294.75838,50.30085],[294.76852,50.28367],[294.85748,50.28424],[294.94504,50.27116],[294.97608,50.27825],[295.04311,50.25939],[295.07512,50.27107],[295.09118,50.26099],[295.12378,50.25664],[295.20852,50.26981],[295.25431,50.26209],[295.30643,50.27314],[295.36357,50.26973],[295.38676,50.28096],[295.46185,50.28027],[295.51179,50.30739],[295.56009,50.31452],[295.65371,50.28008],[295.67903,50.29224],[295.69443,50.31135],[295.70164,50.3107],[295.71184,50.30078],[295.69517,50.30726],[295.66889,50.27813],[295.8388,50.25095],[295.91641,50.2862],[295.97073,50.2817],[296.00514,50.28861],[296.00487,50.30027],[296.0134,50.30079],[296.01971,50.28957],[296.07847,50.29591],[296.12903,50.29349],[296.1483,50.28498],[296.16552,50.29722],[296.21438,50.30271],[296.2616,50.32437],[296.28222,50.30765],[296.32778,50.30063],[296.35723,50.30773],[296.42558,50.30139],[296.45979,50.31204],[296.49528,50.30557],[296.3921,50.29555],[296.35691,50.30269],[296.33288,50.29461],[296.27602,50.3047],[296.25844,50.31923],[296.20584,50.29786],[296.19967,50.29011],[296.20848,50.28719],[296.2037,50.27995],[296.23811,50.28724],[296.28898,50.28064],[296.31103,50.26807],[296.31344,50.24619],[296.34165,50.24594],[296.35812,50.25903],[296.39534,50.22954],[296.45125,50.24956],[296.52775,50.24272],[296.54548,50.22459],[296.54222,50.20564],[296.55311,50.19796],[296.57223,50.2047],[296.59968,50.19453],[296.6099,50.2161],[296.64252,50.22871],[296.65838,50.22116],[296.68266,50.22574],[296.70186,50.21623],[296.74617,50.22502],[296.78038,50.21476],[296.76866,50.2245],[296.78548,50.23411],[296.80003,50.22994],[296.8455,50.24307],[296.80758,50.27131],[296.84359,50.28258],[296.88677,50.27733],[296.8909,50.26875],[296.93045,50.26957],[296.96326,50.28666],[296.94149,50.29204],[296.96459,50.29379],[296.9808,50.30839],[297.01123,50.30139],[297.0151,50.29668],[297.00664,50.28916],[297.01799,50.28464],[297.01362,50.2747],[297.03869,50.279],[297.05826,50.26829],[297.12045,50.28424],[297.1292,50.26936],[297.1446,50.27431],[297.17349,50.26838],[297.18959,50.27974],[297.17877,50.30577],[297.1962,50.31305],[297.19425,50.28557],[297.20364,50.27756],[297.2334,50.3057],[297.22817,50.28523],[297.2914,50.30294],[297.23782,50.27266],[297.26453,50.27968],[297.25913,50.26812],[297.28115,50.26361],[297.29586,50.26829],[297.32343,50.26023],[297.33979,50.26747],[297.38843,50.2585],[297.43258,50.25993],[297.43597,50.26983],[297.45432,50.27366],[297.47117,50.27197],[297.46971,50.25913],[297.47928,50.25363],[297.49413,50.25599],[297.50146,50.26576],[297.53052,50.24877],[297.55201,50.24693],[297.58939,50.28336],[297.58912,50.27444],[297.60079,50.27651],[297.6023,50.25345],[297.61096,50.26574],[297.63919,50.25739],[297.64873,50.2665],[297.6505,50.28848],[297.6593,50.26923],[297.68929,50.2465],[297.70534,50.25367],[297.73885,50.24632],[297.7899,50.22146],[297.84125,50.22835],[297.90146,50.21229],[297.87501,50.23056],[297.88891,50.24693],[297.88357,50.23048],[297.91755,50.21097],[297.96068,50.21035],[297.95965,50.21787],[297.96715,50.21732],[298.008,50.20292],[298.00937,50.21277],[298.0229,50.213],[298.0356,50.22464],[298.04916,50.22417],[298.05596,50.21469],[298.08534,50.22819],[298.07746,50.21139],[298.10278,50.21979],[298.16019,50.2088],[298.13417,50.20017],[298.13739,50.19063],[298.17275,50.19688],[298.16024,50.18892],[298.18107,50.18399],[298.19165,50.16769],[298.19651,50.12321],[298.26253,50.12624],[298.30949,50.14543],[298.36039,50.1443],[298.41122,50.18841],[298.42566,50.17146],[298.42304,50.15337],[298.41403,50.14594],[298.36789,50.13275],[298.309,50.12896],[298.24568,50.1004],[298.20268,50.10067],[298.2549,50.08134],[298.35274,50.09712],[298.50995,50.14945],[298.58375,50.1677],[298.64892,50.17044],[298.62726,50.17666],[298.67689,50.18383],[298.72463,50.18183],[298.77698,50.19494],[298.79244,50.18846],[298.7798,50.18148],[298.8118,50.18271],[298.82068,50.1684],[298.83247,50.18153],[298.81755,50.19533],[298.83645,50.19368],[298.84493,50.18142],[298.88812,50.17542],[298.90012,50.1801],[298.88299,50.182],[298.88245,50.19022],[298.90185,50.19817],[298.94052,50.17132],[298.94032,50.19713],[298.92986,50.20367],[298.92264,50.22417],[298.9044,50.22767],[298.91577,50.23985],[298.92283,50.23971],[298.94726,50.20565],[298.96979,50.21818],[298.98892,50.20553],[298.99954,50.20836],[299.00185,50.19993],[299.03029,50.20221],[299.03294,50.194],[299.04939,50.22726],[299.01143,50.21965],[298.99124,50.2316],[298.97583,50.25318],[299.00163,50.22848],[299.04537,50.23271],[299.05306,50.24008],[299.08446,50.2378],[299.05895,50.23053],[299.06527,50.21641],[299.04734,50.20417],[299.05016,50.18682],[299.06351,50.17733],[299.07862,50.20669],[299.10669,50.21008],[299.11679,50.20262],[299.13703,50.22675],[299.20359,50.25208],[299.19341,50.26504],[299.15674,50.26161],[299.16395,50.27879],[299.13708,50.28592],[299.13656,50.29506],[299.16567,50.28223],[299.19408,50.28972],[299.19747,50.27832],[299.2199,50.28097],[299.229,50.29222],[299.23702,50.28039],[299.25939,50.28737],[299.26518,50.28169],[299.24683,50.26811],[299.20617,50.26946],[299.20724,50.24662],[299.16825,50.23427],[299.13436,50.19451],[299.15727,50.20929],[299.16409,50.20567],[299.1786,50.22581],[299.21382,50.24437],[299.17073,50.21349],[299.17535,50.19204],[299.19304,50.19879],[299.19322,50.18759],[299.21285,50.20667],[299.22608,50.20333],[299.2336,50.22371],[299.24951,50.23203],[299.25743,50.22613],[299.27835,50.23264],[299.26229,50.21017],[299.28997,50.21717],[299.3022,50.20833],[299.32155,50.22602],[299.31323,50.20885],[299.35451,50.21042],[299.36097,50.23536],[299.36947,50.23883],[299.36914,50.20775],[299.40205,50.19465],[299.40941,50.20496],[299.4493,50.20331],[299.46861,50.22942],[299.48817,50.23316],[299.49802,50.24645],[299.50241,50.2339],[299.55116,50.24137],[299.55274,50.22241],[299.58324,50.23918],[299.61122,50.21138],[299.63478,50.20299],[299.62615,50.21599],[299.63034,50.22812],[299.65634,50.22817],[299.66208,50.2211],[299.65757,50.20144],[299.67482,50.23666],[299.68087,50.23782],[299.68726,50.2162],[299.70219,50.2486],[299.68788,50.2584],[299.69813,50.27509],[299.68383,50.28284],[299.7047,50.31578],[299.68472,50.31437],[299.69567,50.33655],[299.71172,50.33909],[299.7182,50.32951],[299.73604,50.33182],[299.74927,50.3243],[299.71087,50.29522],[299.70673,50.26666],[299.71995,50.2596],[299.71287,50.25022],[299.72432,50.24064],[299.7328,50.25505],[299.7563,50.26376],[299.70839,50.21937],[299.74649,50.22035],[299.79974,50.27569],[299.81757,50.27776],[299.8062,50.26496],[299.81119,50.26383],[299.84823,50.27779],[299.81124,50.24555],[299.82551,50.23687],[299.85931,50.2618],[299.85861,50.25449],[299.81628,50.22567],[299.80494,50.2051],[299.84407,50.22181],[299.84409,50.20856],[299.82452,50.20443],[299.82419,50.19347],[299.83595,50.18822],[299.87293,50.21085],[299.86331,50.21496],[299.88181,50.22868],[299.86792,50.22867],[299.89925,50.24102],[299.89321,50.22708],[299.90283,50.21886],[299.91387,50.22365],[299.9071,50.23371],[299.91671,50.24216],[299.92526,50.23485],[299.94379,50.23781],[299.94664,50.23096],[299.93168,50.22411],[299.93595,50.22114],[299.95127,50.22501],[299.96017,50.2193],[299.97372,50.23826],[299.96303,50.24054],[299.96303,50.24877],[299.97907,50.25585],[299.9905,50.27572],[300.00547,50.27091],[299.97764,50.2426],[300.01255,50.23869],[300.02752,50.24484],[300.01934,50.25079],[300.03862,50.26835],[300.03259,50.28299],[300.02082,50.28346],[300.03155,50.29898],[300.02835,50.30515],[300.0405,50.31268],[300.03767,50.32274],[300.00126,50.3214],[300.01733,50.32801],[300.01341,50.3335],[299.98521,50.3301],[299.98093,50.3333],[299.99237,50.34837],[300.0163,50.35132],[300.02235,50.34058],[300.03771,50.34422],[300.03019,50.33349],[300.04089,50.32959],[300.06556,50.34075],[300.07161,50.33618],[300.03977,50.30628],[300.03296,50.29007],[300.04006,50.27384],[300.04862,50.27451],[300.05007,50.28365],[300.06396,50.27838],[300.04182,50.26424],[300.06173,50.24594],[300.06747,50.25941],[300.06036,50.26445],[300.08604,50.26921],[300.09358,50.28587],[300.10245,50.29001],[300.1046,50.27717],[300.15466,50.30769],[300.18359,50.31311],[300.19868,50.33021],[300.18875,50.34325],[300.17518,50.34261],[300.17871,50.33391],[300.17154,50.32822],[300.18224,50.32591],[300.1597,50.31499],[300.14262,50.32668],[300.15658,50.33648],[300.1377,50.34429],[300.18525,50.35515],[300.13451,50.35114],[300.11028,50.36513],[300.15536,50.38035],[300.13714,50.38153],[300.17476,50.40018],[300.18846,50.42208],[300.22295,50.44781],[300.22182,50.43753],[300.2042,50.42227],[300.22783,50.42587],[300.23457,50.41762],[300.27005,50.42779],[300.27482,50.444],[300.29875,50.43752],[300.30384,50.44847],[300.32099,50.44521],[300.39776,50.46342],[300.41556,50.48916],[300.37986,50.5389],[300.4219,50.5819],[300.42569,50.56612],[300.39491,50.53792],[300.4224,50.49187],[300.40703,50.45995],[300.42786,50.46694],[300.45346,50.5148],[300.4807,50.51513],[300.49113,50.54821],[300.53352,50.55369],[300.5369,50.56487],[300.5305,50.56994],[300.55172,50.60021],[300.54829,50.61279],[300.56416,50.61728],[300.57405,50.60511],[300.57996,50.61696],[300.5947,50.61824],[300.59258,50.6362],[300.57449,50.66383],[300.53772,50.65581],[300.48502,50.6682],[300.45405,50.66492],[300.40951,50.66902],[300.41373,50.68689],[300.41496,50.67592],[300.44439,50.66863],[300.49369,50.67159],[300.51407,50.66234],[300.55,50.66077],[300.58067,50.66814],[300.59031,50.66374],[300.58981,50.65346],[300.61844,50.64483],[300.6688,50.6477],[300.68719,50.69534],[300.71085,50.69015],[300.75036,50.70654],[300.75309,50.71887],[300.7416,50.74135],[300.74899,50.75203],[300.7622,50.74485],[300.77851,50.75089],[300.77818,50.73285],[300.78652,50.73575],[300.7967,50.72151],[300.79796,50.73086],[300.8106,50.73328],[300.80566,50.71915],[300.82281,50.73135],[300.82228,50.74119],[300.80536,50.74178],[300.8094,50.74609],[300.79945,50.75302],[300.82534,50.75053],[300.86412,50.7621],[300.87641,50.78164],[300.89413,50.78424],[300.90377,50.79718],[300.89722,50.81164],[300.90808,50.81337],[300.92754,50.8461],[300.92779,50.85776],[300.9129,50.85355],[300.9096,50.8682],[300.95378,50.88997],[300.96018,50.88535],[300.9511,50.88315],[300.95802,50.86937],[300.9505,50.85595],[300.93741,50.85173],[300.93369,50.82982],[300.91613,50.81901],[300.91852,50.81236],[300.90898,50.80468],[300.92586,50.80156],[300.91222,50.78774],[300.92154,50.78491],[300.91565,50.77925],[300.9218,50.7632],[300.94349,50.76621],[300.93696,50.74798],[300.99173,50.73262],[300.9998,50.73894],[300.9827,50.74733],[300.97412,50.76615],[300.94937,50.77163],[300.96757,50.77969],[300.98954,50.76304],[301.02445,50.7915],[301.01514,50.79456],[301.04548,50.8114],[301.05772,50.81059],[301.04415,50.81622],[301.05577,50.8193],[301.05748,50.83025],[301.02999,50.82755],[301.02682,50.81547],[301.01879,50.82697],[301.03158,50.83394],[301.02183,50.84889],[301.02775,50.87031],[301.03659,50.86223],[301.04611,50.86762],[301.05466,50.86273],[301.05652,50.87985],[301.03673,50.88325],[301.01849,50.87566],[301.04885,50.90644],[301.03691,50.92096],[301.04738,50.92017],[301.05138,50.93612],[301.02608,50.93706],[301.04112,50.96091],[301.05124,50.96035],[301.0467,50.96725],[301.05797,50.98405],[301.04736,50.99444],[301.01556,50.9846],[301.02266,50.99148],[301.00431,50.99646],[301.00164,51.00631],[301.03492,51.00416],[301.04379,51.01162],[301.04201,51.02809],[301.05189,51.01702],[301.08125,51.04644],[301.10236,51.03525],[301.10721,51.04046],[301.09903,51.04694],[301.10891,51.0505],[301.11774,51.02732],[301.125,51.0277],[301.10579,51.01351],[301.08952,50.98579],[301.09,50.97618],[301.10873,50.97257],[301.13575,50.99513],[301.13685,51.00929],[301.15419,51.0075],[301.17465,51.02739],[301.18131,51.01909],[301.18456,51.03186],[301.17764,51.04427],[301.17047,51.03361],[301.13815,51.03145],[301.16389,51.04511],[301.16059,51.05726],[301.17184,51.07108],[301.18048,51.0687],[301.18081,51.05407],[301.20427,51.06318],[301.20504,51.09105],[301.21593,51.09093],[301.21767,51.07514],[301.24355,51.07941],[301.24654,51.09538],[301.25601,51.08361],[301.28052,51.09041],[301.33185,51.11927],[301.34005,51.13791],[301.34622,51.1376],[301.34353,51.12118],[301.37928,51.13742],[301.39681,51.15182],[301.39054,51.16013],[301.39478,51.16784],[301.42514,51.16242],[301.43955,51.16932],[301.36991,51.18645],[301.32934,51.22787],[301.32023,51.25129],[301.33442,51.25089],[301.34425,51.32185],[301.33448,51.33614],[301.32604,51.39453],[301.30761,51.42584],[301.30975,51.43587],[301.28626,51.44552],[301.28297,51.4579],[301.31361,51.45479],[301.31269,51.44864],[301.2879,51.45144],[301.31604,51.43831],[301.31528,51.42552],[301.3343,51.40174],[301.33047,51.38419],[301.36128,51.30632],[301.34248,51.2645],[301.34098,51.23915],[301.35451,51.2175],[301.36968,51.21365],[301.38977,51.2278],[301.38641,51.24795],[301.37027,51.25593],[301.37201,51.26482],[301.39647,51.26634],[301.39296,51.25907],[301.41689,51.22196],[301.42217,51.25],[301.42697,51.252],[301.4314,51.2316],[301.52106,51.28661],[301.51479,51.29516],[301.53084,51.30568],[301.53447,51.29465],[301.57859,51.305],[301.59186,51.29863],[301.59515,51.27893],[301.60569,51.27809],[301.60644,51.28859],[301.6226,51.28195],[301.62696,51.2716],[301.63756,51.28241],[301.65954,51.26585],[301.67207,51.26955],[301.70355,51.25444],[301.71967,51.2567],[301.72706,51.2687],[301.71666,51.28212],[301.7047,51.28414],[301.70997,51.29627],[301.7257,51.28975],[301.72737,51.29498],[301.71302,51.31052],[301.74623,51.30177],[301.7442,51.31483],[301.73738,51.31769],[301.73486,51.30927],[301.71511,51.31735],[301.718,51.32599],[301.7016,51.34522],[301.67368,51.34062],[301.6725,51.35755],[301.73672,51.38422],[301.74038,51.37525],[301.70579,51.3591],[301.73027,51.35026],[301.72356,51.34671],[301.72424,51.32681],[301.75825,51.31965],[301.74975,51.28023],[301.78012,51.25597],[301.78836,51.26155],[301.79245,51.28137],[301.78677,51.29404],[301.79383,51.30649],[301.79965,51.29703],[301.79668,51.26004],[301.83347,51.26858],[301.8495,51.28569],[301.87468,51.33784],[301.87727,51.32156],[301.86126,51.27063],[301.8815,51.28378],[301.93281,51.28998],[301.9537,51.34996],[301.96248,51.35049],[301.94875,51.29587],[301.98407,51.31902],[301.97081,51.29982],[301.98083,51.29553],[301.99375,51.30719],[302.01137,51.30161],[302.05516,51.34127],[302.10062,51.35299],[302.11282,51.36374],[302.11333,51.37447],[302.17556,51.39933],[302.18229,51.41704],[302.22169,51.42975],[302.19793,51.40804],[302.2046,51.39511],[302.22914,51.38891],[302.23484,51.40777],[302.21788,51.41222],[302.23563,51.41621],[302.25882,51.44067],[302.24587,51.45922],[302.26822,51.46677],[302.29471,51.46234],[302.31223,51.47547],[302.2918,51.49098],[302.29992,51.49928],[302.29523,51.5076],[302.27969,51.50472],[302.27313,51.54098],[302.30466,51.58995],[302.32732,51.60892],[302.31098,51.57747],[302.28833,51.55827],[302.29498,51.53802],[302.28759,51.52285],[302.32933,51.48723],[302.30359,51.45713],[302.30672,51.43306],[302.32498,51.43931],[302.3532,51.43323],[302.31843,51.43305],[302.31072,51.41148],[302.34981,51.42461],[302.38683,51.42612],[302.42381,51.46008],[302.3913,51.4139],[302.40843,51.41285],[302.44107,51.43455],[302.45541,51.42921],[302.49012,51.44148],[302.49363,51.42585],[302.51523,51.45829],[302.53582,51.45348],[302.52463,51.44345],[302.5297,51.42961],[302.56034,51.4344],[302.56802,51.44063],[302.56287,51.45927],[302.54092,51.45954],[302.55511,51.47065],[302.55216,51.47667],[302.57614,51.47337],[302.5746,51.46586],[302.58765,51.45733],[302.60326,51.47366],[302.71561,51.49044],[302.75566,51.48627],[302.75972,51.49852],[302.76702,51.48645],[302.75834,51.45876],[302.77335,51.43529],[302.79308,51.42886],[302.79188,51.41562],[302.80144,51.40487],[302.83722,51.40397],[302.86057,51.42008],[302.9261,51.4097],[302.94313,51.42389],[302.95234,51.4193],[302.95204,51.40925],[302.96976,51.40627],[303.04949,51.42221],[303.06247,51.43535],[303.05254,51.488],[303.08997,51.46777],[303.12785,51.46993],[303.13553,51.45416],[303.18267,51.47343],[303.19153,51.48965],[303.17768,51.51635],[303.2183,51.5152],[303.23691,51.52908],[303.25021,51.55547],[303.29701,51.57287],[303.30624,51.59823],[303.29542,51.61089],[303.31539,51.63228],[303.29518,51.64224],[303.30359,51.66144],[303.3184,51.63813],[303.34383,51.63396],[303.38596,51.63683],[303.45987,51.66984],[303.48291,51.66799],[303.55304,51.70746],[303.53944,51.71246],[303.56332,51.72545],[303.57325,51.74344],[303.57894,51.72725],[303.58688,51.72516],[303.6631,51.74677],[303.65846,51.75309],[303.6726,51.75905],[303.65551,51.76646],[303.6513,51.77804],[303.71203,51.76762],[303.78208,51.78019],[303.79987,51.78967],[303.79463,51.80609],[303.82028,51.80386],[303.86173,51.83039],[303.87284,51.84764],[303.909,51.85122],[303.96648,51.88648],[304.29659,51.57918]]]]}}