{"type":"Feature","properties":{"name":"Gulf of Maine (SeaVoX)","source":"Flanders Marine Institute (VLIZ), Marine Regions, SeaVoX Salt and Fresh Water Body Gazetteer, level 3 SeaArea","source_url":"https://marineregions.org/mrgid/63490","license":"CC-BY 4.0","components":["Gulf of Maine"],"retrieved":"2026-10-02","note":"Includes the Bay of Fundy. The IHO has no Gulf of Maine sea area. Interior rings dropped (land inside the region is excluded by sst_daily holding ocean cells only). Longitudes are continuous across the region, on the 0-360 frame where the region allows and as negative degrees east where it crosses the prime meridian.","simplify_tolerance_deg":0.005,"outer_area_km2":93638,"cells":4213,"cells_moved_by_simplification":23},"geometry":{"type":"MultiPolygon","coordinates":[[[[-69.942139,41.659256],[-69.928642,41.703259],[-69.933044,41.76897],[-69.939499,41.805347],[-69.952118,41.799774],[-69.954758,41.811214],[-69.966194,41.816788],[-69.963554,41.822067],[-69.950645,41.813854],[-69.95153,41.832043],[-69.950058,41.805641],[-69.940964,41.812389],[-69.948891,41.848473],[-69.985558,41.944984],[-70.019295,42.002773],[-70.063004,42.045898],[-70.118736,42.070831],[-70.177704,42.083447],[-70.218483,42.081688],[-70.246056,42.065262],[-70.192963,42.019203],[-70.173302,42.023602],[-70.165382,42.035046],[-70.1912,42.024189],[-70.206451,42.034164],[-70.194427,42.035046],[-70.182983,42.05323],[-70.158928,42.061741],[-70.116982,42.048538],[-70.095268,42.032112],[-70.082367,42.002773],[-70.083534,41.944397],[-70.072388,41.880154],[-70.065933,41.880154],[-70.070045,41.914474],[-70.060066,41.922104],[-70.075027,41.925331],[-70.068871,41.932957],[-70.065056,41.926502],[-70.029854,41.934132],[-70.028976,41.921516],[-70.035721,41.927383],[-70.037186,41.917995],[-70.026916,41.908314],[-70.001106,41.915356],[-70.010788,41.907436],[-70.005508,41.898636],[-70.031029,41.89893],[-70.000519,41.890713],[-70.01548,41.877514],[-70.006973,41.809456],[-70.028091,41.788921],[-70.072388,41.773079],[-70.127251,41.759293],[-70.148659,41.761051],[-70.155998,41.751957],[-70.166557,41.75753],[-70.223465,41.744331],[-70.240776,41.735531],[-70.241364,41.725262],[-70.256615,41.721741],[-70.251923,41.714115],[-70.260429,41.71822],[-70.266884,41.708248],[-70.268059,41.714993],[-70.334358,41.708836],[-70.355186,41.717342],[-70.357529,41.729076],[-70.298569,41.72057],[-70.279205,41.725849],[-70.300323,41.735825],[-70.4338,41.74609],[-70.495117,41.775131],[-70.532959,41.802708],[-70.54586,41.821774],[-70.528259,41.857567],[-70.532959,41.891006],[-70.549088,41.910664],[-70.540581,41.927383],[-70.591919,41.951145],[-70.623306,41.942638],[-70.654404,41.978428],[-70.633575,41.94733],[-70.650002,41.950264],[-70.703102,41.997787],[-70.717186,41.995148],[-70.720703,42.000134],[-70.688141,42.015976],[-70.679047,42.004242],[-70.667603,42.007763],[-70.66819,42.019203],[-70.676407,42.020374],[-70.666725,42.045017],[-70.648247,42.04678],[-70.612747,42.011868],[-70.639442,41.993389],[-70.596611,42.005711],[-70.638855,42.047073],[-70.646774,42.080807],[-70.63739,42.079926],[-70.639153,42.089901],[-70.664085,42.110435],[-70.694008,42.152386],[-70.704567,42.162655],[-70.711319,42.155613],[-70.718353,42.163532],[-70.735664,42.160599],[-70.732735,42.166466],[-70.711609,42.165588],[-70.712486,42.200203],[-70.72393,42.199909],[-70.713959,42.207535],[-70.745049,42.221619],[-70.761185,42.251247],[-70.769691,42.254181],[-70.772919,42.242153],[-70.787003,42.240391],[-70.784065,42.249779],[-70.793747,42.256527],[-70.855057,42.272659],[-70.880287,42.30933],[-70.889381,42.309917],[-70.922531,42.303757],[-70.885864,42.303169],[-70.87706,42.279114],[-70.887619,42.276768],[-70.878822,42.274715],[-70.883224,42.269436],[-70.875885,42.251541],[-70.888504,42.250954],[-70.892899,42.262688],[-70.920769,42.2533],[-70.924294,42.263275],[-70.959198,42.243912],[-70.964478,42.248314],[-70.954803,42.255939],[-70.96331,42.258579],[-70.947464,42.26738],[-70.952454,42.280876],[-70.954803,42.272659],[-70.987946,42.265034],[-71.019341,42.285568],[-70.986191,42.308159],[-71.013176,42.304344],[-71.021683,42.295837],[-71.040169,42.300823],[-71.034004,42.286743],[-71.045738,42.296425],[-71.044273,42.313145],[-71.031662,42.314903],[-71.046623,42.326637],[-71.016113,42.329281],[-71.008484,42.339252],[-71.0299,42.341599],[-71.021683,42.347172],[-71.04985,42.354507],[-71.049263,42.365948],[-71.059235,42.37064],[-71.05043,42.370934],[-71.046913,42.383549],[-71.039581,42.385895],[-71.043983,42.366535],[-71.004967,42.346584],[-71.003494,42.355095],[-70.990005,42.352455],[-70.985603,42.361839],[-70.999977,42.363308],[-70.997925,42.376217],[-71.004082,42.380028],[-71.011414,42.371815],[-71.019341,42.376801],[-71.010834,42.383255],[-70.995575,42.380615],[-70.996452,42.371521],[-70.986191,42.367416],[-70.975632,42.37064],[-70.980324,42.376801],[-70.978561,42.37915],[-70.971519,42.368587],[-70.975632,42.357441],[-70.952454,42.343067],[-70.952454,42.351868],[-70.968292,42.359787],[-70.971817,42.385605],[-70.966537,42.387363],[-70.990883,42.404083],[-70.96096,42.439873],[-70.964775,42.443394],[-70.942772,42.458355],[-70.93837,42.417286],[-70.928108,42.416698],[-70.931915,42.422272],[-70.925758,42.42403],[-70.90522,42.41494],[-70.901993,42.420219],[-70.910797,42.428139],[-70.932503,42.43166],[-70.931915,42.459236],[-70.921356,42.465981],[-70.894958,42.459236],[-70.862984,42.486515],[-70.833351,42.490917],[-70.832474,42.504997],[-70.854179,42.493557],[-70.840096,42.515854],[-70.856819,42.52084],[-70.886154,42.500011],[-70.887032,42.5182],[-70.867676,42.524944],[-70.865913,42.534332],[-70.885864,42.526707],[-70.880875,42.53492],[-70.894371,42.533455],[-70.891731,42.545189],[-70.877647,42.539028],[-70.778198,42.565136],[-70.772041,42.557507],[-70.73185,42.57687],[-70.728333,42.570709],[-70.709846,42.572468],[-70.685791,42.585083],[-70.67347,42.607674],[-70.650299,42.614124],[-70.660271,42.605911],[-70.654701,42.594177],[-70.66526,42.582443],[-70.652641,42.580978],[-70.631233,42.603859],[-70.633286,42.618233],[-70.590157,42.636421],[-70.594269,42.66106],[-70.622139,42.661942],[-70.618614,42.687466],[-70.626831,42.693626],[-70.657928,42.682476],[-70.681396,42.663116],[-70.67347,42.64082],[-70.676994,42.636715],[-70.680809,42.643753],[-70.689903,42.627914],[-70.699287,42.637592],[-70.679337,42.647568],[-70.716888,42.66341],[-70.72364,42.659302],[-70.719528,42.648743],[-70.75209,42.650208],[-70.765289,42.639355],[-70.766174,42.667809],[-70.778496,42.673382],[-70.76207,42.676903],[-70.724808,42.660183],[-70.727745,42.669571],[-70.750336,42.685997],[-70.789642,42.693333],[-70.797562,42.711815],[-70.826019,42.702721],[-70.820152,42.725014],[-70.842735,42.732639],[-70.836288,42.736748],[-70.812523,42.727947],[-70.823082,42.751415],[-70.814285,42.755817],[-70.817513,42.767551],[-70.814575,42.771362],[-70.786118,42.702133],[-70.769402,42.705067],[-70.801964,42.777229],[-70.807533,42.815071],[-70.820442,42.815659],[-70.811646,42.807152],[-70.823082,42.810966],[-70.820442,42.798351],[-70.823669,42.804806],[-70.845085,42.800991],[-70.865913,42.814194],[-70.839516,42.823875],[-70.811646,42.822701],[-70.81076,42.891933],[-70.820152,42.895161],[-70.830124,42.886944],[-70.823669,42.902493],[-70.830421,42.910118],[-70.81076,42.896038],[-70.808708,42.912762],[-70.795799,42.917748],[-70.794624,42.938869],[-70.773506,42.958229],[-70.746521,42.998714],[-70.750916,43.002525],[-70.743294,43.001648],[-70.714249,43.039783],[-70.717476,43.05621],[-70.730385,43.051224],[-70.730972,43.059143],[-70.713959,43.056797],[-70.710732,43.072639],[-70.72921,43.074986],[-70.729797,43.080853],[-70.694885,43.084373],[-70.695183,43.066772],[-70.674057,43.07],[-70.634163,43.121628],[-70.64238,43.130135],[-70.623306,43.135124],[-70.626534,43.149498],[-70.619202,43.164166],[-70.593384,43.165047],[-70.607468,43.176781],[-70.608055,43.190861],[-70.595734,43.188221],[-70.576668,43.223423],[-70.596611,43.249237],[-70.569916,43.286495],[-70.561707,43.322575],[-70.515945,43.344578],[-70.500984,43.340763],[-70.475754,43.348976],[-70.468414,43.340763],[-70.45874,43.342525],[-70.440552,43.36042],[-70.442307,43.36834],[-70.429695,43.366581],[-70.422363,43.395622],[-70.390678,43.400314],[-70.393906,43.406769],[-70.380409,43.412342],[-70.385689,43.418209],[-70.375717,43.421143],[-70.3722,43.434052],[-70.333771,43.448132],[-70.346382,43.452534],[-70.370148,43.439919],[-70.368973,43.450771],[-70.356064,43.451653],[-70.379532,43.462505],[-70.383934,43.474827],[-70.384811,43.493015],[-70.36985,43.521469],[-70.350197,43.538193],[-70.327904,43.54142],[-70.34668,43.549046],[-70.343155,43.554913],[-70.325554,43.552567],[-70.323212,43.528805],[-70.312057,43.527336],[-70.302673,43.549633],[-70.272751,43.561661],[-70.273041,43.567528],[-70.265419,43.553154],[-70.254562,43.552273],[-70.22728,43.564301],[-70.209976,43.557552],[-70.195602,43.564888],[-70.208214,43.578087],[-70.200584,43.587181],[-70.216721,43.598621],[-70.207336,43.624146],[-70.221413,43.633533],[-70.225815,43.650841],[-70.236084,43.657295],[-70.248985,43.639694],[-70.256615,43.646439],[-70.238136,43.667267],[-70.249573,43.675774],[-70.265709,43.667267],[-70.276566,43.670788],[-70.273628,43.679001],[-70.252213,43.679001],[-70.244881,43.688976],[-70.253098,43.690735],[-70.250748,43.711563],[-70.259842,43.716553],[-70.244003,43.71479],[-70.245766,43.693962],[-70.232559,43.705402],[-70.218773,43.705112],[-70.214668,43.712444],[-70.221413,43.720951],[-70.192375,43.747059],[-70.19413,43.770531],[-70.175064,43.779915],[-70.180054,43.763195],[-70.173889,43.761726],[-70.139862,43.790771],[-70.161865,43.791061],[-70.148369,43.793999],[-70.150131,43.799278],[-70.133118,43.794876],[-70.106422,43.80397],[-70.109352,43.80925],[-70.119911,43.804852],[-70.113754,43.814823],[-70.119034,43.815704],[-70.096741,43.832134],[-70.099083,43.843281],[-70.093216,43.834774],[-70.084709,43.837414],[-70.103783,43.811012],[-70.083244,43.818932],[-70.078842,43.82832],[-70.065346,43.827145],[-70.067406,43.811306],[-70.019295,43.862057],[-70.007561,43.858242],[-69.986435,43.866455],[-70.027802,43.822453],[-69.983505,43.85648],[-69.983795,43.850613],[-69.968834,43.851494],[-69.950645,43.862057],[-69.980568,43.81424],[-69.995239,43.808956],[-70.022224,43.76701],[-70.037186,43.757916],[-70.04364,43.73914],[-70.016655,43.753807],[-70.025162,43.730045],[-70.000809,43.751167],[-70.007561,43.763489],[-69.972649,43.792236],[-69.979103,43.799866],[-69.974411,43.808666],[-69.971474,43.798397],[-69.95974,43.812183],[-69.970009,43.795757],[-69.960327,43.797222],[-69.947716,43.82832],[-69.952408,43.835361],[-69.940964,43.844456],[-69.936569,43.861763],[-69.93158,43.865574],[-69.938911,43.840347],[-69.929527,43.841812],[-69.908699,43.869976],[-69.903122,43.866161],[-69.895203,43.889629],[-69.890511,43.89843],[-69.888748,43.898724],[-69.886993,43.859413],[-69.872032,43.85384],[-69.866455,43.874084],[-69.853844,43.877895],[-69.86499,43.87291],[-69.875259,43.840347],[-69.869682,43.825092],[-69.852959,43.832134],[-69.849442,43.828613],[-69.875839,43.794582],[-69.861763,43.762608],[-69.864403,43.743248],[-69.843277,43.754101],[-69.841522,43.729164],[-69.850906,43.723003],[-69.848564,43.742367],[-69.857361,43.72858],[-69.851494,43.718018],[-69.856483,43.704525],[-69.83477,43.701004],[-69.835068,43.723297],[-69.780212,43.742661],[-69.784019,43.754982],[-69.803383,43.745007],[-69.798103,43.761436],[-69.792526,43.758209],[-69.786659,43.765835],[-69.796051,43.76965],[-69.800743,43.784904],[-69.792526,43.79517],[-69.812477,43.829494],[-69.797813,43.843575],[-69.795753,43.866455],[-69.798981,43.87907],[-69.814239,43.878189],[-69.81189,43.872322],[-69.813942,43.869389],[-69.823334,43.876724],[-69.814239,43.884056],[-69.811012,43.929234],[-69.817757,43.951527],[-69.823624,43.950062],[-69.83213,43.935394],[-69.836243,43.933338],[-69.831841,43.946835],[-69.836243,43.959156],[-69.842987,43.955929],[-69.831253,43.980572],[-69.843864,43.970303],[-69.850906,43.974998],[-69.86499,43.952702],[-69.913391,43.921314],[-69.883469,43.958275],[-69.879066,43.971478],[-69.889336,43.967957],[-69.882294,43.979984],[-69.885818,43.988197],[-69.885818,43.994064],[-69.884056,43.996998],[-69.883766,43.989372],[-69.866753,43.988197],[-69.867043,43.982037],[-69.855309,43.989662],[-69.851204,44.007267],[-69.822449,44.004334],[-69.828613,44.014011],[-69.818054,44.025455],[-69.819519,44.039242],[-69.790184,44.089993],[-69.782852,44.084126],[-69.777275,44.044521],[-69.814239,44.017826],[-69.814239,44.005505],[-69.832428,43.983505],[-69.821571,43.985264],[-69.822449,43.962383],[-69.805733,43.936565],[-69.804558,43.911926],[-69.794289,43.923954],[-69.781967,43.924831],[-69.791649,43.920139],[-69.790474,43.911339],[-69.760849,43.890804],[-69.751755,43.914272],[-69.758499,43.914566],[-69.756157,43.922485],[-69.744423,43.925125],[-69.749992,43.900486],[-69.742363,43.899311],[-69.729164,43.913097],[-69.733269,43.922779],[-69.724472,43.954166],[-69.719192,43.954166],[-69.719482,43.932755],[-69.702179,43.941849],[-69.699242,43.954166],[-69.694839,43.948593],[-69.676361,43.973236],[-69.714203,43.906059],[-69.72506,43.90987],[-69.739136,43.897259],[-69.739433,43.891685],[-69.728577,43.897259],[-69.734444,43.880829],[-69.726524,43.868507],[-69.72242,43.873791],[-69.72242,43.85384],[-69.710686,43.854134],[-69.705406,43.87907],[-69.702469,43.872616],[-69.698067,43.878483],[-69.69426,43.920139],[-69.678711,43.9263],[-69.672844,43.964729],[-69.6614,43.974705],[-69.673431,43.92894],[-69.648491,43.94038],[-69.645264,43.935688],[-69.659935,43.919552],[-69.665215,43.852081],[-69.652306,43.852962],[-69.647614,43.837414],[-69.639984,43.841812],[-69.645561,43.849442],[-69.625908,43.852081],[-69.632652,43.839172],[-69.617393,43.827732],[-69.612411,43.838001],[-69.617691,43.848267],[-69.591583,43.861176],[-69.594223,43.831547],[-69.605957,43.825386],[-69.605659,43.813652],[-69.590408,43.815411],[-69.578674,43.828613],[-69.573395,43.854427],[-69.591873,43.874962],[-69.590118,43.896671],[-69.573395,43.921314],[-69.590996,43.921604],[-69.600967,43.90723],[-69.599503,43.918087],[-69.590118,43.924831],[-69.574272,43.979691],[-69.54406,43.999931],[-69.543762,44.024868],[-69.535843,44.031029],[-69.528801,44.02692],[-69.540535,44.020172],[-69.532913,44.0014],[-69.57222,43.969715],[-69.56694,43.961502],[-69.581902,43.936859],[-69.565178,43.929234],[-69.56929,43.91222],[-69.562538,43.902832],[-69.576035,43.896671],[-69.568993,43.895203],[-69.567818,43.879658],[-69.572517,43.89315],[-69.581902,43.88435],[-69.57457,43.868217],[-69.56723,43.874374],[-69.565475,43.863228],[-69.555794,43.864109],[-69.556084,43.875256],[-69.542885,43.890511],[-69.548752,43.897259],[-69.554329,43.885525],[-69.559311,43.894032],[-69.556381,43.904591],[-69.546112,43.901363],[-69.5467,43.919552],[-69.54171,43.923954],[-69.545235,43.909287],[-69.534088,43.903419],[-69.538483,43.879951],[-69.51384,43.886108],[-69.517067,43.899899],[-69.51619,43.903419],[-69.509445,43.904884],[-69.51326,43.894032],[-69.50592,43.886108],[-69.522057,43.88171],[-69.525574,43.87291],[-69.51326,43.833305],[-69.502693,43.838589],[-69.487442,43.877014],[-69.460159,43.904884],[-69.450775,43.939503],[-69.459869,43.946541],[-69.4496,43.948009],[-69.433464,43.992599],[-69.426422,43.99905],[-69.423492,43.998173],[-69.431999,43.981743],[-69.42173,43.980865],[-69.39122,44.004917],[-69.39122,44.019001],[-69.408531,44.020466],[-69.408531,44.030441],[-69.395912,44.032494],[-69.389755,44.049801],[-69.382713,44.049507],[-69.38623,44.025745],[-69.369804,44.03455],[-69.372154,44.059483],[-69.391808,44.066818],[-69.387115,44.077377],[-69.360123,44.060947],[-69.349861,44.064468],[-69.346924,44.045403],[-69.338715,44.04863],[-69.348976,44.033081],[-69.379486,44.015774],[-69.357483,44.015186],[-69.347801,44.02692],[-69.343407,44.030441],[-69.367462,43.988785],[-69.368629,43.965904],[-69.349861,43.984383],[-69.345459,43.970303],[-69.327271,43.980865],[-69.325806,43.971184],[-69.316711,43.981743],[-69.319054,43.990837],[-69.301163,43.993477],[-69.311134,43.982918],[-69.300278,43.986145],[-69.313484,43.964729],[-69.30439,43.969131],[-69.307907,43.955048],[-69.283852,43.961502],[-69.275932,43.974411],[-69.287956,43.979103],[-69.278282,43.996117],[-69.275055,43.980278],[-69.263321,43.981155],[-69.242493,44.001984],[-69.242195,44.016651],[-69.230461,44.009907],[-69.218437,44.014599],[-69.200836,44.035427],[-69.202591,44.049801],[-69.194084,44.047161],[-69.181473,44.070629],[-69.165634,44.070629],[-69.220489,44.007561],[-69.219902,44.002571],[-69.205528,44.009026],[-69.221077,43.989372],[-69.220779,43.997585],[-69.230171,43.998466],[-69.23838,43.979691],[-69.251289,43.985851],[-69.265373,43.965611],[-69.255692,43.957104],[-69.277695,43.952408],[-69.267426,43.94537],[-69.27417,43.934807],[-69.261559,43.930698],[-69.262733,43.9175],[-69.228706,43.933926],[-69.230461,43.942726],[-69.210808,43.932461],[-69.191742,43.961208],[-69.21257,43.960037],[-69.214325,43.965023],[-69.200836,43.965023],[-69.190269,43.979691],[-69.198196,43.984093],[-69.193497,43.99641],[-69.180298,43.990837],[-69.188515,43.986732],[-69.176193,43.978516],[-69.174431,43.997585],[-69.166222,44.004917],[-69.121925,44.006092],[-69.125153,44.013718],[-69.111069,44.03455],[-69.132187,44.035427],[-69.12339,44.051563],[-69.12339,44.041],[-69.103439,44.048336],[-69.111069,44.041882],[-69.107544,44.036015],[-69.078796,44.040119],[-69.071754,44.045109],[-69.076157,44.060947],[-69.067947,44.058601],[-69.043594,44.085297],[-69.045944,44.094097],[-69.056503,44.095272],[-69.1008,44.080017],[-69.103737,44.10994],[-69.09523,44.118446],[-69.077042,44.118446],[-69.074982,44.134876],[-69.088478,44.135166],[-69.076744,44.141033],[-69.071175,44.184452],[-69.057968,44.167728],[-69.051224,44.171543],[-69.049171,44.194134],[-69.057968,44.208508],[-69.041252,44.213787],[-69.03685,44.23344],[-69.005463,44.271286],[-68.999886,44.296513],[-68.97348,44.297688],[-68.957642,44.312943],[-68.945908,44.344624],[-68.947372,44.360462],[-68.965271,44.383053],[-68.98111,44.386574],[-68.982285,44.404469],[-69.004288,44.431458],[-68.982574,44.425591],[-68.940628,44.429108],[-68.9198,44.455803],[-68.895454,44.452579],[-68.893402,44.46666],[-68.881958,44.457859],[-68.88929,44.444656],[-68.878143,44.42823],[-68.867584,44.437618],[-68.879318,44.463432],[-68.861717,44.477512],[-68.845581,44.481327],[-68.856438,44.464314],[-68.856438,44.445831],[-68.808914,44.46666],[-68.824165,44.469887],[-68.833557,44.482792],[-68.806564,44.498047],[-68.800407,44.566692],[-68.837952,44.602188],[-68.862305,44.590454],[-68.854965,44.600723],[-68.857903,44.615685],[-68.837662,44.637096],[-68.82563,44.666431],[-68.813316,44.667313],[-68.841476,44.624481],[-68.820648,44.603363],[-68.807449,44.574905],[-68.76931,44.565228],[-68.757866,44.536476],[-68.750832,44.538822],[-68.743492,44.568745],[-68.74144,44.561413],[-68.756699,44.509781],[-68.775764,44.493649],[-68.782219,44.448471],[-68.79747,44.449352],[-68.820061,44.4118],[-68.818596,44.404175],[-68.808037,44.402412],[-68.820061,44.395668],[-68.820061,44.382172],[-68.777527,44.392147],[-68.777229,44.383347],[-68.758163,44.379826],[-68.759041,44.367798],[-68.764908,44.359879],[-68.798058,44.378944],[-68.789261,44.370438],[-68.807449,44.359291],[-68.805099,44.350784],[-68.820938,44.351372],[-68.82505,44.310005],[-68.79454,44.307365],[-68.787498,44.320862],[-68.76931,44.318516],[-68.751122,44.349316],[-68.751709,44.329956],[-68.741737,44.331127],[-68.739975,44.340809],[-68.733231,44.338169],[-68.730003,44.324089],[-68.698029,44.310005],[-68.688637,44.297394],[-68.678368,44.30238],[-68.629089,44.286537],[-68.623222,44.300915],[-68.616768,44.2971],[-68.622047,44.278324],[-68.594177,44.27158],[-68.549004,44.245174],[-68.548706,44.234909],[-68.522011,44.228455],[-68.527,44.251335],[-68.553986,44.266884],[-68.552231,44.275978],[-68.536682,44.263363],[-68.517319,44.262192],[-68.529053,44.283897],[-68.528175,44.299152],[-68.535507,44.301209],[-68.533745,44.291527],[-68.546356,44.292404],[-68.564255,44.314114],[-68.560738,44.333183],[-68.543427,44.354595],[-68.545479,44.365452],[-68.563965,44.385986],[-68.561325,44.403],[-68.581856,44.410336],[-68.52993,44.398014],[-68.517906,44.412388],[-68.493263,44.419136],[-68.479179,44.455509],[-68.471558,44.450817],[-68.477715,44.429989],[-68.472145,44.406815],[-68.481819,44.389801],[-68.467155,44.376598],[-68.456886,44.384811],[-68.454834,44.414146],[-68.467743,44.439964],[-68.456299,44.453457],[-68.465393,44.479858],[-68.472145,44.488365],[-68.49913,44.493942],[-68.435471,44.482498],[-68.430489,44.502155],[-68.420807,44.496582],[-68.432243,44.417961],[-68.428429,44.395668],[-68.413177,44.398014],[-68.389122,44.41943],[-68.389709,44.434975],[-68.371521,44.424122],[-68.352158,44.44495],[-68.35656,44.472527],[-68.352158,44.495113],[-68.346588,44.489834],[-68.354507,44.471939],[-68.343063,44.452286],[-68.326637,44.447296],[-68.32312,44.461674],[-68.295837,44.449936],[-68.26709,44.456978],[-68.268257,44.464314],[-68.279701,44.460793],[-68.291145,44.47047],[-68.262688,44.47311],[-68.26709,44.49482],[-68.29789,44.510662],[-68.300529,44.495407],[-68.321358,44.506554],[-68.305519,44.508904],[-68.316368,44.522102],[-68.304047,44.520638],[-68.319305,44.530315],[-68.317841,44.536476],[-68.299065,44.53149],[-68.30024,44.520638],[-68.291145,44.513302],[-68.275887,44.510662],[-68.277939,44.522396],[-68.26474,44.526505],[-68.26738,44.518875],[-68.255646,44.511543],[-68.269142,44.505676],[-68.260338,44.488659],[-68.221909,44.464314],[-68.22895,44.48074],[-68.221031,44.483673],[-68.223373,44.492767],[-68.216042,44.493355],[-68.209587,44.516529],[-68.266792,44.538239],[-68.292313,44.558186],[-68.283218,44.564934],[-68.265038,44.55936],[-68.265915,44.574612],[-68.245377,44.579014],[-68.244499,44.586346],[-68.239807,44.579014],[-68.234528,44.585175],[-68.208122,44.574024],[-68.235405,44.579014],[-68.257408,44.557304],[-68.246552,44.54821],[-68.249779,44.539703],[-68.23423,44.529434],[-68.181725,44.513889],[-68.198441,44.51125],[-68.194923,44.493061],[-68.179665,44.477219],[-68.191399,44.471058],[-68.158836,44.47311],[-68.164413,44.504208],[-68.131264,44.486313],[-68.142708,44.483967],[-68.136543,44.477512],[-68.125984,44.482498],[-68.098412,44.471645],[-68.097527,44.46666],[-68.112198,44.469006],[-68.118355,44.458736],[-68.107506,44.416496],[-68.11161,44.40564],[-68.098991,44.393906],[-68.102516,44.385986],[-68.092834,44.372494],[-68.085793,44.372494],[-68.090485,44.389214],[-68.083153,44.38628],[-68.080811,44.393318],[-68.072304,44.383347],[-68.072594,44.389507],[-68.069077,44.375717],[-68.077583,44.373077],[-68.076996,44.356064],[-68.073471,44.345798],[-68.061737,44.34433],[-68.066727,44.338757],[-68.058807,44.331715],[-68.040031,44.340515],[-68.043259,44.356358],[-68.035927,44.365452],[-68.023308,44.356945],[-68.031525,44.373665],[-68.024773,44.371906],[-68.021255,44.380707],[-68.031525,44.383347],[-68.034752,44.387161],[-68.013336,44.386574],[-68.02243,44.407989],[-68.011871,44.402706],[-68.004829,44.413269],[-67.983704,44.385693],[-67.959656,44.400066],[-67.964638,44.410629],[-67.972855,44.407989],[-67.981361,44.449936],[-67.987518,44.444656],[-68.003067,44.45639],[-68.011574,44.437325],[-68.026535,44.486313],[-67.995438,44.462257],[-67.978134,44.486313],[-67.980774,44.500099],[-67.991043,44.496582],[-67.991631,44.504208],[-67.968163,44.506554],[-67.967575,44.483379],[-67.978424,44.474873],[-67.962585,44.45903],[-67.952316,44.423828],[-67.937355,44.411507],[-67.926506,44.422363],[-67.932953,44.425591],[-67.929146,44.442898],[-67.935013,44.45023],[-67.923859,44.451405],[-67.925034,44.46666],[-67.936768,44.472233],[-67.93354,44.478687],[-67.922981,44.471645],[-67.915649,44.489834],[-67.908897,44.493355],[-67.913597,44.482204],[-67.90509,44.459911],[-67.912422,44.462257],[-67.908897,44.43615],[-67.915649,44.435562],[-67.900101,44.395668],[-67.890717,44.409161],[-67.888367,44.444069],[-67.878098,44.455509],[-67.889832,44.479275],[-67.894234,44.473991],[-67.896873,44.474579],[-67.895111,44.484554],[-67.867249,44.487488],[-67.868416,44.467541],[-67.850525,44.496876],[-67.858154,44.518875],[-67.878098,44.533249],[-67.891296,44.552319],[-67.857269,44.527382],[-67.841721,44.543812],[-67.849648,44.55085],[-67.843781,44.553494],[-67.847885,44.564934],[-67.830872,44.561413],[-67.820602,44.554077],[-67.822365,44.544689],[-67.813858,44.544106],[-67.815323,44.563171],[-67.82148,44.559067],[-67.849648,44.57872],[-67.831161,44.571384],[-67.833214,44.583706],[-67.823532,44.591629],[-67.812973,44.565517],[-67.803879,44.56464],[-67.798897,44.59779],[-67.78804,44.597202],[-67.789803,44.607468],[-67.782761,44.58136],[-67.789803,44.564934],[-67.783638,44.55584],[-67.800949,44.5532],[-67.805641,44.543224],[-67.802704,44.524155],[-67.79567,44.520638],[-67.780411,44.523277],[-67.780121,44.542049],[-67.773956,44.544983],[-67.789215,44.547916],[-67.767502,44.549973],[-67.768387,44.560825],[-67.758995,44.567574],[-67.766335,44.568455],[-67.758118,44.575493],[-67.761345,44.585468],[-67.747559,44.589573],[-67.753426,44.60043],[-67.746674,44.604828],[-67.749313,44.614803],[-67.747849,44.618031],[-67.743446,44.618614],[-67.740517,44.585175],[-67.753128,44.573147],[-67.743156,44.559067],[-67.760757,44.552319],[-67.746971,44.535889],[-67.737877,44.536476],[-67.744919,44.528851],[-67.732597,44.524742],[-67.744034,44.523567],[-67.742279,44.497166],[-67.733185,44.497753],[-67.728783,44.508904],[-67.737877,44.514183],[-67.726143,44.519169],[-67.718811,44.515354],[-67.72673,44.498047],[-67.707954,44.499809],[-67.697983,44.514771],[-67.700623,44.532661],[-67.690056,44.537064],[-67.690056,44.544689],[-67.674805,44.537357],[-67.664536,44.55085],[-67.669815,44.566692],[-67.659554,44.571095],[-67.647232,44.566692],[-67.644882,44.573147],[-67.641655,44.573441],[-67.633736,44.5532],[-67.642532,44.541172],[-67.632858,44.539703],[-67.64019,44.529144],[-67.566559,44.533249],[-67.559807,44.542049],[-67.574181,44.562878],[-67.555702,44.599842],[-67.558929,44.61451],[-67.591202,44.617443],[-67.590614,44.628883],[-67.583572,44.623016],[-67.545143,44.626537],[-67.554825,44.64003],[-67.545731,44.648537],[-67.565971,44.663204],[-67.549248,44.659687],[-67.541916,44.647953],[-67.545143,44.641499],[-67.535751,44.644138],[-67.540451,44.638271],[-67.529007,44.641205],[-67.541039,44.632698],[-67.538979,44.625362],[-67.528419,44.625656],[-67.508179,44.645897],[-67.49234,44.629765],[-67.491753,44.608055],[-67.474152,44.613335],[-67.477081,44.608936],[-67.45948,44.59779],[-67.42897,44.611576],[-67.447456,44.632698],[-67.440125,44.650005],[-67.432198,44.638271],[-67.431618,44.647953],[-67.421349,44.652645],[-67.414009,44.650005],[-67.427216,44.648247],[-67.417236,44.630058],[-67.42839,44.628883],[-67.418999,44.604828],[-67.404625,44.595734],[-67.388489,44.616268],[-67.389664,44.626831],[-67.375877,44.620964],[-67.362381,44.634163],[-67.37793,44.645309],[-67.367073,44.647366],[-67.368248,44.658218],[-67.388199,44.671127],[-67.37529,44.679634],[-67.404625,44.68462],[-67.394356,44.688141],[-67.393768,44.711609],[-67.416946,44.715717],[-67.381157,44.720116],[-67.390839,44.699287],[-67.365906,44.687847],[-67.352409,44.691662],[-67.364143,44.695477],[-67.358864,44.703983],[-67.297554,44.707504],[-67.309875,44.690781],[-67.307228,44.664967],[-67.323662,44.667606],[-67.321022,44.675819],[-67.326591,44.6591],[-67.299019,44.654697],[-67.286987,44.62595],[-67.25824,44.627708],[-67.254135,44.633575],[-67.269974,44.643845],[-67.271149,44.665848],[-67.242104,44.668488],[-67.245041,44.642963],[-67.233894,44.63739],[-67.188713,44.645603],[-67.210426,44.657337],[-67.193703,44.655285],[-67.187248,44.664085],[-67.153809,44.669365],[-67.137085,44.695183],[-67.10247,44.720116],[-67.097191,44.734783],[-67.113029,44.740944],[-67.073425,44.742413],[-67.07695,44.75209],[-67.064041,44.754147],[-67.061401,44.762653],[-67.067558,44.771454],[-67.050842,44.774975],[-67.050255,44.762653],[-67.022972,44.770279],[-66.980141,44.811352],[-66.959312,44.809589],[-66.948753,44.816631],[-66.964302,44.822792],[-66.984543,44.814869],[-66.993637,44.845673],[-66.978966,44.856819],[-66.984245,44.865326],[-67.010651,44.847431],[-67.020332,44.860634],[-67.023849,44.853004],[-67.040863,44.85154],[-67.04145,44.836578],[-67.052895,44.839218],[-67.048782,44.850952],[-67.061104,44.871193],[-67.084282,44.879116],[-67.093964,44.894955],[-67.103935,44.896717],[-67.10218,44.886154],[-67.1101,44.884396],[-67.093666,44.877354],[-67.086334,44.864449],[-67.098953,44.875889],[-67.101006,44.866795],[-67.106575,44.873249],[-67.109215,44.866501],[-67.10276,44.855061],[-67.094551,44.859753],[-67.087219,44.858288],[-67.083992,44.854767],[-67.116554,44.847431],[-67.113029,44.853004],[-67.123886,44.857994],[-67.114204,44.876766],[-67.13327,44.879704],[-67.13562,44.871487],[-67.139137,44.879116],[-67.135033,44.813992],[-67.145004,44.820736],[-67.159966,44.814285],[-67.147354,44.82719],[-67.143829,44.855354],[-67.153809,44.879704],[-67.162903,44.8885],[-67.16349,44.881168],[-67.184021,44.883221],[-67.181679,44.892021],[-67.195465,44.891438],[-67.195168,44.900234],[-67.181381,44.892609],[-67.178452,44.905518],[-67.216293,44.914318],[-67.205437,44.912556],[-67.207787,44.920773],[-67.182266,44.909916],[-67.181969,44.91901],[-67.164078,44.90493],[-67.152924,44.905811],[-67.149994,44.894077],[-67.13298,44.883221],[-67.125649,44.886742],[-67.131805,44.902878],[-67.112152,44.895836],[-67.109215,44.902584],[-67.123009,44.919891],[-67.151756,44.927223],[-67.164955,44.940132],[-67.163193,44.948933],[-67.154686,44.934853],[-67.148819,44.942478],[-67.136208,44.927517],[-67.11039,44.92429],[-67.110687,44.935146],[-67.125061,44.940426],[-67.115082,44.948051],[-67.115967,44.942478],[-67.108627,44.943359],[-67.100708,44.9548],[-67.100418,44.939255],[-67.088684,44.931332],[-67.096893,44.931625],[-67.095726,44.925465],[-67.071671,44.91637],[-67.07724,44.926346],[-67.070496,44.936028],[-67.053772,44.930744],[-67.04937,44.939255],[-67.052307,44.957439],[-67.066093,44.963306],[-67.058762,44.963013],[-67.051132,44.960667],[-67.044678,44.944534],[-67.030304,44.934559],[-67.04409,44.937786],[-67.048203,44.931332],[-67.019745,44.923412],[-67.016808,44.918423],[-67.025024,44.916077],[-67.017395,44.909916],[-67.019157,44.899944],[-67.001266,44.907276],[-66.994225,44.894665],[-66.983665,44.900822],[-66.982193,44.911678],[-67.01358,44.929279],[-67.010063,44.938667],[-67.032066,44.944241],[-67.042915,44.967415],[-67.057587,44.970348],[-67.050545,44.985603],[-67.084869,45.034885],[-67.093964,45.036648],[-67.098068,45.035179],[-67.105408,45.034004],[-67.105988,45.034298],[-67.096016,45.042515],[-67.116257,45.05806],[-67.104523,45.065395],[-67.10511,45.079769],[-67.116257,45.099716],[-67.145004,45.124065],[-67.159676,45.156921],[-67.206902,45.168362],[-67.159378,45.172176],[-67.198982,45.188309],[-67.180206,45.192417],[-67.182556,45.20826],[-67.195168,45.215298],[-67.187248,45.226444],[-67.167595,45.216179],[-67.134155,45.141373],[-67.117432,45.124359],[-67.106285,45.123184],[-67.08252,45.075661],[-67.036758,45.068916],[-67.042336,45.085636],[-67.051132,45.085342],[-67.046143,45.089451],[-67.064629,45.106171],[-67.059349,45.115852],[-67.067856,45.130226],[-67.053185,45.122307],[-67.05201,45.129932],[-67.032066,45.125534],[-67.033531,45.147533],[-67.045563,45.153694],[-67.032066,45.151936],[-67.034706,45.16748],[-67.02092,45.163963],[-67.005661,45.146069],[-66.996864,45.151348],[-66.987473,45.145481],[-66.98513,45.173641],[-66.970169,45.150467],[-66.969284,45.183029],[-66.95462,45.17012],[-66.955498,45.160736],[-66.937019,45.149296],[-66.940834,45.145481],[-66.893311,45.129639],[-66.90123,45.124065],[-66.898293,45.116146],[-66.878349,45.117023],[-66.867493,45.126411],[-66.857521,45.122013],[-66.876297,45.117611],[-66.874535,45.109104],[-66.893311,45.102062],[-66.901817,45.102062],[-66.906799,45.115265],[-66.916191,45.112331],[-66.920296,45.072433],[-66.911499,45.061287],[-66.894485,45.059235],[-66.888321,45.04134],[-66.869545,45.047501],[-66.865143,45.062756],[-66.853409,45.059528],[-66.850479,45.079182],[-66.835808,45.072144],[-66.81498,45.095318],[-66.804131,45.088863],[-66.774208,45.114677],[-66.765404,45.110867],[-66.796211,45.094143],[-66.774498,45.080063],[-66.785942,45.073021],[-66.783302,45.063637],[-66.797676,45.071262],[-66.802078,45.067448],[-66.796211,45.06422],[-66.818794,45.051605],[-66.789169,45.06041],[-66.808533,45.047207],[-66.80677,45.04134],[-66.777725,45.053661],[-66.769516,45.049847],[-66.783302,45.04134],[-66.738419,45.054543],[-66.733727,45.063339],[-66.740471,45.073315],[-66.727859,45.074196],[-66.727562,45.094437],[-66.723457,45.082996],[-66.711136,45.085049],[-66.718765,45.075661],[-66.71759,45.057182],[-66.69735,45.062168],[-66.691772,45.071262],[-66.684151,45.067154],[-66.648361,45.077129],[-66.652168,45.089157],[-66.643372,45.096195],[-66.634277,45.091209],[-66.631638,45.097958],[-66.620781,45.093849],[-66.606995,45.107346],[-66.609047,45.115265],[-66.595551,45.098251],[-66.584991,45.097958],[-66.573845,45.115852],[-66.589981,45.113796],[-66.592911,45.120838],[-66.57238,45.12788],[-66.531013,45.135506],[-66.521629,45.117905],[-66.518402,45.136387],[-66.495811,45.14196],[-66.489944,45.152229],[-66.463249,45.169537],[-66.474106,45.155457],[-66.487015,45.152519],[-66.482025,45.144894],[-66.501389,45.128468],[-66.461197,45.129051],[-66.476158,45.124065],[-66.479675,45.105],[-66.458267,45.058647],[-66.448288,45.073021],[-66.425705,45.07449],[-66.412209,45.085049],[-66.428345,45.097958],[-66.407516,45.093849],[-66.406631,45.100304],[-66.384926,45.103825],[-66.379936,45.113796],[-66.378471,45.106171],[-66.369377,45.105289],[-66.374657,45.117611],[-66.350014,45.117905],[-66.355591,45.122601],[-66.345909,45.135506],[-66.330071,45.12289],[-66.318336,45.136974],[-66.313347,45.129639],[-66.298386,45.131985],[-66.297508,45.142841],[-66.289291,45.134628],[-66.253212,45.14196],[-66.272865,45.164253],[-66.252914,45.171589],[-66.264061,45.190365],[-66.280495,45.190952],[-66.304253,45.169537],[-66.312172,45.174229],[-66.285774,45.196232],[-66.269928,45.195351],[-66.232384,45.177162],[-66.227104,45.169243],[-66.243233,45.142841],[-66.222404,45.141079],[-66.186615,45.157803],[-66.148773,45.180683],[-66.149658,45.190952],[-66.160217,45.187138],[-66.15699,45.193298],[-66.166374,45.20327],[-66.15464,45.220875],[-66.134697,45.221752],[-66.145546,45.212364],[-66.140854,45.203857],[-66.12677,45.223804],[-66.09832,45.224686],[-66.104477,45.236713],[-66.091866,45.243755],[-66.067513,45.246101],[-66.054901,45.237007],[-66.066635,45.271332],[-66.054314,45.261944],[-66.047569,45.273678],[-66.038765,45.274261],[-66.044044,45.257248],[-66.035835,45.270451],[-66.023216,45.271332],[-66.019699,45.254902],[-66.002975,45.244926],[-66.010017,45.21706],[-65.982445,45.208843],[-65.955162,45.227913],[-65.952522,45.215298],[-65.929932,45.211193],[-65.923477,45.197109],[-65.8918,45.199459],[-65.854248,45.216179],[-65.810829,45.262821],[-65.785019,45.265465],[-65.738373,45.253727],[-65.729568,45.257542],[-65.732208,45.265755],[-65.715782,45.287758],[-65.714905,45.278664],[-65.688499,45.285412],[-65.68322,45.276318],[-65.654182,45.293625],[-65.659462,45.296558],[-65.6577,45.299492],[-65.650955,45.292156],[-65.593452,45.310345],[-65.569107,45.308586],[-65.536247,45.325012],[-65.543877,45.344082],[-65.533905,45.358456],[-65.469955,45.37635],[-65.456749,45.383682],[-65.448242,45.402164],[-65.369919,45.427982],[-65.342636,45.449688],[-65.277512,45.476089],[-65.273407,45.471104],[-65.205933,45.494572],[-65.187454,45.489586],[-65.195961,45.492813],[-65.196838,45.499557],[-65.194199,45.492813],[-65.18335,45.504547],[-65.139046,45.522148],[-65.017601,45.543564],[-64.967728,45.566738],[-64.964211,45.581406],[-64.94426,45.601646],[-64.903488,45.608101],[-64.865646,45.633327],[-64.811371,45.628048],[-64.789078,45.613968],[-64.790543,45.598713],[-64.779106,45.594898],[-64.741844,45.64389],[-64.701073,45.67469],[-64.690216,45.689651],[-64.692566,45.713413],[-64.685226,45.720455],[-64.670265,45.726616],[-64.643578,45.717815],[-64.669098,45.740696],[-64.695793,45.737762],[-64.652962,45.753899],[-64.591942,45.81345],[-64.577278,45.815208],[-64.569351,45.830757],[-64.570236,45.851292],[-64.615997,45.890602],[-64.633308,45.932259],[-64.662643,45.948685],[-64.678482,45.975967],[-64.616295,45.934898],[-64.602211,45.904682],[-64.568184,45.870651],[-64.549408,45.877106],[-64.549995,45.892361],[-64.544418,45.892067],[-64.544716,45.857452],[-64.491615,45.809048],[-64.521835,45.769737],[-64.522713,45.752136],[-64.550285,45.73571],[-64.552048,45.725147],[-64.513321,45.720749],[-64.491905,45.72691],[-64.493668,45.734829],[-64.480469,45.742748],[-64.491028,45.750084],[-64.485748,45.762699],[-64.425613,45.790859],[-64.40625,45.821369],[-64.375153,45.838676],[-64.361954,45.857159],[-64.331444,45.865665],[-64.338486,45.875935],[-64.352859,45.867428],[-64.357849,45.871239],[-64.344353,45.880627],[-64.298882,45.852467],[-64.28392,45.834862],[-64.280403,45.838089],[-64.274826,45.835743],[-64.28627,45.79438],[-64.31942,45.776485],[-64.324402,45.766514],[-64.293892,45.778248],[-64.252533,45.764164],[-64.260162,45.756832],[-64.259865,45.763577],[-64.304749,45.769154],[-64.333206,45.753899],[-64.339073,45.773258],[-64.294189,45.804356],[-64.301231,45.825768],[-64.332909,45.824009],[-64.382484,45.797607],[-64.386597,45.792034],[-64.379845,45.790276],[-64.377792,45.773258],[-64.415054,45.750671],[-64.433533,45.751553],[-64.449959,45.737469],[-64.43676,45.714882],[-64.452309,45.701386],[-64.455826,45.684666],[-64.49044,45.675865],[-64.487801,45.66589],[-64.506577,45.665012],[-64.530632,45.648876],[-64.568771,45.616608],[-64.574051,45.599007],[-64.581383,45.610153],[-64.631256,45.595779],[-64.655891,45.581112],[-64.655312,45.566444],[-64.677895,45.55471],[-64.681709,45.541801],[-64.799347,45.504841],[-64.854202,45.4758],[-64.806091,45.479317],[-64.784973,45.469345],[-64.798172,45.46553],[-64.79641,45.471691],[-64.806679,45.4758],[-64.828384,45.46817],[-64.831024,45.474918],[-64.836304,45.462303],[-64.865936,45.464943],[-64.867111,45.454384],[-64.889404,45.445877],[-64.895271,45.433262],[-64.91346,45.433262],[-64.927544,45.411552],[-64.925484,45.390137],[-64.945145,45.346722],[-64.943085,45.330002],[-64.853615,45.355816],[-64.834251,45.354935],[-64.786438,45.322079],[-64.7882,45.307999],[-64.774117,45.29245],[-64.760033,45.309174],[-64.704887,45.320614],[-64.710167,45.356403],[-64.687286,45.379871],[-64.572578,45.408325],[-64.509514,45.394245],[-64.466095,45.397472],[-64.440865,45.380165],[-64.392464,45.36491],[-64.376617,45.378403],[-64.353149,45.379284],[-64.330566,45.36755],[-64.315308,45.388084],[-64.326752,45.387497],[-64.326164,45.400112],[-64.299469,45.385151],[-64.252533,45.378403],[-64.239922,45.38163],[-64.252533,45.385738],[-64.241974,45.393364],[-64.185646,45.402458],[-64.148979,45.398937],[-64.099106,45.410671],[-64.086494,45.404221],[-64.060974,45.410088],[-64.070358,45.399231],[-64.04454,45.409206],[-64.064201,45.394833],[-64.039848,45.38427],[-63.999367,45.388084],[-63.989689,45.398937],[-63.955658,45.395714],[-63.91576,45.378113],[-63.925735,45.36755],[-63.918404,45.353176],[-63.888187,45.347309],[-63.884079,45.364029],[-63.86853,45.379871],[-63.806633,45.396591],[-63.782284,45.393951],[-63.782284,45.399818],[-63.700733,45.38662],[-63.654091,45.394245],[-63.630623,45.38662],[-63.611847,45.393951],[-63.518265,45.369019],[-63.488342,45.372536],[-63.471622,45.363152],[-63.432018,45.363152],[-63.424393,45.370777],[-63.409138,45.361683],[-63.378044,45.362564],[-63.40239,45.349949],[-63.424393,45.352295],[-63.473969,45.334694],[-63.482185,45.321789],[-63.468983,45.307999],[-63.48101,45.296852],[-63.493919,45.319733],[-63.530586,45.337334],[-63.568134,45.316799],[-63.673744,45.320026],[-63.679905,45.314747],[-63.714226,45.3256],[-63.729187,45.320026],[-63.72567,45.309174],[-63.746788,45.301544],[-63.767323,45.317387],[-63.790207,45.318268],[-63.813381,45.309757],[-63.80986,45.291573],[-63.85181,45.284824],[-63.874985,45.268105],[-63.882027,45.277199],[-63.902267,45.278957],[-63.999954,45.248447],[-64.014328,45.238182],[-64.010513,45.230846],[-64.057449,45.234955],[-64.070946,45.22234],[-64.111725,45.216473],[-64.172737,45.189777],[-64.167168,45.168949],[-64.198555,45.149879],[-64.200905,45.120838],[-64.130791,45.055714],[-64.096764,45.059235],[-64.123459,45.05014],[-64.13607,45.014645],[-64.134308,45.01083],[-64.106735,45.006725],[-64.103508,45.002617],[-64.149567,45.003792],[-64.156021,45.014938],[-64.143402,45.037231],[-64.148102,45.050728],[-64.220558,45.110867],[-64.270134,45.129345],[-64.277763,45.118492],[-64.266609,45.113506],[-64.274826,45.112331],[-64.28421,45.119961],[-64.280106,45.132278],[-64.28656,45.140785],[-64.331741,45.137562],[-64.340248,45.129051],[-64.339951,45.107052],[-64.359901,45.10001],[-64.354034,45.107052],[-64.368111,45.127586],[-64.388939,45.126705],[-64.379845,45.146652],[-64.391289,45.147827],[-64.371925,45.158386],[-64.367523,45.153988],[-64.351685,45.16748],[-64.360191,45.180389],[-64.356377,45.193005],[-64.371338,45.200924],[-64.386597,45.196526],[-64.388649,45.197403],[-64.361656,45.218819],[-64.350807,45.255783],[-64.327339,45.271622],[-64.328217,45.298023],[-64.377502,45.321789],[-64.49572,45.336746],[-64.469025,45.320026],[-64.404785,45.309174],[-64.399208,45.284237],[-64.472549,45.240822],[-64.605141,45.20327],[-64.762672,45.17247],[-64.876205,45.134918],[-64.929886,45.108227],[-64.950127,45.106758],[-65.048401,45.05278],[-65.065125,45.052193],[-65.082436,45.031952],[-65.161636,45.00555],[-65.232628,44.96096],[-65.294525,44.939838],[-65.315941,44.916664],[-65.34938,44.912556],[-65.424484,44.877647],[-65.508972,44.826897],[-65.643326,44.769985],[-65.743652,44.712196],[-65.760666,44.685501],[-65.752159,44.673473],[-65.727226,44.668194],[-65.682632,44.698116],[-65.65741,44.692249],[-65.634232,44.70985],[-65.582016,44.714836],[-65.515129,44.752384],[-65.522461,44.739479],[-65.569695,44.706036],[-65.601959,44.696648],[-65.611938,44.670246],[-65.625137,44.664379],[-65.612526,44.661739],[-65.637459,44.658218],[-65.65741,44.639442],[-65.684982,44.630646],[-65.684395,44.619789],[-65.717545,44.62067],[-65.722824,44.611576],[-65.742775,44.613041],[-65.74424,44.601894],[-65.766243,44.602188],[-65.750694,44.614803],[-65.753922,44.628883],[-65.763893,44.631229],[-65.754799,44.641499],[-65.758026,44.663204],[-65.765945,44.680805],[-65.786774,44.693127],[-65.919083,44.610695],[-65.930817,44.618031],[-65.951057,44.609818],[-66.044342,44.547916],[-66.087463,44.507729],[-66.111809,44.498634],[-66.201286,44.414146],[-66.203339,44.376305],[-66.106529,44.464603],[-66.085411,44.475754],[-66.090103,44.490421],[-66.071625,44.487194],[-66.024101,44.527088],[-65.988602,44.544689],[-65.980392,44.557892],[-65.936386,44.579014],[-65.904999,44.56992],[-65.876839,44.587227],[-65.86393,44.587814],[-65.846619,44.570801],[-65.89444,44.521515],[-65.944893,44.487488],[-65.958389,44.496582],[-66.013832,44.451698],[-65.997406,44.435562],[-66.002975,44.408279],[-66.011192,44.408279],[-66.002098,44.421482],[-66.005028,44.435562],[-66.030846,44.43615],[-66.06282,44.389214],[-66.082184,44.385105],[-66.086288,44.37484],[-66.079247,44.379532],[-66.076607,44.378651],[-66.127068,44.331715],[-66.121201,44.315872],[-66.137924,44.280087],[-66.133812,44.251629],[-66.142029,44.224934],[-66.15464,44.216721],[-66.157867,44.194134],[-66.18222,44.17741],[-66.215363,44.096741],[-66.209244,44.083759],[-66.1875,44.100552],[-66.18222,44.090874],[-66.191315,44.085884],[-66.179581,44.075031],[-66.179581,44.060947],[-66.163734,44.053322],[-66.172241,44.028385],[-66.155815,44.016945],[-66.150536,44.02076],[-66.152298,43.992306],[-66.169014,43.972942],[-66.151123,43.925713],[-66.167847,43.910164],[-66.161095,43.882004],[-66.171364,43.862057],[-66.167549,43.853256],[-66.150825,43.860882],[-66.147308,43.82069],[-66.170486,43.800156],[-66.164322,43.795757],[-66.154938,43.80397],[-66.152885,43.791355],[-66.144669,43.807198],[-66.155228,43.807491],[-66.153175,43.814533],[-66.130882,43.833012],[-66.138512,43.842693],[-66.118851,43.846802],[-66.124428,43.819519],[-66.139976,43.814823],[-66.130585,43.812183],[-66.140266,43.788715],[-66.128242,43.791355],[-66.133224,43.778156],[-66.122963,43.738258],[-66.107117,43.742367],[-66.109467,43.75322],[-66.100662,43.75938],[-66.089516,43.751755],[-66.09597,43.770233],[-66.089813,43.779037],[-66.090103,43.765247],[-66.082184,43.770233],[-66.076317,43.759674],[-66.076317,43.742661],[-66.083946,43.745888],[-66.083359,43.737675],[-66.068398,43.723003],[-66.063408,43.702469],[-66.051086,43.713619],[-66.059593,43.720074],[-66.060768,43.741192],[-66.043755,43.747059],[-66.028206,43.73151],[-66.033485,43.696018],[-66.014709,43.680763],[-65.997108,43.729164],[-65.989189,43.736206],[-65.982147,43.728287],[-65.98156,43.69191],[-65.962204,43.737381],[-65.964844,43.749699],[-65.98391,43.754982],[-65.983322,43.760262],[-65.972763,43.756741],[-65.985962,43.775517],[-65.993881,43.772583],[-66.008553,43.805145],[-66.014122,43.821278],[-65.998871,43.817467],[-66.006203,43.823917],[-66.007088,43.844456],[-65.980972,43.847095],[-65.980095,43.862934],[-65.974815,43.855896],[-65.993004,43.825974],[-65.984497,43.810131],[-65.993881,43.810719],[-65.975403,43.784904],[-65.993004,43.787544],[-65.972176,43.77581],[-65.967484,43.761143],[-65.959564,43.761726],[-65.957504,43.780502],[-65.94548,43.774048],[-65.965134,43.809544],[-65.929642,43.781677],[-65.940491,43.801624],[-65.92495,43.801918],[-65.930519,43.81424],[-65.940788,43.806316],[-65.94812,43.809837],[-65.941963,43.813358],[-65.944893,43.822159],[-65.938438,43.816292],[-65.931984,43.82069],[-65.949295,43.842106],[-65.927879,43.829201],[-65.924652,43.815121],[-65.927879,43.834187],[-65.920547,43.839172],[-65.931984,43.853256],[-65.934921,43.863815],[-65.890327,43.813358],[-65.895905,43.810425],[-65.922012,43.835068],[-65.895317,43.803383],[-65.918495,43.815411],[-65.919662,43.810131],[-65.88681,43.768768],[-65.877129,43.769943],[-65.871849,43.753807],[-65.865395,43.754982],[-65.863045,43.770821],[-65.880356,43.791649],[-65.855423,43.774048],[-65.871262,43.800743],[-65.860115,43.812183],[-65.85865,43.794876],[-65.867157,43.795757],[-65.863342,43.788715],[-65.854538,43.79253],[-65.841339,43.766716],[-65.851311,43.750874],[-65.839577,43.751755],[-65.840462,43.719193],[-65.831657,43.712151],[-65.829315,43.723003],[-65.816994,43.705696],[-65.820511,43.661694],[-65.809654,43.632359],[-65.815521,43.630894],[-65.813766,43.605076],[-65.804962,43.592754],[-65.789711,43.602436],[-65.787949,43.637638],[-65.79763,43.637932],[-65.801445,43.647614],[-65.787659,43.691322],[-65.782669,43.681351],[-65.777092,43.68428],[-65.781792,43.698658],[-65.775925,43.701298],[-65.772987,43.674896],[-65.763893,43.672546],[-65.787071,43.568993],[-65.778267,43.551979],[-65.761543,43.551979],[-65.758026,43.537605],[-65.747467,43.534672],[-65.74453,43.552567],[-65.753036,43.567528],[-65.74659,43.576328],[-65.740425,43.570755],[-65.733681,43.549046],[-65.738075,43.515018],[-65.729568,43.493309],[-65.696716,43.493603],[-65.687622,43.504456],[-65.676765,43.502991],[-65.670898,43.487736],[-65.654182,43.482162],[-65.656235,43.506802],[-65.649193,43.512962],[-65.630127,43.510323],[-65.62426,43.520298],[-65.606659,43.515308],[-65.616341,43.50827],[-65.611938,43.495949],[-65.618683,43.489201],[-65.602844,43.470718],[-65.604897,43.467789],[-65.617508,43.477173],[-65.623375,43.46632],[-65.623672,43.475121],[-65.633354,43.473656],[-65.65535,43.458401],[-65.65007,43.448719],[-65.628075,43.441677],[-65.632179,43.43317],[-65.61956,43.434052],[-65.62162,43.401196],[-65.64743,43.406181],[-65.643326,43.419678],[-65.651245,43.407356],[-65.62162,43.39122],[-69.942139,41.659256]]]]}}