{"type":"Feature","properties":{"name":"Mediterranean Sea (IHO)","source":"Flanders Marine Institute (VLIZ), Marine Regions, IHO Sea Areas v3 (IHO S-23, 1953)","source_url":"https://www.marineregions.org/sources.php#iho","license":"CC-BY 4.0","components":["Alboran Sea","Balearic (Iberian Sea)","Ligurian Sea","Tyrrhenian Sea","Adriatic Sea","Ionian Sea","Aegean Sea","Mediterranean Sea - Western Basin","Mediterranean Sea - Eastern Basin"],"retrieved":"2026-10-02","note":"The union of the nine IHO sea areas that make up the Mediterranean. Excludes the Strait of Gibraltar, the Sea of Marmara and the Black Sea. Interior rings dropped (land inside the region is excluded by sst_daily holding ocean cells only). Longitudes are continuous across the region, on the 0-360 frame where the region allows and as negative degrees east where it crosses the prime meridian.","simplify_tolerance_deg":0.01,"outer_area_km2":2616699,"cells":106240,"cells_moved_by_simplification":227},"geometry":{"type":"MultiPolygon","coordinates":[[[[-2.916491,35.282931],[-2.937078,35.284906],[-2.924278,35.292407],[-2.945629,35.305921],[-2.970732,35.361541],[-2.949674,35.427872],[-2.973127,35.439993],[-2.993639,35.435354],[-3.027278,35.351906],[-3.082898,35.280862],[-3.109958,35.271775],[-3.134145,35.285067],[-3.19342,35.223202],[-3.238589,35.223076],[-3.338161,35.185627],[-3.575818,35.221752],[-3.678099,35.285815],[-3.70523,35.288225],[-3.750172,35.274779],[-3.771885,35.222092],[-3.810526,35.201798],[-3.898549,35.20997],[-3.928696,35.261952],[-4.134951,35.200048],[-4.286236,35.180828],[-4.35626,35.147363],[-4.612428,35.188925],[-4.649501,35.214255],[-4.680807,35.204433],[-4.782521,35.238017],[-4.86731,35.301381],[-4.928008,35.318534],[-5.016641,35.403203],[-5.062399,35.407187],[-5.10568,35.476422],[-5.173371,35.531688],[-5.2388,35.548473],[-5.269421,35.602149],[-5.284311,35.663256],[-5.274019,35.685974],[-5.326658,35.693796],[-5.353474,35.844943],[-5.339294,35.876952],[-5.27815,35.900859],[-5.345353,36.109061],[-5.320068,36.223492],[-5.278962,36.280273],[-5.289996,36.29008],[-5.293833,36.296459],[-5.276329,36.283035],[-5.246858,36.310224],[-5.221542,36.373431],[-5.177226,36.414032],[-5.081262,36.450548],[-5.005951,36.459388],[-4.934505,36.499792],[-4.859787,36.507504],[-4.739501,36.482991],[-4.638964,36.506246],[-4.603673,36.562693],[-4.509992,36.593818],[-4.432058,36.703846],[-4.414103,36.717501],[-4.414368,36.698713],[-4.394409,36.722965],[-4.179037,36.715431],[-4.109578,36.724851],[-4.064689,36.748657],[-3.956268,36.726255],[-3.835936,36.753708],[-3.76469,36.729172],[-3.75101,36.737994],[-3.734262,36.719078],[-3.657644,36.746121],[-3.602099,36.743679],[-3.553639,36.714594],[-3.528876,36.724205],[-3.481384,36.696712],[-3.420336,36.69372],[-3.337759,36.738281],[-3.26035,36.752985],[-2.975899,36.738037],[-2.92741,36.751984],[-2.84878,36.694943],[-2.818827,36.706111],[-2.771978,36.681293],[-2.69986,36.682275],[-2.625499,36.721849],[-2.564869,36.81365],[-2.480514,36.833945],[-2.464127,36.825495],[-2.473936,36.835405],[-2.426079,36.810332],[-2.367129,36.841518],[-2.292157,36.820597],[-2.194311,36.721153],[-2.123685,36.731757],[-2.106678,36.762549],[-2.060129,36.777398],[-2.059884,36.8091],[-1.999389,36.839991],[-1.991681,36.893414],[-1.967402,36.89835],[-1.940868,36.935501],[-1.895564,36.948217],[-1.900909,36.987245],[-1.849562,37.069253],[-1.808149,37.213764],[-1.707228,37.305081],[-1.676207,37.353707],[-1.518595,37.431389],[-1.481996,37.424915],[-1.460054,37.485949],[-1.401927,37.506874],[-1.325986,37.562282],[-1.257111,37.557288],[-1.245086,37.576527],[-1.214518,37.574906],[-1.174512,37.562518],[-1.166096,37.541808],[-1.110843,37.533815],[-1.127048,37.551983],[-1.111045,37.567226],[-1.073845,37.583857],[-1.016119,37.573195],[-0.984171,37.584225],[-0.992147,37.60015],[-0.950611,37.567454],[-0.967887,37.569732],[-0.96112,37.558754],[-0.919571,37.553637],[-0.877705,37.577755],[-0.82178,37.574554],[-0.71763,37.606761],[-0.686586,37.633093],[-0.710133,37.641601],[-0.733368,37.683992],[-0.738111,37.734239],[-0.721871,37.740574],[-0.745816,37.759832],[-0.739686,37.772403],[-0.745326,37.784589],[-0.761134,37.788808],[-0.746538,37.756562],[-0.742067,37.753409],[-0.727484,37.634372],[-0.808547,37.661849],[-0.859274,37.72287],[-0.80358,37.77733],[-0.766891,37.842663],[-0.762356,37.792125],[-0.747927,37.790868],[-0.760975,37.86591],[-0.7412,37.908511],[-0.719263,37.911827],[-0.696787,37.969173],[-0.66665,37.97503],[-0.647118,37.999601],[-0.653196,38.046596],[-0.63273,38.147079],[-0.595799,38.188218],[-0.537982,38.186939],[-0.509549,38.202965],[-0.520685,38.289325],[-0.506664,38.331923],[-0.482856,38.342353],[-0.48691,38.32925],[-0.444808,38.362821],[-0.402245,38.352471],[-0.404613,38.404207],[-0.37502,38.442318],[-0.147809,38.536354],[-0.096495,38.523558],[-0.048655,38.563315],[-0.062085,38.580882],[-0.028337,38.618189],[0.030895,38.625159],[0.048734,38.641432],[0.083401,38.631299],[0.073521,38.645036],[0.096366,38.67029],[0.149423,38.679732],[0.182947,38.720866],[0.235029,38.737086],[0.225844,38.763914],[0.189575,38.773314],[0.182999,38.794649],[0.197903,38.804505],[0.112882,38.842804],[0.112615,38.845538],[0.117733,38.842214],[0.12585,38.848424],[-0.014645,38.871263],[-0.15908,38.993632],[-0.236541,39.127913],[-0.24128,39.170591],[-0.216175,39.187012],[-0.292768,39.307103],[-0.330884,39.422612],[-0.365895,39.435117],[-0.312129,39.4227],[-0.329973,39.435377],[-0.323184,39.458299],[-0.301692,39.435232],[-0.301442,39.448621],[-0.318182,39.459908],[-0.330894,39.459532],[-0.31714,39.462268],[-0.316154,39.523236],[-0.249864,39.625386],[-0.2161,39.654559],[-0.194626,39.646632],[-0.21418,39.656755],[-0.17542,39.742131],[-0.087425,39.855826],[-0.011693,39.907722],[0.005026,39.956632],[0.004802,39.949636],[0.020366,39.949722],[0.021877,39.952598],[0.005754,39.953413],[0.009226,39.966887],[0.030066,39.959593],[0.023087,39.980054],[0.049522,40.035069],[0.147289,40.081935],[0.183935,40.163133],[0.265063,40.20873],[0.287034,40.25255],[0.406987,40.355383],[0.417796,40.40056],[0.47811,40.458537],[0.538949,40.56753],[0.603167,40.609549],[0.601315,40.621896],[0.743788,40.636319],[0.711066,40.592663],[0.67272,40.59312],[0.659939,40.585196],[0.705547,40.588272],[0.676888,40.564486],[0.662107,40.56135],[0.658998,40.574229],[0.676538,40.57285],[0.658261,40.576548],[0.660907,40.591779],[0.643015,40.574934],[0.617945,40.58653],[0.596164,40.575493],[0.618159,40.554062],[0.670691,40.56049],[0.703125,40.580078],[0.757049,40.639777],[0.873175,40.701868],[0.872883,40.73196],[0.86384,40.718142],[0.794046,40.693359],[0.777513,40.695368],[0.753242,40.708786],[0.702992,40.714123],[0.689821,40.722467],[0.616465,40.704249],[0.597875,40.705666],[0.578473,40.715982],[0.567532,40.746567],[0.542601,40.754773],[0.53542,40.761653],[0.532869,40.772798],[0.503943,40.785156],[0.500711,40.788635],[0.524346,40.845496],[0.519712,40.847775],[0.509571,40.861759],[0.505679,40.885294],[0.485762,40.899576],[0.486094,40.901079],[0.489659,40.903233],[0.509193,40.906536],[0.499465,40.913616],[0.486012,40.930827],[0.483794,40.95294],[0.489262,40.956744],[0.504864,40.957031],[0.484965,40.950474],[0.488185,40.929278],[0.509037,40.908419],[0.509679,40.905416],[0.486968,40.899526],[0.506668,40.885576],[0.525185,40.846406],[0.501791,40.787828],[0.534461,40.775017],[0.543141,40.757005],[0.565324,40.751483],[0.570228,40.746517],[0.581047,40.71625],[0.619561,40.70709],[0.689194,40.724022],[0.752912,40.710598],[0.782204,40.696083],[0.80139,40.697201],[0.867726,40.731766],[0.831177,40.733018],[0.771698,40.791255],[0.726594,40.789642],[0.782622,40.772267],[0.770331,40.763808],[0.729846,40.769817],[0.700246,40.802915],[0.741765,40.82298],[0.862829,40.946869],[0.987628,41.040804],[1.123689,41.074747],[1.171823,41.054542],[1.195471,41.091085],[1.208631,41.081756],[1.199068,41.094574],[1.248134,41.108704],[1.227933,41.095804],[1.221486,41.083719],[1.300961,41.128847],[1.402008,41.132187],[1.521264,41.179519],[1.735721,41.215281],[1.730109,41.205398],[1.937329,41.262567],[2.044537,41.269519],[2.137847,41.292972],[2.133808,41.303268],[2.143103,41.295891],[2.148816,41.294861],[2.152016,41.295462],[2.154416,41.296577],[2.161043,41.303272],[2.13739,41.301126],[2.164942,41.339794],[2.145995,41.330507],[2.150946,41.345968],[2.185584,41.377659],[2.171656,41.346111],[2.169675,41.325674],[2.195632,41.383788],[2.266568,41.459345],[2.380613,41.495007],[2.551505,41.57809],[2.774125,41.64773],[2.831508,41.693618],[2.934125,41.714643],[2.977513,41.757172],[3.056448,41.786479],[3.1003,41.843735],[3.130315,41.841361],[3.179268,41.867111],[3.234022,41.962079],[3.21035,41.972484],[3.193279,42.02255],[3.170944,42.023283],[3.19362,42.024215],[3.214806,42.060922],[3.176825,42.111523],[3.124585,42.127913],[3.113635,42.215972],[3.163121,42.264788],[3.218071,42.232116],[3.228795,42.25111],[3.263996,42.236779],[3.2538,42.25239],[3.287809,42.265734],[3.277795,42.287555],[3.299703,42.285037],[3.290289,42.30634],[3.322487,42.318943],[3.268169,42.340402],[3.250371,42.330093],[3.229941,42.352082],[3.196503,42.33515],[3.162933,42.360631],[3.155513,42.380773],[3.1675,42.389361],[3.152792,42.393232],[3.177899,42.439317],[3.155371,42.477705],[3.129768,42.482265],[3.13613,42.499918],[3.123059,42.505186],[3.142145,42.51592],[3.085834,42.524343],[3.049077,42.547747],[3.033866,42.672728],[3.054062,42.871789],[3.018097,42.836971],[3.019772,42.804572],[2.98172,42.800523],[2.96301,42.834452],[2.94968,42.833741],[3.001002,42.873784],[3.010818,42.927767],[3.016422,42.894877],[3.048629,42.902259],[3.02989,42.854938],[3.054391,42.87322],[3.060376,42.919603],[3.034085,42.934367],[3.042853,42.967962],[3.031643,42.962499],[3.070694,43.011897],[3.060208,43.026673],[3.080266,43.055943],[3.032306,43.064936],[3.031216,43.10115],[3.084535,43.063374],[3.095079,43.078992],[3.102761,43.084774],[3.086154,43.059013],[3.136249,43.128394],[3.202521,43.185738],[3.195103,43.207005],[3.211539,43.194245],[3.341562,43.26818],[3.336244,43.281793],[3.346906,43.270981],[3.426956,43.290542],[3.482233,43.273466],[3.509442,43.283443],[3.507002,43.267669],[3.637216,43.380551],[3.715333,43.398463],[3.905769,43.517895],[4.025488,43.555191],[4.126278,43.544895],[4.140947,43.528634],[4.115051,43.504302],[4.173309,43.469459],[4.40197,43.447046],[4.531715,43.451974],[4.590636,43.418669],[4.591715,43.402539],[4.554705,43.384301],[4.580099,43.361928],[4.659915,43.345192],[4.772771,43.348704],[4.837993,43.330652],[4.823395,43.368975],[4.755064,43.404348],[4.731735,43.427058],[4.748855,43.471395],[4.716901,43.542367],[4.658723,43.590518],[4.653174,43.615502],[4.608845,43.63384],[4.596197,43.651577],[4.601504,43.666384],[4.62655,43.680621],[4.610842,43.723292],[4.628118,43.765072],[4.648444,43.790258],[4.648261,43.811476],[4.625873,43.828804],[4.611324,43.854466],[4.621298,43.841848],[4.618258,43.859497],[4.624553,43.866789],[4.685195,43.885628],[4.736435,43.923967],[4.687188,43.881732],[4.62432,43.859781],[4.651751,43.815891],[4.65365,43.79823],[4.613542,43.725437],[4.629578,43.68061],[4.600832,43.651287],[4.65724,43.615963],[4.669057,43.584403],[4.715892,43.549755],[4.735841,43.522122],[4.752708,43.470723],[4.738284,43.426234],[4.760084,43.425185],[4.744871,43.420712],[4.83566,43.367554],[4.846252,43.33482],[4.875775,43.350431],[4.861997,43.355807],[4.884627,43.354381],[4.910454,43.373346],[4.912235,43.376812],[4.883529,43.35568],[4.833291,43.374812],[4.87254,43.390152],[4.839316,43.393542],[4.837458,43.40526],[4.859342,43.402085],[4.825305,43.423294],[4.828941,43.429061],[4.877006,43.410653],[4.8496,43.451691],[4.882288,43.419474],[4.905208,43.429899],[4.885647,43.414136],[4.892895,43.404624],[4.92783,43.432757],[4.968009,43.426127],[4.983093,43.395799],[4.990034,43.403694],[5.059274,43.406349],[5.051566,43.464249],[5.000619,43.475396],[5.020834,43.556137],[5.046182,43.522079],[5.114216,43.522801],[5.141315,43.459272],[5.157776,43.454817],[5.206426,43.492069],[5.229536,43.465967],[5.228676,43.44829],[5.197873,43.451013],[5.204257,43.442034],[5.130069,43.397544],[4.987387,43.395195],[5.0412,43.32779],[5.225237,43.327877],[5.314193,43.360268],[5.373494,43.294515],[5.345305,43.282246],[5.376,43.260748],[5.337769,43.21346],[5.455834,43.211051],[5.499606,43.195903],[5.537514,43.21215],[5.570511,43.173537],[5.605111,43.160226],[5.623725,43.186678],[5.686667,43.179084],[5.694756,43.143551],[5.770729,43.138365],[5.780571,43.128786],[5.766041,43.115306],[5.81082,43.111906],[5.794407,43.069914],[5.829751,43.048521],[5.858904,43.045405],[5.890101,43.077814],[5.946914,43.067105],[5.940856,43.084127],[5.895813,43.08172],[5.910656,43.1003],[5.885399,43.116253],[5.924463,43.122838],[5.92545,43.10197],[6.00686,43.103413],[6.024266,43.094294],[6.021896,43.078198],[6.11648,43.082951],[6.131194,43.046229],[6.090564,43.036158],[6.148978,43.025978],[6.174064,43.032737],[6.15054,43.044872],[6.161076,43.089113],[6.20568,43.116477],[6.276344,43.120682],[6.321929,43.09163],[6.364512,43.085983],[6.359891,43.120998],[6.386341,43.144677],[6.49361,43.149907],[6.560615,43.18883],[6.600009,43.182919],[6.620676,43.157856],[6.63336,43.172599],[6.647679,43.166293],[6.642925,43.187181],[6.681057,43.200082],[6.66259,43.238417],[6.697336,43.265528],[6.677959,43.278857],[6.663955,43.264627],[6.63824,43.273904],[6.592448,43.262066],[6.583354,43.277508],[6.671428,43.31229],[6.679688,43.340402],[6.716236,43.346971],[6.724741,43.402233],[6.744586,43.418112],[6.852198,43.410455],[6.859844,43.43356],[6.893943,43.429496],[6.95672,43.496615],[6.937884,43.51448],[6.959155,43.540133],[7.022159,43.549415],[7.038284,43.534722],[7.096762,43.570901],[7.121091,43.559328],[7.11929,43.542577],[7.137817,43.545219],[7.126887,43.607633],[7.158063,43.653498],[7.212735,43.64746],[7.240616,43.687457],[7.305816,43.684754],[7.314343,43.706193],[7.332594,43.674419],[7.350043,43.68619],[7.33037,43.698865],[7.340327,43.712513],[7.406199,43.718503],[7.453828,43.758484],[7.487513,43.748839],[7.489849,43.766394],[7.522891,43.78431],[7.583425,43.792048],[7.673417,43.775942],[7.701252,43.798382],[7.738859,43.794851],[7.806262,43.822858],[7.833491,43.815879],[8.074228,43.890962],[8.142648,43.947482],[8.174059,43.953714],[8.160369,43.985878],[8.225672,44.042708],[8.231853,44.091878],[8.269308,44.138734],[8.423238,44.192269],[8.416411,44.22265],[8.456382,44.257496],[8.441075,44.270381],[8.450738,44.287467],[8.504321,44.313653],[8.490181,44.311774],[8.502753,44.326118],[8.744051,44.426679],[8.833818,44.42369],[8.845755,44.417138],[8.82147,44.414485],[8.915019,44.398456],[8.917933,44.413036],[8.933838,44.393981],[9.141207,44.3602],[9.154545,44.347561],[9.145059,44.322051],[9.217842,44.298084],[9.214232,44.334125],[9.234471,44.347624],[9.369936,44.294554],[9.404386,44.250918],[9.418386,44.259701],[9.443586,44.237852],[9.488423,44.238783],[9.606325,44.17145],[9.634642,44.133466],[9.676746,44.138536],[9.832101,44.04751],[9.851644,44.066863],[9.8377,44.065353],[9.821355,44.094241],[9.848973,44.109161],[9.977723,44.035066],[9.986422,44.046478],[9.971741,44.061225],[9.975716,44.075395],[9.961373,44.084438],[9.957868,44.095116],[9.978757,44.075111],[9.989031,44.049379],[10.069957,44.025332],[10.146713,43.974779],[10.240473,43.871833],[10.26924,43.783882],[10.283396,43.688576],[10.268153,43.677097],[10.295687,43.587141],[10.348406,43.598755],[10.299495,43.580666],[10.290494,43.557304],[10.304067,43.581433],[10.311427,43.570019],[10.297894,43.535179],[10.331194,43.472955],[10.381465,43.446101],[10.404132,43.401065],[10.424943,43.398824],[10.458708,43.323267],[10.502797,43.289983],[10.529995,43.229503],[10.538057,43.088369],[10.51562,42.996915],[10.483048,42.987355],[10.495117,42.931685],[10.543225,42.920234],[10.560295,42.950573],[10.647866,42.953069],[10.773078,42.90968],[10.78618,42.888255],[10.769179,42.868806],[10.772877,42.83056],[10.729642,42.800936],[10.963709,42.730802],[11.014218,42.656908],[11.085565,42.627738],[11.081303,42.61417],[11.122733,42.556526],[11.157989,42.561556],[11.18473,42.528905],[11.191429,42.490185],[11.177575,42.451042],[11.15789,42.434246],[11.103615,42.44718],[11.087368,42.430126],[11.096176,42.392623],[11.153386,42.360679],[11.191062,42.363044],[11.213581,42.38779],[11.209393,42.408781],[11.274462,42.41846],[11.482039,42.367409],[11.629256,42.297383],[11.694123,42.237246],[11.739624,42.172168],[11.733359,42.156795],[11.789147,42.092492],[11.76809,42.102366],[11.806893,42.079896],[11.832662,42.030564],[11.915712,42.038854],[12.134148,41.921038],[12.208052,41.82657],[12.223246,41.743481],[12.351029,41.698641],[12.437563,41.641029],[12.551192,41.535992],[12.622864,41.444145],[12.668067,41.456823],[12.76494,41.407434],[12.846945,41.413438],[12.923877,41.379484],[12.994267,41.319683],[13.046269,41.226027],[13.094313,41.224064],[13.166564,41.273498],[13.283574,41.297327],[13.376899,41.280745],[13.569513,41.203446],[13.590879,41.208647],[13.571905,41.216326],[13.573266,41.238913],[13.619651,41.260099],[13.728091,41.244388],[13.838686,41.160633],[13.900453,41.084088],[13.921383,41.025061],[13.933761,41.028555],[14.014327,40.932378],[14.044745,40.868152],[14.046906,40.789626],[14.091082,40.777603],[14.072177,40.818474],[14.101028,40.831323],[14.161886,40.815445],[14.173461,40.800681],[14.16073,40.793004],[14.187147,40.790823],[14.224516,40.829782],[14.24956,40.825528],[14.26837,40.84441],[14.328826,40.816263],[14.39511,40.759037],[14.462537,40.741444],[14.481046,40.696809],[14.407945,40.659766],[14.400008,40.637829],[14.339006,40.627468],[14.324312,40.568791],[14.486258,40.626735],[14.527791,40.606357],[14.572598,40.610617],[14.627432,40.648383],[14.692074,40.633035],[14.744467,40.675235],[14.79058,40.664423],[14.883728,40.579955],[15.000649,40.38879],[14.997456,40.356966],[14.944429,40.335295],[14.943926,40.276162],[14.907751,40.243439],[14.99257,40.217617],[15.043018,40.169091],[15.132602,40.171384],[15.180396,40.124094],[15.205023,40.123422],[15.272469,40.072991],[15.285128,40.034421],[15.271879,40.022201],[15.316855,40.031181],[15.353789,39.999482],[15.419369,39.990004],[15.503991,40.063843],[15.571274,40.078125],[15.62837,40.072845],[15.63274,40.050135],[15.6772,40.029579],[15.680368,40.006055],[15.720266,39.97644],[15.779757,39.89411],[15.784505,39.875108],[15.768532,39.87173],[15.793063,39.863412],[15.769005,39.835296],[15.787259,39.813451],[15.81426,39.677578],[15.833058,39.66586],[15.874233,39.553278],[15.926188,39.525618],[16.002913,39.428153],[16.055129,39.284459],[16.066762,39.136154],[16.097882,39.034424],[16.156933,38.95082],[16.217359,38.925664],[16.22302,38.854931],[16.188618,38.754855],[16.138638,38.719317],[15.986738,38.723229],[15.949155,38.691789],[15.871949,38.673399],[15.835933,38.645458],[15.826978,38.618388],[15.931636,38.545432],[15.892866,38.446118],[15.911065,38.471701],[15.918362,38.472592],[15.836694,38.364158],[15.829208,38.323516],[15.796589,38.281459],[15.635521,38.231775],[15.633982,38.18726],[15.656654,38.135908],[15.63091,38.090852],[15.657387,38.040197],[15.635187,38.013337],[15.677848,37.95378],[15.764013,37.916127],[16.064339,37.924421],[16.144465,38.030727],[16.163773,38.134201],[16.288121,38.259731],[16.337974,38.301758],[16.473926,38.344677],[16.5715,38.426768],[16.583055,38.459283],[16.55877,38.681728],[16.534908,38.713521],[16.604766,38.812723],[16.777702,38.896541],[16.902159,38.930179],[16.983949,38.937721],[17.021824,38.905552],[17.055091,38.918777],[17.089053,38.910128],[17.096153,38.893252],[17.16952,38.952788],[17.164884,38.994856],[17.206802,39.025552],[17.1466,39.047245],[17.13675,39.084286],[17.108455,39.104022],[17.147328,39.205824],[17.105625,39.254002],[17.109894,39.309171],[17.154918,39.400926],[17.052838,39.438926],[17.022556,39.48367],[16.870742,39.536176],[16.77414,39.619283],[16.619712,39.621161],[16.528326,39.669507],[16.523438,39.659598],[16.528422,39.724194],[16.487925,39.759651],[16.502339,39.826035],[16.627701,39.957053],[16.599889,40.036571],[16.607015,40.080954],[16.688956,40.148064],[16.786245,40.304263],[16.901821,40.435884],[16.990852,40.494195],[17.067642,40.518075],[17.154429,40.508851],[17.144623,40.494374],[17.163055,40.504669],[17.15501,40.496138],[17.180233,40.495366],[17.194323,40.471491],[17.255111,40.500864],[17.27043,40.479069],[17.314006,40.499653],[17.324108,40.479803],[17.299312,40.468459],[17.226374,40.479447],[17.255026,40.441646],[17.202646,40.408149],[17.394758,40.332042],[17.447782,40.328146],[17.509246,40.293888],[17.735099,40.303953],[17.866578,40.282677],[17.907756,40.251884],[17.909774,40.241724],[17.895617,40.249442],[17.925815,40.219421],[17.925357,40.183388],[18.00967,40.109608],[18.001797,40.06783],[17.971598,40.054199],[18.016288,40.034814],[18.017026,40.006287],[17.994126,39.996147],[18.046409,39.929037],[18.169482,39.852235],[18.270553,39.833775],[18.345361,39.789696],[18.390931,39.816756],[18.407552,39.9748],[18.435069,40.023636],[18.47536,40.043908],[18.484785,40.079661],[18.520891,40.106189],[18.507466,40.125175],[18.517514,40.134818],[18.488001,40.147861],[18.42407,40.293949],[18.233017,40.448905],[18.127889,40.492302],[18.045059,40.554704],[18.034628,40.570426],[18.045165,40.597853],[18.014638,40.614825],[18.018397,40.641432],[17.973489,40.651217],[17.949669,40.633032],[17.930882,40.640733],[17.987568,40.663485],[17.958498,40.661083],[17.936404,40.686242],[17.839067,40.691209],[17.707291,40.758926],[17.473057,40.831838],[17.350277,40.905987],[17.305512,40.956093],[17.099387,41.062036],[16.880707,41.122122],[16.874764,41.125015],[16.879481,41.127093],[16.86774,41.1432],[16.848453,41.147952],[16.870152,41.13939],[16.853726,41.129052],[16.85332,41.142135],[16.811514,41.140263],[16.583853,41.207577],[16.450605,41.261213],[16.424096,41.285581],[16.289879,41.332709],[16.256565,41.330119],[15.961607,41.457425],[15.918073,41.503062],[15.888114,41.567577],[15.901141,41.616303],[15.93552,41.635304],[15.95077,41.612688],[15.942778,41.641198],[16.036924,41.677786],[16.189809,41.774664],[16.20214,41.815619],[16.17513,41.859665],[16.186439,41.883054],[16.153141,41.90857],[16.072041,41.945832],[16.0104,41.950551],[15.772151,41.91742],[15.685736,41.913928],[15.620103,41.929086],[15.41971,41.900158],[15.339798,41.917789],[15.148816,41.923896],[15.067972,41.945172],[15.001164,41.992942],[15.006379,42.005869],[14.889472,42.024047],[14.739521,42.086216],[14.718016,42.105973],[14.712318,42.179938],[14.6179,42.199812],[14.511416,42.250032],[14.502406,42.272436],[14.42654,42.32552],[14.411149,42.348062],[14.421337,42.354313],[14.199432,42.482736],[14.064937,42.614376],[13.946783,42.796059],[13.844447,43.099329],[13.624531,43.498886],[13.628343,43.548669],[13.573641,43.570079],[13.553811,43.602256],[13.507833,43.630173],[13.480814,43.607124],[13.452391,43.611248],[13.283653,43.680065],[12.907369,43.925288],[12.685974,43.987476],[12.574864,44.078473],[12.563351,44.074687],[12.55834,44.068926],[12.555089,44.067951],[12.56191,44.075516],[12.392144,44.212464],[12.359891,44.263252],[12.289004,44.461136],[12.279096,44.617609],[12.239655,44.695451],[12.249337,44.764407],[12.286145,44.816748],[12.280506,44.816579],[12.268934,44.80447],[12.261286,44.802395],[12.276785,44.81712],[12.259597,44.814875],[12.292693,44.847098],[12.389021,44.787324],[12.326115,44.796281],[12.354578,44.786167],[12.333191,44.787428],[12.38367,44.783579],[12.407707,44.796992],[12.314195,44.903271],[12.322475,44.933516],[12.259875,44.963663],[12.230704,45.006389],[12.198344,45.01371],[12.170642,45.026436],[12.126102,45.015096],[12.074651,45.017276],[12.080966,45.0],[12.065393,45.014258],[12.075605,45.019474],[12.098285,45.023671],[12.173882,45.028248],[12.242076,45.008907],[12.262707,44.969106],[12.28922,44.955386],[12.442059,44.954831],[12.491439,44.966323],[12.497895,44.971159],[12.502929,44.988742],[12.4945,44.97298],[12.470268,44.979035],[12.44275,45.006047],[12.446172,44.996129],[12.436153,44.987379],[12.425643,45.003615],[12.443089,45.010779],[12.419005,45.013407],[12.411552,45.021309],[12.412455,45.030388],[12.431496,45.015692],[12.419631,45.014127],[12.437361,45.013815],[12.428589,45.019178],[12.423784,45.026462],[12.444295,45.011823],[12.41055,45.03665],[12.39555,45.019727],[12.412559,45.009077],[12.375106,45.012594],[12.35969,45.022134],[12.38712,45.026951],[12.388989,45.043087],[12.363738,45.050275],[12.349662,45.082396],[12.327404,45.089195],[12.345224,45.062394],[12.330432,45.061229],[12.261452,45.094361],[12.269795,45.113806],[12.301572,45.120675],[12.294868,45.139292],[12.31254,45.136289],[12.333073,45.091948],[12.329677,45.153976],[12.320172,45.149385],[12.329873,45.167535],[12.31515,45.182493],[12.219738,45.192257],[12.232402,45.207016],[12.21766,45.21877],[12.22703,45.225212],[12.21029,45.225253],[12.221007,45.245975],[12.231001,45.237564],[12.218135,45.273008],[12.202746,45.277602],[12.202833,45.259951],[12.18454,45.254559],[12.155669,45.259075],[12.154982,45.287257],[12.13265,45.297259],[12.15741,45.300713],[12.162735,45.315995],[12.183595,45.307778],[12.178664,45.319656],[12.200153,45.336122],[12.186163,45.350276],[12.195954,45.364012],[12.151054,45.364837],[12.160421,45.371494],[12.145159,45.384824],[12.190568,45.367895],[12.175653,45.385719],[12.204353,45.389103],[12.20232,45.414695],[12.217196,45.417804],[12.212422,45.406894],[12.220387,45.401519],[12.259129,45.414587],[12.256414,45.433722],[12.216954,45.437096],[12.25814,45.434752],[12.233459,45.457232],[12.256291,45.449288],[12.252105,45.465438],[12.275133,45.451459],[12.284534,45.473925],[12.333931,45.497556],[12.332916,45.48513],[12.345807,45.488603],[12.363747,45.511525],[12.41987,45.483178],[12.384388,45.508281],[12.396211,45.531387],[12.40956,45.527344],[12.405992,45.511868],[12.432515,45.519274],[12.431905,45.498589],[12.438502,45.498197],[12.440486,45.532363],[12.482498,45.54692],[12.486231,45.562166],[12.476242,45.560091],[12.473676,45.56129],[12.493169,45.566386],[12.538827,45.57455],[12.547745,45.552509],[12.562458,45.563454],[12.588915,45.54562],[12.541155,45.509667],[12.60514,45.538282],[12.633037,45.527857],[12.625424,45.513685],[12.600779,45.520891],[12.574219,45.503587],[12.570707,45.519484],[12.573782,45.493346],[12.485659,45.465286],[12.494827,45.472759],[12.477188,45.475935],[12.502653,45.478567],[12.531747,45.486983],[12.492072,45.481591],[12.516178,45.493954],[12.486451,45.498795],[12.423909,45.44748],[12.421638,45.434242],[12.436401,45.422436],[12.477221,45.448844],[12.73962,45.532388],[12.911018,45.615243],[12.894009,45.626338],[12.908913,45.638379],[12.918898,45.640771],[12.905406,45.648749],[12.910409,45.660664],[12.900655,45.66292],[12.892604,45.672763],[12.881389,45.672742],[12.874235,45.679719],[12.89502,45.674354],[12.912645,45.659695],[12.920864,45.640697],[12.896641,45.625764],[12.914911,45.613215],[12.969157,45.62346],[12.983035,45.629328],[12.97224,45.62651],[12.975274,45.655324],[12.97989,45.658087],[12.967333,45.660467],[12.966519,45.663429],[12.980991,45.659023],[12.976167,45.644023],[12.995026,45.636298],[12.981547,45.625938],[13.098776,45.635476],[13.098142,45.643458],[13.08423,45.651934],[13.08162,45.658957],[13.1024,45.645786],[13.153024,45.698012],[13.107171,45.686142],[13.077811,45.691497],[13.070161,45.712746],[13.093515,45.731952],[13.122303,45.728003],[13.108763,45.74382],[13.117234,45.759695],[13.140465,45.744986],[13.155672,45.752684],[13.149836,45.740792],[13.183442,45.772576],[13.219348,45.772013],[13.239313,45.752532],[13.247106,45.777642],[13.232535,45.790859],[13.22539,45.808914],[13.247872,45.778857],[13.240453,45.752721],[13.380515,45.727495],[13.365245,45.709209],[13.381897,45.708661],[13.385914,45.682891],[13.373699,45.680567],[13.386695,45.674137],[13.434105,45.67496],[13.470972,45.703446],[13.455763,45.706419],[13.443476,45.718769],[13.429037,45.714067],[13.417039,45.720342],[13.425409,45.713774],[13.408222,45.698095],[13.429648,45.710925],[13.431735,45.693024],[13.388421,45.68204],[13.386502,45.724754],[13.443884,45.719708],[13.473008,45.703707],[13.552317,45.724475],[13.52511,45.734364],[13.474381,45.769417],[13.528152,45.733914],[13.554529,45.727394],[13.526566,45.736338],[13.526456,45.749051],[13.505797,45.754227],[13.498673,45.763826],[13.522276,45.752895],[13.544729,45.795251],[13.560469,45.777786],[13.629911,45.770499],[13.752495,45.680007],[13.768551,45.652912],[13.744157,45.638877],[13.806352,45.61075],[13.784328,45.598804],[13.719289,45.605872],[13.722663,45.592696],[13.704188,45.588947],[13.746685,45.558769],[13.719339,45.543104],[13.563342,45.530318],[13.618731,45.487186],[13.614506,45.46549],[13.510911,45.505502],[13.489938,45.486205],[13.510149,45.473463],[13.50797,45.441001],[13.523862,45.437642],[13.515356,45.416419],[13.554972,45.358579],[13.537974,45.352529],[13.539703,45.327777],[13.613778,45.313059],[13.568354,45.297937],[13.600783,45.284794],[13.572877,45.26432],[13.599927,45.242957],[13.588267,45.228043],[13.597845,45.204368],[13.579504,45.197886],[13.603415,45.179811],[13.58825,45.174858],[13.608782,45.159183],[13.596692,45.140378],[13.612431,45.130372],[13.708017,45.137763],[13.726921,45.135015],[13.733439,45.131603],[13.621849,45.127661],[13.606814,45.115806],[13.640575,45.095634],[13.628955,45.063055],[13.688265,45.050529],[13.690026,45.023242],[13.714364,45.021309],[13.735185,44.985492],[13.761062,44.985654],[13.813167,44.907855],[13.794529,44.88953],[13.817553,44.875319],[13.848211,44.883201],[13.834395,44.864188],[13.794788,44.87594],[13.796942,44.862581],[13.825949,44.857229],[13.831572,44.833252],[13.841485,44.843139],[13.860543,44.832823],[13.846073,44.825422],[13.873698,44.820631],[13.86166,44.812107],[13.873264,44.804488],[13.901204,44.80771],[13.907843,44.768342],[13.927416,44.768815],[13.913419,44.775272],[13.924521,44.803458],[13.884825,44.823954],[13.923796,44.825243],[13.92983,44.802846],[13.932828,44.813288],[14.003976,44.80514],[13.97663,44.819337],[14.00358,44.881552],[13.981257,44.901979],[13.996983,44.891874],[14.023914,44.901947],[14.02676,44.925056],[14.03832,44.916824],[14.050187,44.937007],[14.032746,44.952641],[14.053302,44.947433],[14.076537,44.978289],[14.037642,45.0],[14.039459,45.030643],[14.098734,44.972304],[14.07239,44.969054],[14.064639,44.94478],[14.108565,44.97064],[14.148115,44.956684],[14.169844,44.978883],[14.160705,45.033113],[14.143071,45.052084],[14.162815,45.041154],[14.152452,45.078395],[14.166264,45.072413],[14.197768,45.105928],[14.178421,45.132657],[14.207959,45.116145],[14.224867,45.13731],[14.281406,45.305174],[14.326324,45.355571],[14.557935,45.280135],[14.543256,45.305388],[14.579491,45.284615],[14.563187,45.264845],[14.611659,45.232487],[14.611068,45.218224],[14.741746,45.137595],[14.845893,45.11409],[14.846418,45.087531],[14.927034,44.951888],[14.884076,44.857919],[14.87906,44.790875],[14.898426,44.738972],[14.888728,44.717231],[14.985615,44.576685],[15.099678,44.511345],[15.284246,44.361405],[15.40781,44.316856],[15.479113,44.268509],[15.526318,44.268788],[15.537827,44.259303],[15.522413,44.248149],[15.529101,44.226449],[15.589506,44.207157],[15.599791,44.169298],[15.606621,44.168276],[15.630159,44.145964],[15.629908,44.137759],[15.612528,44.131596],[15.605345,44.166142],[15.597978,44.169283],[15.592596,44.178956],[15.568823,44.189808],[15.524288,44.176192],[15.472195,44.203135],[15.536286,44.219344],[15.525891,44.226089],[15.52119,44.245066],[15.400942,44.258399],[15.276453,44.332565],[15.259607,44.324015],[15.307494,44.285567],[15.281604,44.279293],[15.299181,44.24825],[15.192871,44.298804],[15.21565,44.284441],[15.191077,44.282285],[15.213451,44.256958],[15.203041,44.247038],[15.17802,44.242759],[15.145661,44.277823],[15.12821,44.277426],[15.111859,44.259874],[15.166114,44.226687],[15.142872,44.194388],[15.210546,44.145406],[15.203605,44.131029],[15.22533,44.124988],[15.226388,44.110238],[15.276155,44.084406],[15.283102,44.060839],[15.310398,44.051162],[15.298887,44.043679],[15.342521,44.030929],[15.455633,43.922351],[15.525409,43.898163],[15.559519,43.859257],[15.574834,43.86654],[15.588391,43.848258],[15.676857,43.814601],[15.681956,43.803718],[15.680368,43.797745],[15.615732,43.823503],[15.639878,43.799967],[15.628117,43.794382],[15.597157,43.835258],[15.588297,43.822245],[15.56527,43.833292],[15.621528,43.774947],[15.667205,43.764388],[15.643475,43.797811],[15.658244,43.799355],[15.694621,43.764318],[15.781991,43.757102],[15.85071,43.720654],[15.856173,43.72799],[15.879359,43.729278],[15.826548,43.782888],[15.844103,43.777195],[15.847893,43.789529],[15.86163,43.790438],[15.857039,43.814325],[15.833035,43.834951],[15.833081,43.840027],[15.89418,43.808324],[15.910087,43.807371],[15.918672,43.814702],[15.941761,43.821796],[15.948406,43.820233],[15.954128,43.811667],[15.941106,43.820819],[15.91403,43.806535],[15.883965,43.807258],[15.897097,43.790349],[15.85146,43.788813],[15.843174,43.774584],[15.903063,43.721449],[15.859004,43.723987],[15.863725,43.706768],[15.925641,43.671349],[15.930023,43.674734],[15.943908,43.67353],[15.942593,43.692847],[15.957536,43.685094],[15.945619,43.671905],[15.92848,43.670631],[15.949978,43.640589],[15.927439,43.654834],[15.902452,43.647829],[15.973145,43.630558],[15.911824,43.627954],[15.926044,43.612032],[15.919712,43.584332],[15.931664,43.585813],[15.917774,43.570125],[15.942487,43.57013],[15.926974,43.550917],[15.959336,43.539294],[15.961144,43.521783],[15.971701,43.539428],[15.989281,43.538505],[15.987427,43.518307],[15.952284,43.518529],[15.962421,43.509473],[15.951137,43.504936],[16.114105,43.470795],[16.128952,43.477764],[16.112324,43.487851],[16.177529,43.491977],[16.118565,43.517429],[16.182901,43.506758],[16.224944,43.517423],[16.260161,43.497166],[16.205259,43.497988],[16.209591,43.487914],[16.349494,43.481125],[16.392843,43.48898],[16.253217,43.517221],[16.357455,43.551366],[16.470549,43.536242],[16.387207,43.507578],[16.531721,43.503712],[16.639418,43.437034],[16.688206,43.44353],[16.75072,43.407332],[16.887884,43.39999],[17.053482,43.269586],[17.077687,43.23341],[17.106823,43.226781],[17.112429,43.207526],[17.335928,43.111499],[17.408342,43.039807],[17.423875,43.062477],[17.43557,43.052201],[17.423702,43.030694],[17.46447,43.050897],[17.473109,43.048174],[17.425897,43.029096],[17.458331,43.036827],[17.445403,43.020379],[17.475856,43.036972],[17.500531,43.04346],[17.518415,43.04545],[17.54914,43.036775],[17.577173,43.018136],[17.59184,43.026508],[17.611706,43.031562],[17.625507,43.048711],[17.635052,43.053925],[17.650644,43.055216],[17.662916,43.051022],[17.670598,43.054319],[17.695631,43.055873],[17.699799,43.061811],[17.707725,43.066989],[17.697875,43.073835],[17.701597,43.084733],[17.708673,43.066406],[17.695965,43.053611],[17.662493,43.0503],[17.642045,43.054401],[17.630177,43.051206],[17.612215,43.030971],[17.577173,43.01702],[17.518052,43.044334],[17.476249,43.03585],[17.44565,43.019012],[17.460545,43.023999],[17.465356,43.001907],[17.478953,43.001315],[17.472574,42.988081],[17.516106,42.952129],[17.575936,42.942229],[17.624196,42.914105],[17.554813,42.930493],[17.694896,42.867145],[17.708922,42.882735],[17.717024,42.876324],[17.69564,42.859797],[17.74396,42.8338],[17.526036,42.924207],[17.53182,42.90367],[17.469862,42.915335],[17.444206,42.952001],[17.302809,43.002365],[17.169412,43.025023],[17.076877,43.020123],[17.000641,43.04672],[17.034807,43.025062],[17.010558,43.00457],[17.135102,42.97464],[17.217707,42.980785],[17.363482,42.912891],[17.419445,42.910596],[17.453932,42.891877],[17.430827,42.875129],[17.445997,42.867727],[17.743091,42.796117],[17.760977,42.760759],[17.771168,42.775613],[17.747831,42.802841],[17.692004,42.833359],[17.780384,42.787397],[17.795911,42.806824],[17.8434,42.803738],[17.865045,42.776321],[17.887497,42.787028],[17.873546,42.773378],[17.882112,42.758382],[18.007432,42.694363],[18.04497,42.684266],[18.044744,42.700998],[18.070319,42.669829],[18.098386,42.673754],[18.122462,42.671465],[18.057469,42.659078],[18.180673,42.61444],[18.207813,42.621064],[18.229232,42.59971],[18.208635,42.581659],[18.233697,42.558405],[18.41992,42.46425],[18.425315,42.455295],[18.409188,42.458361],[18.430246,42.440825],[18.430138,42.45191],[18.456215,42.44807],[18.525788,42.393145],[18.511259,42.407802],[18.529908,42.422809],[18.506132,42.445438],[18.515173,42.458245],[18.599574,42.432522],[18.652884,42.446534],[18.687914,42.479196],[18.65232,42.494645],[18.688364,42.516799],[18.699463,42.484685],[18.764013,42.488801],[18.770737,42.422495],[18.735199,42.465297],[18.686444,42.47333],[18.685491,42.438915],[18.711995,42.416705],[18.701601,42.405602],[18.711559,42.391927],[18.577386,42.432005],[18.546991,42.41364],[18.608851,42.363968],[18.654377,42.362761],[18.653646,42.382357],[18.683909,42.385035],[18.706983,42.322299],[18.776381,42.267887],[18.810678,42.284545],[18.888209,42.274803],[18.905427,42.220037],[18.966458,42.192499],[18.964312,42.174793],[19.001915,42.159037],[19.011601,42.133345],[19.059366,42.134714],[19.091532,42.098142],[19.072514,42.084613],[19.142204,42.042452],[19.15238,41.982535],[19.138308,41.975394],[19.165508,41.952389],[19.150784,41.948439],[19.316508,41.885055],[19.364822,41.847941],[19.371955,41.850623],[19.370328,41.873695],[19.380861,41.88446],[19.368551,41.88741],[19.364135,41.897571],[19.351855,41.899761],[19.342821,41.904124],[19.341412,41.90605],[19.343744,41.91375],[19.371088,41.922959],[19.348925,41.941676],[19.35015,41.95675],[19.357114,41.960494],[19.38255,41.961774],[19.387335,41.965579],[19.375685,41.974133],[19.375635,41.978324],[19.381436,41.995433],[19.396727,42.007362],[19.411823,42.009126],[19.416293,42.007149],[19.422328,41.997605],[19.413306,41.9893],[19.427942,41.982658],[19.440115,41.999175],[19.463454,42.009847],[19.428259,41.981453],[19.412465,41.988223],[19.414773,42.00646],[19.385349,41.997912],[19.376709,41.975846],[19.388685,41.96517],[19.383476,41.961085],[19.355201,41.958675],[19.351023,41.954737],[19.372182,41.922714],[19.342769,41.906179],[19.364467,41.899517],[19.381966,41.886155],[19.379419,41.847308],[19.445018,41.86025],[19.438792,41.883029],[19.463706,41.868724],[19.456418,41.860223],[19.597325,41.809878],[19.59431,41.762574],[19.616036,41.797006],[19.608389,41.761256],[19.571687,41.749512],[19.59895,41.751367],[19.575182,41.742548],[19.572397,41.630308],[19.588373,41.648233],[19.608436,41.624715],[19.599263,41.610652],[19.591377,41.631323],[19.568288,41.587786],[19.531201,41.569587],[19.444365,41.587648],[19.462386,41.55515],[19.510523,41.536645],[19.516139,41.501982],[19.498448,41.466825],[19.447943,41.43495],[19.440852,41.413086],[19.448725,41.431442],[19.456872,41.41944],[19.447879,41.42695],[19.444332,41.403259],[19.418636,41.397351],[19.405256,41.409581],[19.392097,41.413205],[19.391053,41.407715],[19.422458,41.382535],[19.422046,41.324055],[19.452724,41.302211],[19.455037,41.314208],[19.485972,41.308594],[19.519797,41.253038],[19.469036,41.157235],[19.436809,41.145838],[19.456695,41.098075],[19.439074,40.999371],[19.465142,40.996741],[19.476916,40.969389],[19.413334,40.918342],[19.394492,40.848187],[19.370929,40.82515],[19.367238,40.718027],[19.312445,40.654939],[19.315429,40.644476],[19.337186,40.661726],[19.348553,40.665722],[19.390477,40.655758],[19.396239,40.653199],[19.399249,40.649478],[19.346812,40.664341],[19.318737,40.641233],[19.376784,40.576968],[19.364857,40.583208],[19.401096,40.502372],[19.493675,40.446553],[19.477651,40.399482],[19.484934,40.347467],[19.42153,40.321317],[19.405453,40.376281],[19.379043,40.406597],[19.320112,40.438929],[19.288451,40.420001],[19.365858,40.346186],[19.372792,40.305674],[19.467267,40.217262],[19.650617,40.128377],[19.752377,40.097762],[19.749537,40.079942],[19.765534,40.080392],[19.776511,40.056808],[19.778075,40.071162],[19.790872,40.06718],[19.794814,40.046486],[19.837003,40.050653],[19.865012,40.035451],[19.936806,39.941285],[19.914034,39.900469],[19.953748,39.896265],[20.019387,39.858588],[20.013213,39.818573],[19.993346,39.798709],[20.007028,39.779986],[19.972829,39.753739],[19.999052,39.750158],[19.985762,39.743291],[19.998364,39.740045],[19.982257,39.689476],[20.060349,39.682809],[20.101332,39.650271],[20.113412,39.659427],[20.186693,39.624286],[20.17184,39.593884],[20.142063,39.591526],[20.172821,39.581772],[20.137422,39.528927],[20.166644,39.536136],[20.200299,39.519433],[20.155854,39.522728],[20.173569,39.512381],[20.26101,39.508671],[20.257087,39.484133],[20.212516,39.491361],[20.273794,39.445611],[20.206533,39.449145],[20.239045,39.408037],[20.230826,39.40114],[20.281466,39.378542],[20.287978,39.323827],[20.340395,39.283172],[20.478155,39.274972],[20.473702,39.219606],[20.700281,39.054838],[20.715628,39.016042],[20.699343,38.997633],[20.72666,38.949525],[20.757388,38.95042],[20.75212,38.973844],[20.758123,38.982092],[20.831314,38.959799],[20.755362,39.006033],[20.760909,39.033874],[20.797429,39.061049],[20.817504,39.057916],[20.830713,39.034254],[20.897993,39.030673],[20.915692,39.005278],[20.922577,39.003969],[20.959984,39.036551],[20.976575,39.016119],[21.002311,39.014099],[20.986916,39.006818],[20.969918,39.020292],[20.985817,39.006534],[21.010435,39.012276],[21.01014,39.02062],[21.012226,39.011316],[21.038425,39.003732],[21.020879,39.01014],[21.034913,39.021379],[21.070971,39.008112],[21.045834,39.018317],[21.063659,39.01305],[21.076172,39.013286],[21.04979,39.018558],[21.061673,39.033879],[21.047701,39.0375],[21.059365,39.050158],[21.076113,39.023263],[21.082704,39.05392],[21.124263,39.031445],[21.153844,38.9908],[21.139304,38.922603],[21.166149,38.90522],[21.173853,38.866539],[21.150258,38.893334],[21.098905,38.91317],[21.07928,38.86339],[21.019693,38.897153],[21.024875,38.928623],[20.99158,38.915788],[20.979003,38.944842],[20.943754,38.932609],[20.919572,38.948238],[20.907537,38.922478],[20.88762,38.921095],[20.864236,38.933633],[20.875165,38.936154],[20.863082,38.957251],[20.839281,38.920692],[20.800876,38.918596],[20.765099,38.957526],[20.75393,38.905562],[20.801023,38.868157],[20.739385,38.852451],[20.727944,38.814361],[20.729572,38.793105],[20.749905,38.789222],[20.773081,38.753976],[20.805527,38.759583],[20.84847,38.794525],[20.873551,38.793267],[20.914478,38.673064],[20.98747,38.66973],[20.98921,38.645158],[21.020246,38.609867],[21.008589,38.533656],[21.027228,38.502407],[21.096591,38.53139],[21.083626,38.492857],[21.09817,38.488111],[21.07303,38.483365],[21.104294,38.477166],[21.091828,38.466261],[21.117727,38.438316],[21.114137,38.419296],[21.155154,38.41251],[21.123664,38.41544],[21.125273,38.384946],[21.104453,38.369163],[21.097134,38.382976],[21.101267,38.335019],[21.109025,38.349839],[21.106598,38.336293],[21.132772,38.334717],[21.160313,38.298301],[21.313543,38.305575],[21.212206,38.313419],[21.267712,38.349496],[21.269435,38.338606],[21.289315,38.339337],[21.268878,38.361148],[21.342065,38.385064],[21.348628,38.435537],[21.300743,38.48185],[21.318176,38.498914],[21.363787,38.447405],[21.34955,38.412807],[21.37404,38.416016],[21.421219,38.381815],[21.411424,38.36708],[21.410639,38.327515],[21.418526,38.362199],[21.46647,38.366827],[21.466668,38.352589],[21.483585,38.353092],[21.471998,38.341877],[21.486316,38.303302],[21.445593,38.326884],[21.455333,38.335613],[21.417215,38.325919],[21.480438,38.299139],[21.505125,38.300934],[21.503657,38.290509],[21.588334,38.343683],[21.638993,38.35719],[21.766085,38.327044],[21.787076,38.374163],[21.832302,38.392485],[21.883424,38.368056],[21.935115,38.40682],[22.004181,38.389414],[22.051273,38.394585],[22.15788,38.348667],[22.183629,38.320312],[22.249568,38.362097],[22.285366,38.338102],[22.297994,38.355302],[22.358449,38.348338],[22.377746,38.332307],[22.395457,38.347862],[22.379453,38.347913],[22.383802,38.363725],[22.402717,38.363668],[22.373142,38.391244],[22.416684,38.411871],[22.398755,38.431976],[22.40386,38.449352],[22.419186,38.431311],[22.455678,38.426608],[22.53728,38.343869],[22.518209,38.328775],[22.551469,38.28167],[22.583696,38.278363],[22.588686,38.304709],[22.608147,38.316538],[22.586437,38.325257],[22.594569,38.352414],[22.620787,38.363508],[22.636436,38.348803],[22.648069,38.366217],[22.62801,38.374023],[22.659008,38.385531],[22.684901,38.364622],[22.689278,38.348577],[22.673465,38.344161],[22.693219,38.31673],[22.797103,38.27578],[22.762242,38.24546],[22.778306,38.232701],[22.881544,38.221905],[22.891827,38.236302],[22.905927,38.182651],[22.913301,38.194962],[22.967676,38.188663],[22.944112,38.208092],[22.921622,38.198996],[22.925079,38.217162],[23.023479,38.213866],[23.051306,38.19517],[23.02843,38.179172],[23.068018,38.169884],[23.112005,38.206962],[23.14269,38.182605],[23.123963,38.16364],[23.224015,38.153586],[23.174853,38.142603],[23.178967,38.125801],[23.217114,38.116115],[23.215462,38.09949],[23.143044,38.065453],[23.024555,38.054438],[22.956809,38.079638],[22.884928,38.053171],[22.848739,38.028084],[22.912555,38.016092],[22.976466,37.976393],[22.95017,37.94302],[22.872614,37.933218],[22.796418,37.967345],[22.725375,38.035941],[22.63924,38.078123],[22.491741,38.135943],[22.389711,38.136131],[22.351939,38.15154],[22.33515,38.176898],[22.216535,38.179947],[22.148438,38.21875],[22.109142,38.265799],[22.077432,38.254266],[22.02714,38.285293],[22.01845,38.310079],[21.849257,38.339173],[21.825125,38.316635],[21.779714,38.313251],[21.671731,38.168012],[21.606273,38.143212],[21.533087,38.154634],[21.45214,38.198485],[21.410107,38.190885],[21.391545,38.215596],[21.372082,38.21672],[21.367487,38.125265],[21.299692,38.020682],[21.307438,38.003176],[21.277638,37.991933],[21.285045,38.008294],[21.255759,37.968548],[21.194205,37.931943],[21.126283,37.937215],[21.105428,37.848336],[21.227716,37.810128],[21.297303,37.766006],[21.320295,37.702843],[21.301268,37.678839],[21.30936,37.63273],[21.325249,37.660843],[21.371076,37.660085],[21.523339,37.57486],[21.620147,37.48462],[21.664993,37.412068],[21.696372,37.334821],[21.693528,37.293225],[21.67091,37.257145],[21.588176,37.207155],[21.565683,37.159212],[21.581601,37.091408],[21.573717,37.059002],[21.642034,37.003321],[21.657069,36.950343],[21.710409,36.942586],[21.679335,36.888363],[21.704301,36.811007],[21.760472,36.785252],[21.768739,36.798411],[21.821825,36.803175],[21.878137,36.717668],[21.933793,36.757561],[21.936716,36.780947],[21.96839,36.793517],[21.93934,36.807192],[21.921762,36.863933],[21.932389,36.984023],[22.049874,37.027314],[22.151793,37.01608],[22.145986,36.937681],[22.125143,36.914471],[22.169994,36.889446],[22.201865,36.904302],[22.226349,36.892952],[22.257287,36.839363],[22.296185,36.81379],[22.300569,36.770212],[22.313204,36.769654],[22.348784,36.697117],[22.388572,36.693779],[22.360412,36.667783],[22.382385,36.645904],[22.362267,36.63892],[22.37572,36.617889],[22.362863,36.605881],[22.386664,36.591928],[22.371052,36.576583],[22.385981,36.574686],[22.390879,36.541055],[22.363591,36.546262],[22.347195,36.512189],[22.369622,36.476464],[22.392487,36.466042],[22.399983,36.481145],[22.458093,36.451959],[22.482586,36.385088],[22.501295,36.401524],[22.482059,36.432871],[22.501333,36.441355],[22.504375,36.486514],[22.473216,36.527201],[22.476765,36.613698],[22.496689,36.619218],[22.510189,36.602182],[22.529172,36.61638],[22.5,36.660714],[22.527403,36.6653],[22.539759,36.647324],[22.554706,36.656929],[22.521451,36.681812],[22.522726,36.709338],[22.576621,36.733369],[22.565128,36.775146],[22.624412,36.805449],[22.782816,36.798522],[22.820633,36.713012],[22.805683,36.672387],[22.821917,36.654456],[22.831687,36.688823],[22.870312,36.664187],[22.884155,36.639323],[22.868969,36.628882],[22.937082,36.583567],[22.936617,36.560816],[22.968433,36.519094],[23.022232,36.52843],[23.056409,36.511526],[23.086021,36.43919],[23.131132,36.427528],[23.144951,36.441095],[23.201702,36.440149],[23.195755,36.460328],[23.130096,36.498299],[23.153509,36.535814],[23.067513,36.585695],[23.032385,36.625836],[23.027015,36.662147],[23.038834,36.685355],[23.05956,36.689871],[23.034546,36.69041],[23.025839,36.727138],[23.057428,36.74506],[23.08654,36.728794],[23.084635,36.759357],[23.110858,36.773991],[23.087297,36.784154],[23.090176,36.819242],[23.038853,36.858168],[23.051609,36.861834],[23.012705,36.937858],[23.011859,36.970112],[22.992157,36.972972],[23.007262,36.984817],[23.005296,37.024023],[22.964453,37.070152],[22.983166,37.07082],[22.984521,37.084628],[22.962502,37.089422],[22.955063,37.118536],[22.918122,37.108127],[22.897253,37.119553],[22.912304,37.188997],[22.854825,37.25591],[22.862774,37.270035],[22.839458,37.278414],[22.817063,37.33742],[22.752615,37.393828],[22.771885,37.423706],[22.727849,37.485909],[22.739714,37.516495],[22.717304,37.562618],[22.776952,37.59051],[22.821984,37.544429],[22.819963,37.527796],[22.852042,37.512441],[22.896099,37.532616],[22.928596,37.523192],[22.916655,37.534407],[22.929176,37.534953],[22.937099,37.519716],[22.980543,37.51383],[23.001927,37.459957],[23.042405,37.480964],[23.056261,37.450679],[23.12112,37.450788],[23.142911,37.415013],[23.111129,37.422271],[23.101221,37.390641],[23.063289,37.392099],[23.066099,37.352451],[23.111406,37.350345],[23.138404,37.327506],[23.110418,37.333169],[23.127047,37.313628],[23.153555,37.325339],[23.13623,37.307918],[23.173821,37.284943],[23.200159,37.29124],[23.180227,37.322173],[23.191085,37.339703],[23.276862,37.346281],[23.224708,37.375983],[23.260458,37.383709],[23.247697,37.387843],[23.2679,37.405825],[23.309509,37.393172],[23.338305,37.414004],[23.410398,37.403802],[23.524404,37.43649],[23.477298,37.485877],[23.391597,37.509417],[23.418371,37.530586],[23.365594,37.559034],[23.386315,37.56017],[23.407211,37.592015],[23.414508,37.618479],[23.397761,37.637632],[23.344286,37.636528],[23.307504,37.617401],[23.367147,37.553169],[23.332504,37.532314],[23.158739,37.617188],[23.170382,37.651044],[23.150744,37.674782],[23.177814,37.717078],[23.118387,37.731069],[23.129179,37.734425],[23.117561,37.755718],[23.179091,37.776728],[23.179095,37.80346],[23.114189,37.847612],[23.005522,37.848376],[22.992129,37.879875],[23.017577,37.899445],[23.012788,37.921581],[23.131927,37.919392],[23.166888,37.948709],[23.24266,37.975585],[23.420506,37.96875],[23.387817,37.98001],[23.451216,38.023463],[23.520386,38.043651],[23.541809,38.030793],[23.568398,38.046899],[23.602671,38.022409],[23.552402,37.979789],[23.554959,37.95815],[23.608962,37.958958],[23.59742,37.949183],[23.621531,37.938545],[23.641471,37.948017],[23.622092,37.93471],[23.631473,37.92612],[23.687871,37.937851],[23.681032,37.92909],[23.750465,37.85772],[23.739466,37.848249],[23.769584,37.834691],[23.755989,37.813157],[23.772956,37.810173],[23.770798,37.797254],[23.778379,37.812746],[23.787644,37.796398],[23.806188,37.819649],[23.836152,37.818001],[23.900396,37.774789],[23.909946,37.719771],[23.946258,37.720884],[23.940368,37.670231],[24.030694,37.648193],[24.053262,37.678478],[24.067993,37.675554],[24.054314,37.733952],[24.08225,37.744132],[24.086902,37.778306],[24.085439,37.797258],[24.046468,37.822408],[24.060819,37.827717],[24.044976,37.874553],[24.024269,37.870284],[24.009125,37.888655],[24.04701,37.901507],[24.029659,37.923949],[24.002782,37.925637],[24.018066,37.942987],[24.010003,37.980067],[24.031836,37.992052],[24.00029,38.033078],[24.003546,38.066672],[23.980636,38.097015],[24.026553,38.138612],[24.052344,38.141936],[24.057558,38.12113],[24.0613,38.158734],[24.080737,38.164935],[24.058148,38.18233],[24.074925,38.195984],[23.954366,38.285262],[23.806978,38.328329],[23.78659,38.321589],[23.768154,38.338842],[23.677767,38.339721],[23.631388,38.377097],[23.63234,38.410321],[23.595833,38.416167],[23.600169,38.440398],[23.566444,38.451204],[23.592686,38.4725],[23.551677,38.506811],[23.537799,38.510303],[23.513611,38.479964],[23.404729,38.509359],[23.33136,38.49826],[23.331572,38.517403],[23.378164,38.526285],[23.328753,38.536456],[23.315642,38.569754],[23.285906,38.561034],[23.339957,38.602304],[23.320906,38.638377],[23.255175,38.643386],[23.19544,38.680177],[23.164648,38.674468],[23.190128,38.649351],[23.141038,38.646255],[23.103959,38.625321],[23.064605,38.679504],[23.064241,38.72214],[23.033613,38.755396],[22.968888,38.744015],[22.899971,38.776153],[22.86457,38.754212],[22.824477,38.789924],[22.765368,38.781277],[22.697027,38.851449],[22.604657,38.821509],[22.601018,38.842028],[22.579154,38.823589],[22.572721,38.839821],[22.553301,38.833766],[22.551533,38.849894],[22.578588,38.864851],[22.531597,38.857209],[22.560282,38.873565],[22.548293,38.880857],[22.613121,38.911213],[22.66929,38.881024],[22.709133,38.887366],[22.753517,38.868832],[22.828089,38.887556],[22.856173,38.926313],[22.918058,38.918312],[22.940288,38.928273],[22.937184,38.944529],[22.991406,38.944463],[23.02668,39.014629],[23.05686,39.015321],[23.067587,39.03934],[22.958403,39.008645],[22.963031,39.033193],[22.996889,39.035803],[22.983086,39.098416],[22.935483,39.13195],[22.941733,39.113303],[22.922577,39.113053],[22.89077,39.188785],[22.869962,39.186234],[22.880873,39.169425],[22.850593,39.153766],[22.821359,39.211356],[22.821929,39.27621],[22.946926,39.298672],[22.925877,39.320086],[22.940894,39.361085],[22.992812,39.350972],[23.020353,39.315468],[23.119442,39.305198],[23.163818,39.272471],[23.189454,39.207708],[23.218699,39.186503],[23.213644,39.147933],[23.182075,39.160198],[23.177283,39.127684],[23.148783,39.131683],[23.156327,39.119482],[23.108743,39.100467],[23.094029,39.096879],[23.122915,39.135808],[23.109578,39.160036],[23.078397,39.146454],[23.049762,39.100747],[23.072122,39.085184],[23.188607,39.104],[23.203029,39.094763],[23.226344,39.111047],[23.210998,39.126373],[23.306314,39.140065],[23.351694,39.186361],[23.283695,39.275238],[23.269878,39.323012],[23.207994,39.36421],[23.096254,39.499831],[22.935364,39.574664],[22.867526,39.726562],[22.85332,39.799823],[22.736233,39.868497],[22.709568,39.952353],[22.59262,40.014897],[22.54816,40.154643],[22.590602,40.209032],[22.582466,40.225564],[22.603579,40.28215],[22.661113,40.362106],[22.624423,40.376966],[22.589356,40.467481],[22.618707,40.481529],[22.655855,40.466928],[22.648953,40.479396],[22.670208,40.488153],[22.652614,40.508696],[22.661643,40.525017],[22.692475,40.527184],[22.720616,40.498866],[22.722264,40.516442],[22.734198,40.505339],[22.736547,40.522865],[22.752201,40.514498],[22.735774,40.535717],[22.753357,40.536421],[22.741687,40.557917],[22.799386,40.560493],[22.855562,40.591591],[22.85784,40.613992],[22.835282,40.617203],[22.831433,40.631202],[22.858814,40.625516],[22.888875,40.644798],[22.941749,40.631138],[22.951813,40.618274],[22.93571,40.579356],[22.980458,40.552363],[22.976331,40.53613],[22.897599,40.502729],[22.823288,40.50565],[22.814724,40.47906],[22.854144,40.467052],[22.866005,40.431979],[22.903091,40.397978],[22.89619,40.384978],[22.910605,40.390316],[22.889359,40.374111],[22.951197,40.379533],[23.011212,40.347199],[23.019995,40.32433],[23.310204,40.225345],[23.326717,40.178262],[23.307993,40.087693],[23.338321,40.068507],[23.381873,40.001125],[23.356619,39.953458],[23.463854,39.969558],[23.592814,39.920814],[23.750977,39.915363],[23.745137,39.934581],[23.691484,39.934002],[23.667047,39.981554],[23.494381,40.033656],[23.417909,40.125914],[23.361459,40.14796],[23.33122,40.211718],[23.401796,40.27931],[23.495722,40.259237],[23.530592,40.236264],[23.654837,40.223154],[23.772615,40.117282],[23.772665,40.095559],[23.791982,40.088797],[23.790683,40.056122],[23.823474,40.014976],[23.837647,40.023401],[23.891508,39.99411],[23.901545,39.960009],[23.925927,39.964376],[23.928489,39.935957],[23.98567,39.945387],[23.996465,39.956828],[23.967732,39.964107],[24.001483,39.970908],[23.986874,39.985333],[24.022899,40.016741],[24.018044,40.037072],[23.985908,40.041453],[24.008528,40.053165],[23.979227,40.085603],[23.996828,40.108532],[23.915264,40.157837],[23.766721,40.198717],[23.761152,40.229902],[23.736717,40.230072],[23.694021,40.286021],[23.698726,40.319631],[23.734641,40.353204],[23.782543,40.336463],[23.849646,40.369635],[23.920351,40.364448],[24.039675,40.292494],[24.155286,40.283726],[24.221793,40.218844],[24.224306,40.193018],[24.279978,40.162771],[24.304916,40.114048],[24.398102,40.139628],[24.395656,40.162498],[24.37495,40.192667],[24.288707,40.244475],[24.247942,40.309778],[24.194916,40.319474],[24.19271,40.342082],[24.154914,40.358784],[24.066001,40.36755],[24.007666,40.451612],[23.993449,40.442714],[24.011211,40.392012],[23.999655,40.382479],[23.9304,40.38064],[23.864709,40.412798],[23.831502,40.450613],[23.823809,40.506976],[23.920137,40.533396],[23.883211,40.559384],[23.833556,40.557149],[23.819671,40.580506],[23.784153,40.592378],[23.741709,40.655711],[23.695368,40.667442],[23.730162,40.746554],[23.847695,40.785776],[23.963316,40.739986],[24.089427,40.721851],[24.340277,40.825275],[24.305975,40.829126],[24.309275,40.846515],[24.331448,40.843012],[24.338056,40.858886],[24.316322,40.876234],[24.379845,40.909414],[24.395148,40.933758],[24.510838,40.959315],[24.555684,40.950884],[24.626726,40.857831],[24.671694,40.873575],[24.698457,40.861896],[24.709539,40.868796],[24.717149,40.863374],[24.68916,40.85409],[24.763055,40.859625],[24.803365,40.84603],[24.796509,40.865555],[24.805879,40.848787],[24.884545,40.911811],[24.989744,40.930012],[24.998475,40.960251],[25.056277,40.998458],[25.143653,41.00987],[25.088965,41.020941],[25.075853,41.046702],[25.113622,41.091326],[25.137382,41.073672],[25.121763,41.049917],[25.155548,41.042663],[25.178412,41.00804],[25.128759,41.004004],[25.141625,40.988549],[25.165432,40.998549],[25.124518,40.962134],[25.174258,40.940125],[25.248622,40.93621],[25.264098,40.92104],[25.293764,40.943045],[25.335596,40.94768],[25.379837,40.909424],[25.457278,40.896848],[25.550405,40.858721],[25.590785,40.868516],[25.731731,40.844707],[25.916572,40.847802],[26.000802,40.809648],[26.013201,40.818276],[26.005024,40.793382],[26.048294,40.770498],[26.050305,40.782784],[26.069259,40.78125],[26.050256,40.768724],[26.036208,40.776066],[26.034574,40.745291],[26.047564,40.754026],[26.025739,40.73683],[26.062328,40.683389],[26.060586,40.639086],[26.122337,40.591515],[26.303697,40.590473],[26.375138,40.608009],[26.413646,40.598561],[26.45979,40.616659],[26.533387,40.591285],[26.609991,40.636562],[26.784254,40.657676],[26.822983,40.639344],[26.838888,40.588383],[26.798917,40.556731],[26.763332,40.54442],[26.747599,40.558923],[26.694893,40.50713],[26.589087,40.496953],[26.215551,40.31633],[26.246836,40.306786],[26.229362,40.28918],[26.278567,40.253906],[26.278514,40.216266],[26.165871,40.05256],[26.211369,40.006014],[26.179243,39.991434],[26.137391,39.840895],[26.163613,39.81822],[26.158533,39.776664],[26.140176,39.756987],[26.163517,39.65946],[26.14254,39.612599],[26.105601,39.584914],[26.062644,39.479496],[26.137731,39.452823],[26.230265,39.474527],[26.242307,39.46389],[26.267138,39.483527],[26.368118,39.480498],[26.376382,39.49638],[26.446413,39.517828],[26.631657,39.55448],[26.77297,39.571095],[26.837658,39.557786],[26.879693,39.58513],[26.941961,39.570262],[26.952964,39.550131],[26.931721,39.485577],[26.85827,39.476946],[26.855229,39.440213],[26.797296,39.432159],[26.805935,39.392301],[26.701552,39.340555],[26.689132,39.313193],[26.663677,39.304646],[26.671144,39.279347],[26.630718,39.297009],[26.656793,39.30371],[26.6508,39.323417],[26.626223,39.312103],[26.608588,39.27577],[26.717953,39.258872],[26.768065,39.166124],[26.817361,39.15396],[26.877849,39.099797],[26.886494,39.068222],[26.799127,39.032182],[26.79865,39.015138],[26.816018,39.025467],[26.797526,38.99652],[26.80144,38.950598],[26.851431,38.932467],[26.85833,38.913585],[26.919965,38.93961],[26.938252,38.925217],[26.936968,38.937217],[26.966911,38.944239],[26.957106,38.937687],[26.969786,38.926666],[27.004928,38.912961],[27.017417,38.913345],[27.006314,38.918651],[27.043179,38.940944],[27.05692,38.914388],[27.037196,38.894082],[27.066274,38.877226],[27.034051,38.855745],[27.025511,38.872298],[26.971151,38.845351],[26.962258,38.831284],[26.984037,38.822109],[26.96886,38.803888],[26.943159,38.811499],[26.944599,38.836087],[26.914096,38.817412],[26.892832,38.82492],[26.939083,38.764277],[26.907562,38.766335],[26.896328,38.734385],[26.857588,38.753107],[26.835508,38.742332],[26.823038,38.762342],[26.78035,38.736838],[26.740561,38.741276],[26.726668,38.721037],[26.740947,38.681698],[26.730886,38.674942],[26.754854,38.670841],[26.734377,38.66684],[26.722376,38.651586],[26.749597,38.634565],[26.764393,38.640575],[26.769622,38.635758],[26.757364,38.615427],[26.799999,38.610584],[26.830688,38.578182],[26.840384,38.586878],[26.846776,38.560459],[26.838798,38.561027],[26.840134,38.556025],[26.830554,38.558305],[26.822959,38.550354],[26.84271,38.550332],[26.847027,38.558946],[26.84833,38.542779],[26.88265,38.534356],[26.888243,38.51076],[26.828991,38.526115],[26.883959,38.507812],[26.948598,38.431687],[26.974544,38.454965],[27.027045,38.467594],[27.079021,38.467076],[27.112659,38.448698],[27.158923,38.4669],[27.171399,38.447751],[27.169965,38.44077],[27.148169,38.44728],[27.121007,38.412216],[27.086805,38.398446],[27.017346,38.417886],[26.808506,38.355184],[26.765363,38.367923],[26.736011,38.429057],[26.707412,38.434527],[26.674763,38.387445],[26.688094,38.351383],[26.678145,38.360136],[26.674992,38.348029],[26.703037,38.31961],[26.67402,38.311986],[26.644444,38.33995],[26.644534,38.372611],[26.611577,38.42212],[26.584852,38.426553],[26.604921,38.451924],[26.58788,38.470021],[26.64088,38.46862],[26.625401,38.531126],[26.569685,38.559697],[26.56247,38.602003],[26.52322,38.630622],[26.523667,38.649886],[26.474081,38.674888],[26.416648,38.680605],[26.363263,38.661071],[26.353025,38.638295],[26.360234,38.56645],[26.38056,38.543966],[26.38069,38.523604],[26.375121,38.541557],[26.371631,38.530151],[26.41203,38.49345],[26.392795,38.447431],[26.438137,38.476347],[26.51573,38.427506],[26.49059,38.401022],[26.45076,38.427311],[26.482346,38.376019],[26.401562,38.323426],[26.384297,38.348312],[26.374871,38.30854],[26.344514,38.319565],[26.344688,38.33396],[26.31908,38.330125],[26.315724,38.376017],[26.300957,38.354912],[26.284891,38.376329],[26.285103,38.342198],[26.302748,38.320738],[26.281305,38.323467],[26.274416,38.291047],[26.233758,38.29404],[26.231722,38.266518],[26.285263,38.265022],[26.335992,38.225525],[26.367188,38.227121],[26.387168,38.246954],[26.378508,38.262738],[26.391302,38.260553],[26.401875,38.244818],[26.389233,38.222944],[26.430734,38.198105],[26.419909,38.22143],[26.442922,38.217969],[26.458288,38.191763],[26.490158,38.195632],[26.496917,38.177472],[26.517913,38.186831],[26.511765,38.165848],[26.530022,38.127651],[26.560691,38.117374],[26.570675,38.142551],[26.591874,38.102574],[26.615415,38.111815],[26.603387,38.143217],[26.624074,38.138358],[26.636133,38.207165],[26.732472,38.206826],[26.757302,38.221911],[26.790195,38.198887],[26.772534,38.197064],[26.774847,38.161433],[26.795133,38.173299],[26.824333,38.157781],[26.864545,38.028554],[26.898221,38.061246],[26.980883,38.074746],[27.048037,38.049902],[27.075472,38.012851],[27.098782,38.01534],[27.142911,37.983812],[27.216723,37.992203],[27.252866,37.977532],[27.277412,37.926731],[27.260572,37.91302],[27.272528,37.90188],[27.26337,37.866213],[27.241488,37.859825],[27.235648,37.840055],[27.26962,37.808343],[27.239663,37.728055],[27.10001,37.680524],[27.031478,37.689874],[27.003068,37.659795],[27.217154,37.590361],[27.173944,37.547577],[27.175744,37.560657],[27.159594,37.585206],[27.168591,37.537008],[27.192208,37.542341],[27.183259,37.53478],[27.180273,37.483075],[27.189889,37.491351],[27.187832,37.526757],[27.194553,37.532472],[27.201118,37.5161],[27.202759,37.489759],[27.181782,37.474314],[27.225496,37.487676],[27.227722,37.472229],[27.218614,37.419785],[27.230935,37.406149],[27.209367,37.398882],[27.192548,37.353433],[27.253849,37.335703],[27.285858,37.356181],[27.330338,37.342822],[27.329941,37.378105],[27.360067,37.372092],[27.369554,37.399819],[27.416917,37.415796],[27.433028,37.382525],[27.383706,37.357282],[27.389466,37.322417],[27.443494,37.302337],[27.477497,37.328715],[27.474692,37.344866],[27.498029,37.319369],[27.45777,37.250367],[27.518322,37.276647],[27.522228,37.250607],[27.498854,37.237083],[27.52245,37.226971],[27.534966,37.251349],[27.552138,37.244708],[27.541172,37.254818],[27.557172,37.277595],[27.581017,37.271326],[27.594784,37.287918],[27.616379,37.273836],[27.575281,37.215343],[27.61495,37.187902],[27.600304,37.196045],[27.574745,37.178998],[27.593455,37.193927],[27.570777,37.211439],[27.55469,37.192875],[27.526207,37.193678],[27.546385,37.183771],[27.541699,37.154103],[27.56091,37.154273],[27.549966,37.135788],[27.581382,37.136331],[27.53746,37.128667],[27.474108,37.081847],[27.457908,37.08219],[27.430335,37.128332],[27.386637,37.12034],[27.376369,37.133793],[27.389985,37.145478],[27.364578,37.157028],[27.34617,37.130368],[27.323341,37.159126],[27.311324,37.115227],[27.273495,37.140511],[27.263889,37.120013],[27.255401,37.130819],[27.254715,37.111613],[27.293401,37.110431],[27.239214,37.083298],[27.225254,37.058104],[27.249828,37.031427],[27.264267,36.964121],[27.303746,36.95728],[27.300286,36.972287],[27.340647,36.999316],[27.332353,37.015394],[27.382545,37.026271],[27.3759,36.998659],[27.396091,37.029059],[27.412516,37.016719],[27.424869,37.035741],[27.482412,36.986324],[27.518114,36.995031],[27.565404,36.97467],[27.576197,36.983551],[27.563005,36.989226],[27.582597,36.994496],[27.637082,36.977699],[27.647612,36.997731],[27.685572,37.003292],[27.75838,36.990319],[27.787068,37.005848],[27.799312,36.994852],[27.892961,37.028388],[27.946551,37.015965],[27.979056,37.03177],[28.08754,37.028708],[28.098745,37.011689],[28.115914,37.01606],[28.102016,37.03458],[28.163319,37.02881],[28.322106,37.051372],[28.330561,37.033395],[28.267262,37.015654],[28.245129,37.002836],[28.250555,36.989691],[28.216003,36.998488],[28.197544,36.981996],[28.216037,36.976826],[28.201268,36.969136],[28.205764,36.952057],[28.158296,36.944862],[28.170509,36.939652],[28.168221,36.906815],[28.159698,36.925952],[28.098103,36.940406],[28.021335,36.925409],[28.043767,36.910265],[28.014652,36.905599],[28.051317,36.896488],[28.040676,36.884324],[28.059327,36.878802],[28.000258,36.853319],[28.031315,36.83883],[28.002655,36.835292],[28.065107,36.823533],[28.060408,36.800775],[28.032833,36.78776],[27.826052,36.813033],[27.771569,36.788588],[27.696968,36.785226],[27.641245,36.810729],[27.609547,36.763983],[27.511914,36.750052],[27.464644,36.762175],[27.426611,36.746846],[27.407036,36.703975],[27.362028,36.708662],[27.373201,36.689819],[27.363041,36.684467],[27.402377,36.680072],[27.405183,36.662398],[27.468375,36.661381],[27.478129,36.647091],[27.514005,36.677002],[27.560921,36.67212],[27.573554,36.684599],[27.678471,36.657645],[27.676425,36.700434],[27.696272,36.712075],[27.686739,36.725213],[27.730822,36.763142],[27.816103,36.76305],[27.858516,36.741149],[27.877769,36.757656],[27.890818,36.740868],[27.894419,36.756355],[27.919756,36.754442],[27.929823,36.74211],[27.956156,36.76078],[28.014174,36.758461],[28.046976,36.784804],[28.040503,36.771977],[28.051096,36.759488],[28.078864,36.77515],[28.082294,36.795949],[28.118235,36.803426],[28.133538,36.757043],[28.111883,36.774395],[28.084758,36.743837],[28.129678,36.726091],[28.113118,36.72815],[28.09892,36.705118],[28.085278,36.718413],[28.098677,36.726469],[28.065176,36.724022],[28.042351,36.70382],[28.001812,36.704049],[27.963634,36.683787],[28.024175,36.668128],[28.040636,36.673988],[28.040929,36.6927],[28.049863,36.673581],[28.072569,36.674982],[28.052726,36.65748],[28.068118,36.655637],[28.057314,36.635465],[28.072338,36.660167],[28.095725,36.644943],[28.062275,36.604897],[27.956575,36.60146],[27.978704,36.585961],[27.965222,36.579966],[27.978981,36.553589],[28.017512,36.56421],[28.011824,36.576127],[28.033889,36.562638],[28.06658,36.59511],[28.089051,36.582018],[28.115585,36.600844],[28.163697,36.683778],[28.22456,36.688262],[28.260948,36.732649],[28.28971,36.719896],[28.303367,36.730046],[28.292024,36.748713],[28.269371,36.7473],[28.267888,36.7658],[28.249276,36.772732],[28.256408,36.791307],[28.23338,36.803828],[28.259487,36.846132],[28.277495,36.852345],[28.315431,36.827152],[28.266056,36.813649],[28.270627,36.797292],[28.312521,36.794001],[28.310753,36.816899],[28.39827,36.784811],[28.426402,36.83634],[28.378682,36.845165],[28.403392,36.866277],[28.408065,36.854094],[28.432919,36.857501],[28.455577,36.878943],[28.469543,36.861897],[28.450899,36.84534],[28.461577,36.811871],[28.4982,36.817789],[28.489649,36.799209],[28.535503,36.785767],[28.529155,36.806514],[28.549782,36.830495],[28.587251,36.815294],[28.630355,36.780914],[28.613229,36.759412],[28.632976,36.754823],[28.607263,36.733398],[28.624546,36.727473],[28.618072,36.703573],[28.632836,36.700018],[28.648063,36.721735],[28.666104,36.716147],[28.671008,36.691547],[28.72788,36.711775],[28.790043,36.685635],[28.806171,36.668866],[28.793654,36.650703],[28.818142,36.659289],[28.850908,36.637711],[28.824258,36.625421],[28.846161,36.58837],[28.875853,36.602014],[28.868534,36.621744],[28.908562,36.648566],[28.878065,36.64774],[28.872728,36.633441],[28.850355,36.643364],[28.866353,36.654389],[28.851038,36.662082],[28.86852,36.670682],[28.864469,36.696567],[28.901584,36.697327],[28.909333,36.707168],[28.894508,36.711729],[28.929748,36.734327],[28.928787,36.754857],[28.965144,36.722462],[28.971897,36.730428],[28.996912,36.708162],[29.020149,36.715301],[29.014022,36.70389],[29.033464,36.707732],[29.054516,36.681396],[29.091855,36.67859],[29.121846,36.647261],[29.115691,36.625981],[29.089931,36.619664],[29.101763,36.640925],[29.078176,36.646025],[29.075008,36.613988],[29.040175,36.619297],[29.022387,36.586212],[29.046841,36.55829],[29.008429,36.544044],[29.053785,36.53898],[29.049251,36.557962],[29.086751,36.565119],[29.096984,36.545562],[29.111222,36.543773],[29.106559,36.555195],[29.125912,36.542271],[29.125977,36.496552],[29.100526,36.475248],[29.12481,36.461462],[29.133524,36.428141],[29.118152,36.425052],[29.131217,36.415338],[29.103029,36.404341],[29.101359,36.387162],[29.144888,36.378219],[29.137859,36.360626],[29.164906,36.341135],[29.249387,36.317264],[29.313858,36.246752],[29.35163,36.230226],[29.369642,36.238012],[29.368374,36.26242],[29.392361,36.263816],[29.417319,36.260051],[29.404446,36.242836],[29.412467,36.224168],[29.455233,36.225592],[29.441862,36.210429],[29.457098,36.221273],[29.631544,36.204747],[29.583749,36.185858],[29.644518,36.196328],[29.650721,36.17364],[29.641979,36.183381],[29.630861,36.1695],[29.654599,36.147266],[29.678232,36.15273],[29.683465,36.130261],[29.723255,36.163432],[29.783118,36.157631],[29.760238,36.140084],[29.79325,36.143141],[29.829343,36.168964],[29.800997,36.165363],[29.850416,36.192961],[29.829286,36.188822],[29.846178,36.196132],[29.886619,36.193739],[29.922673,36.233924],[29.980984,36.214411],[30.061967,36.259338],[30.115673,36.246997],[30.139055,36.278312],[30.140668,36.266491],[30.151731,36.272391],[30.149714,36.300584],[30.188627,36.31391],[30.275303,36.315599],[30.370402,36.268762],[30.408435,36.275038],[30.405737,36.209414],[30.487632,36.279129],[30.488346,36.299392],[30.46927,36.2983],[30.467512,36.314319],[30.529448,36.334849],[30.476764,36.397459],[30.491859,36.421681],[30.481528,36.433796],[30.509526,36.439864],[30.506744,36.467174],[30.588148,36.578316],[30.59102,36.598032],[30.559798,36.611769],[30.555085,36.649354],[30.571142,36.6746],[30.574941,36.794512],[30.617015,36.833286],[30.606264,36.830012],[30.606508,36.838235],[30.698166,36.88452],[30.758456,36.844906],[31.037271,36.854256],[31.334674,36.807688],[31.387041,36.780621],[31.386511,36.764028],[31.552517,36.715294],[31.672109,36.644109],[31.747046,36.637526],[31.77297,36.604978],[31.969783,36.555213],[31.986094,36.527357],[32.025085,36.539438],[32.165241,36.417867],[32.216216,36.33585],[32.275253,36.288425],[32.295227,36.234986],[32.350655,36.207826],[32.38948,36.163001],[32.517199,36.09693],[32.565366,36.100131],[32.679648,36.038595],[32.803163,36.015445],[32.869162,36.070565],[32.950445,36.103795],[33.052503,36.094489],[33.081852,36.069846],[33.121895,36.126303],[33.146873,36.137805],[33.288946,36.128973],[33.351192,36.154327],[33.394004,36.124673],[33.472883,36.159354],[33.56071,36.125359],[33.592573,36.175755],[33.647629,36.193561],[33.689518,36.134727],[33.698548,36.173692],[33.809368,36.240341],[33.81482,36.273284],[33.839364,36.274029],[33.83436,36.286897],[33.881009,36.317762],[33.937707,36.289492],[33.96306,36.232168],[33.997396,36.303826],[34.042853,36.29497],[34.072846,36.318187],[34.081528,36.414131],[34.110754,36.425648],[34.132272,36.458706],[34.168328,36.466863],[34.260533,36.571372],[34.429211,36.663543],[34.472814,36.708364],[34.545324,36.742924],[34.560718,36.768161],[34.65407,36.807327],[34.762728,36.809401],[34.833838,36.790074],[34.887491,36.755384],[34.902135,36.725495],[34.997737,36.713282],[35.324515,36.558686],[35.273563,36.608487],[35.163636,36.675877],[35.181092,36.692837],[35.250877,36.677891],[35.271229,36.662112],[35.249089,36.654073],[35.264171,36.639241],[35.27153,36.651355],[35.287804,36.643189],[35.285264,36.626858],[35.34615,36.603173],[35.322099,36.572088],[35.339364,36.538526],[35.420895,36.590615],[35.558555,36.564493],[35.55886,36.577855],[35.562251,36.584721],[35.592122,36.612934],[35.588045,36.615177],[35.584184,36.619558],[35.582896,36.631371],[35.56011,36.648465],[35.563375,36.657738],[35.540989,36.660493],[35.536123,36.663037],[35.53142,36.670851],[35.527471,36.671592],[35.523898,36.651919],[35.527386,36.672646],[35.566133,36.657183],[35.560668,36.648601],[35.583477,36.632229],[35.592875,36.612865],[35.562058,36.582628],[35.567536,36.565473],[35.581977,36.590605],[35.630642,36.613245],[35.64657,36.669893],[35.723782,36.711926],[35.704579,36.723148],[35.706338,36.713162],[35.654241,36.708108],[35.657179,36.728867],[35.645843,36.707723],[35.654201,36.739507],[35.624925,36.733434],[35.628715,36.72079],[35.585017,36.679483],[35.570571,36.706404],[35.555026,36.698801],[35.563859,36.71301],[35.599228,36.699775],[35.603571,36.727491],[35.612645,36.731973],[35.609325,36.714424],[35.627249,36.745289],[35.666103,36.7667],[35.794602,36.765643],[35.897792,36.839125],[35.923125,36.87646],[35.94616,36.864401],[35.937729,36.886254],[36.017305,36.929791],[36.123799,36.879348],[36.140807,36.861633],[36.129784,36.853511],[36.146754,36.856742],[36.198981,36.793544],[36.206377,36.76632],[36.187392,36.729182],[36.202016,36.727235],[36.192929,36.705242],[36.215729,36.659635],[36.192983,36.593493],[36.148947,36.590601],[36.037124,36.533734],[35.982633,36.474301],[35.907949,36.443611],[35.895394,36.415104],[35.861132,36.396508],[35.855464,36.370924],[35.815904,36.360064],[35.779623,36.318553],[35.790215,36.280794],[35.896114,36.159161],[35.981094,36.010822],[35.923192,35.956309],[35.876779,35.868685],[35.845721,35.850239],[35.800297,35.853754],[35.844673,35.74255],[35.798399,35.685004],[35.770342,35.673978],[35.784524,35.633097],[35.77512,35.608086],[35.716722,35.585402],[35.741624,35.581993],[35.732967,35.561125],[35.771773,35.536136],[35.760959,35.508883],[35.763191,35.517915],[35.755262,35.532223],[35.762178,35.518525],[35.759045,35.509849],[35.76251,35.505633],[35.811385,35.499797],[35.915055,35.416578],[35.921064,35.274751],[35.953203,35.19436],[35.923739,35.172596],[35.927298,35.156669],[35.88717,35.106066],[35.898173,35.007984],[35.87097,34.968146],[35.879773,34.920409],[35.859078,34.909698],[35.871246,34.913334],[35.870881,34.899275],[35.854017,34.909752],[35.873307,34.896491],[35.926126,34.784782],[35.98555,34.606674],[35.986269,34.529715],[35.903329,34.467091],[35.806679,34.45497],[35.820449,34.416955],[35.811046,34.403898],[35.736665,34.376436],[35.717141,34.312624],[35.679755,34.311778],[35.651387,34.281289],[35.660415,34.244534],[35.626497,34.149972],[35.649482,34.085783],[35.622567,34.026646],[35.644114,34.00297],[35.600621,33.969967],[35.571187,33.904214],[35.469363,33.900527],[35.483624,33.859227],[35.478153,33.793055],[35.436943,33.699277],[35.415482,33.688452],[35.415659,33.654261],[35.397548,33.647153],[35.398556,33.61739],[35.354756,33.515486],[35.287935,33.461784],[35.242499,33.327729],[35.210345,33.276585],[35.190054,33.273249],[35.21235,33.245467],[35.191744,33.179847],[35.107877,33.106729],[35.066248,32.920104],[35.082114,32.912251],[35.070969,32.862797],[35.033999,32.810354],[34.981682,32.83672],[34.954485,32.824938],[34.947267,32.737092],[34.926178,32.694894],[34.884202,32.471441],[34.867033,32.470047],[34.881505,32.464775],[34.838986,32.29836],[34.760637,32.06854],[34.653178,31.834568],[34.641145,31.81905],[34.637254,31.834727],[34.589838,31.730826],[34.459577,31.553721],[34.331962,31.420662],[34.127148,31.264781],[33.868811,31.159202],[33.681508,31.117816],[33.539783,31.115264],[33.465179,31.131237],[33.423098,31.163069],[33.462898,31.147146],[33.40978,31.17537],[33.273754,31.21502],[33.269446,31.20801],[33.273215,31.201419],[33.412694,31.159419],[33.384148,31.165658],[33.370423,31.115435],[33.312145,31.110029],[33.135365,31.04311],[33.142911,31.075728],[33.160537,31.081852],[33.117495,31.092541],[33.135561,31.104706],[33.104084,31.134692],[33.116157,31.1419],[33.160298,31.110351],[33.093721,31.178962],[33.109815,31.190221],[33.025571,31.151467],[32.986714,31.104653],[32.954421,31.100852],[33.02454,31.087087],[33.027498,31.111769],[33.063008,31.120573],[33.046123,31.098784],[33.054871,31.090204],[33.012044,31.079941],[33.010185,31.066887],[33.026555,31.06391],[33.007632,31.048815],[32.966859,31.057333],[32.97885,31.06124],[32.970863,31.079322],[32.990648,31.070051],[32.982798,31.086462],[32.928345,31.103207],[32.919856,31.097773],[32.918943,31.092681],[32.938887,31.089744],[32.92574,31.074572],[32.90725,31.07676],[32.930297,31.087414],[32.870669,31.090275],[32.788871,31.043304],[32.709749,31.029099],[32.69905,31.0323],[32.715174,31.049273],[32.668844,31.047621],[32.793636,31.078644],[32.928381,31.1371],[32.922049,31.147393],[32.757322,31.073164],[32.602421,31.058401],[32.549221,31.080795],[32.466125,31.165335],[32.378844,31.222182],[32.35741,31.228378],[32.358736,31.22544],[32.351523,31.199708],[32.358771,31.249576],[32.310011,31.09366],[32.319728,30.816825],[32.346255,30.708755],[32.32747,30.621414],[32.305311,30.56785],[32.339472,30.512604],[32.365617,30.414173],[32.413917,30.357241],[32.415245,30.369141],[32.44079,30.351386],[32.450341,30.286253],[32.535534,30.264682],[32.562686,30.235077],[32.575695,30.199015],[32.573193,30.068087],[32.563455,30.19081],[32.53689,30.197895],[32.542345,30.213831],[32.518081,30.224191],[32.524198,30.244717],[32.461441,30.263009],[32.472576,30.240984],[32.434994,30.235119],[32.406847,30.277761],[32.349596,30.284359],[32.303029,30.34116],[32.309859,30.398894],[32.357296,30.412311],[32.335389,30.514678],[32.270434,30.582503],[32.307719,30.589135],[32.342694,30.706127],[32.31392,30.789381],[32.302126,31.229133],[32.302413,31.254765],[32.309413,31.256567],[32.342949,31.298476],[32.314017,31.272926],[32.188634,31.296054],[32.006688,31.408304],[31.95503,31.49689],[31.976639,31.474627],[31.975137,31.485314],[31.978934,31.460972],[31.97809,31.483634],[31.987376,31.47453],[31.989158,31.452176],[31.992188,31.47433],[31.923279,31.524922],[31.843671,31.527114],[31.762249,31.488422],[31.770887,31.451778],[31.749644,31.464428],[31.756377,31.492538],[31.719226,31.472686],[31.55852,31.442637],[31.278861,31.559385],[31.126209,31.599802],[31.050796,31.60187],[30.519137,31.457619],[30.40166,31.476263],[30.415513,31.462759],[30.396369,31.473612],[30.403107,31.462482],[30.377386,31.461515],[30.375514,31.477794],[30.392942,31.482284],[30.375669,31.479718],[30.368682,31.475155],[30.38597,31.444302],[30.421035,31.439145],[30.428775,31.431571],[30.432808,31.413737],[30.422799,31.380259],[30.448804,31.37793],[30.461038,31.337146],[30.4757,31.348129],[30.484896,31.348925],[30.522246,31.326333],[30.519759,31.270563],[30.497331,31.23877],[30.525824,31.228747],[30.522298,31.200898],[30.540556,31.192699],[30.555861,31.208733],[30.581275,31.193171],[30.608467,31.174559],[30.656227,31.112355],[30.689666,31.096622],[30.723572,31.067948],[30.728288,31.04975],[30.720941,31.021933],[30.754937,31.003523],[30.76246,30.990943],[30.763171,30.98207],[30.750018,30.963539],[30.781377,30.940074],[30.785867,30.931755],[30.781324,30.914786],[30.756744,30.885199],[30.788977,30.87135],[30.795333,30.860584],[30.795362,30.852636],[30.785676,30.839066],[30.764042,30.821442],[30.794658,30.829444],[30.804567,30.827893],[30.812734,30.822516],[30.810896,30.813836],[30.755159,30.772762],[30.760836,30.759045],[30.779124,30.765376],[30.787642,30.762985],[30.791195,30.756718],[30.761438,30.757302],[30.753534,30.766406],[30.756405,30.779456],[30.810566,30.822977],[30.769837,30.816193],[30.762054,30.82168],[30.792658,30.855542],[30.754513,30.882],[30.782299,30.931064],[30.746316,30.965663],[30.753042,31.002399],[30.715581,31.01905],[30.72282,31.065883],[30.639303,31.113084],[30.608227,31.16901],[30.568503,31.197796],[30.521831,31.188928],[30.523127,31.22611],[30.494877,31.239021],[30.518458,31.274462],[30.518301,31.326319],[30.483066,31.347298],[30.461584,31.333308],[30.445605,31.372166],[30.41958,31.377742],[30.421685,31.436778],[30.384653,31.442847],[30.362576,31.466495],[30.313468,31.354745],[30.244588,31.294102],[30.179128,31.267907],[30.124375,31.271502],[30.086035,31.283035],[30.070876,31.316987],[30.082141,31.328179],[30.069581,31.329643],[29.899784,31.20147],[29.876025,31.211357],[29.851018,31.187519],[29.846485,31.165214],[29.868492,31.198913],[29.879723,31.184816],[29.871581,31.191058],[29.82671,31.139412],[29.782466,31.146072],[29.668139,31.052262],[29.464191,30.928899],[29.213022,30.836841],[29.135068,30.820939],[29.02016,30.822336],[28.976876,30.832751],[28.97544,30.843378],[28.990261,30.834186],[29.021508,30.827964],[28.844808,30.915859],[28.830674,30.95293],[28.783064,30.959804],[28.763737,30.983755],[28.725868,30.986115],[28.710296,31.002537],[28.609088,31.015375],[28.557799,31.052507],[28.482083,31.060045],[28.431949,31.088111],[28.316486,31.067242],[28.209461,31.071472],[28.158871,31.092325],[27.926652,31.097412],[27.895871,31.118088],[27.891668,31.170018],[27.870903,31.190143],[27.869225,31.237649],[27.854552,31.246896],[27.818568,31.215012],[27.675378,31.177295],[27.642162,31.179459],[27.637379,31.196087],[27.449742,31.214315],[27.385393,31.262096],[27.342076,31.373073],[27.178567,31.359857],[27.182598,31.371269],[27.227667,31.369271],[27.076996,31.382467],[27.063641,31.406565],[27.015321,31.409935],[26.982944,31.442775],[26.845216,31.440642],[26.748585,31.483171],[26.591727,31.488313],[26.557432,31.506804],[26.496191,31.494963],[25.893592,31.62942],[25.487275,31.51705],[25.39531,31.50287],[25.212146,31.51944],[25.16209,31.549569],[25.180131,31.570543],[25.152395,31.615842],[25.147154,31.675687],[25.121245,31.707646],[25.130455,31.720348],[25.107511,31.754987],[25.088235,31.750966],[25.095379,31.770177],[25.027034,31.854249],[25.039477,31.92732],[24.980079,31.970798],[24.805608,31.997407],[24.781682,31.986607],[24.792232,31.998441],[24.763712,32.018542],[24.708951,32.023082],[24.66351,32.021435],[24.547598,31.979509],[24.494428,31.994025],[24.088212,32.012021],[23.972728,32.066448],[23.968087,32.079196],[24.009178,32.071457],[24.011409,32.085452],[23.980415,32.103074],[23.880402,32.114168],[23.718645,32.177673],[23.510957,32.163504],[23.499498,32.174944],[23.421086,32.174117],[23.316702,32.213584],[23.30633,32.201546],[23.316731,32.154075],[23.292806,32.199189],[23.253757,32.203438],[23.2093,32.280233],[23.159768,32.307972],[23.096177,32.311733],[23.081978,32.356728],[23.101717,32.39751],[23.094766,32.431707],[23.132652,32.406555],[23.112062,32.403157],[23.132669,32.388143],[23.13481,32.423824],[23.159066,32.4563],[23.144577,32.478024],[23.120785,32.479394],[23.129401,32.489602],[23.102891,32.50433],[23.104446,32.53304],[23.098645,32.526745],[23.090836,32.533854],[23.103361,32.534298],[23.108077,32.532527],[23.098598,32.569735],[23.127395,32.602495],[23.10532,32.635881],[22.925882,32.66442],[22.817843,32.71521],[22.657362,32.756932],[22.644353,32.775613],[22.606565,32.773518],[22.556646,32.803443],[22.492905,32.811596],[22.390061,32.868889],[22.193458,32.880548],[22.167846,32.904563],[22.174996,32.926897],[22.145311,32.938316],[22.055684,32.906866],[21.922967,32.893831],[21.707657,32.940372],[21.628298,32.926203],[21.508192,32.832958],[21.408912,32.787453],[21.336948,32.771858],[21.061345,32.760731],[20.552692,32.533173],[20.37391,32.416729],[20.112746,32.185938],[20.088531,32.185037],[20.099141,32.175883],[20.081468,32.143983],[20.029421,32.11602],[20.049827,32.122996],[20.070275,32.104953],[20.03529,32.114933],[20.052797,32.098923],[20.035081,32.063197],[19.946994,31.974663],[19.953025,31.934403],[19.921145,31.758912],[19.953797,31.674449],[19.992195,31.472226],[20.012709,31.468408],[20.028172,31.393283],[20.08735,31.339924],[20.147403,31.241094],[20.175171,31.151574],[20.154602,31.040368],[20.088229,30.913724],[20.06385,30.897593],[20.075061,30.88924],[20.054286,30.847291],[19.789998,30.545373],[19.614568,30.415179],[19.568579,30.418518],[19.381009,30.317561],[19.21882,30.271793],[19.05559,30.267912],[18.942129,30.287584],[18.88139,30.330607],[18.80081,30.358877],[18.794439,30.383259],[18.6557,30.420509],[18.651101,30.439105],[18.586444,30.485148],[18.595656,30.494068],[18.590727,30.505702],[18.586324,30.489002],[18.568899,30.505688],[18.595441,30.508864],[18.531718,30.521959],[18.410046,30.595732],[18.300643,30.679086],[18.22356,30.76521],[17.911984,30.8557],[17.851686,30.924858],[17.687561,30.951603],[17.511636,31.009418],[17.392994,31.076634],[17.305792,31.083142],[16.763806,31.211985],[16.37976,31.2185],[16.124348,31.251932],[15.975123,31.29244],[15.733301,31.40211],[15.625831,31.481364],[15.483245,31.678131],[15.394271,31.861959],[15.350385,31.999689],[15.357556,32.166133],[15.315956,32.216323],[15.272069,32.318549],[15.235803,32.343053],[15.256801,32.347431],[15.233385,32.34375],[15.226235,32.370436],[15.215362,32.361146],[15.225806,32.374128],[15.097898,32.411456],[14.967124,32.418422],[14.90205,32.439525],[14.755576,32.438784],[14.606023,32.497775],[14.491177,32.506618],[14.370163,32.582203],[14.329368,32.626309],[14.247567,32.667332],[14.25763,32.68276],[14.241097,32.678363],[14.244042,32.691875],[14.263225,32.681455],[14.244333,32.693258],[14.020412,32.727671],[13.938259,32.774792],[13.803096,32.802441],[13.598003,32.790984],[13.417324,32.868417],[13.385707,32.897629],[13.216498,32.916391],[13.217495,32.902658],[13.17783,32.900641],[13.212357,32.921262],[13.17087,32.901745],[13.150217,32.881242],[12.956508,32.822722],[12.75573,32.793835],[12.558667,32.796281],[12.340502,32.823171],[12.148163,32.901409],[11.82867,33.084728],[11.817032,33.075375],[11.781502,33.095495],[11.689919,33.125435],[11.810114,33.071298],[11.647897,33.096056],[11.570439,33.16351],[11.475452,33.185774],[11.324078,33.275672],[11.319826,33.266258],[11.450704,33.190676],[11.451262,33.176694],[11.467906,33.179474],[11.492139,33.163852],[11.462513,33.173538],[11.453855,33.163026],[11.438094,33.181631],[11.413244,33.174518],[11.391269,33.189147],[11.378308,33.171482],[11.265071,33.206122],[11.1786,33.204645],[11.162263,33.250908],[11.119804,33.277468],[11.129421,33.315011],[11.158668,33.318849],[11.309514,33.27097],[11.314052,33.271433],[11.321545,33.276743],[11.176045,33.328956],[11.135352,33.370769],[11.109164,33.355606],[11.092324,33.36154],[11.138919,33.387723],[11.105726,33.402925],[11.092989,33.435402],[11.123788,33.490645],[11.108248,33.557264],[11.04802,33.62567],[11.007813,33.640323],[10.988409,33.638605],[10.985778,33.622945],[10.945682,33.628344],[10.919004,33.669303],[10.946352,33.627092],[10.911999,33.606997],[10.948146,33.567893],[10.930645,33.525504],[10.74956,33.474083],[10.697704,33.492589],[10.702868,33.519915],[10.680928,33.53307],[10.736014,33.606526],[10.730444,33.643516],[10.744788,33.677822],[10.724902,33.706151],[10.570883,33.654266],[10.567031,33.640455],[10.587308,33.630725],[10.563652,33.634346],[10.560236,33.656228],[10.4891,33.644751],[10.484584,33.629704],[10.480284,33.644318],[10.467305,33.647164],[10.473418,33.641726],[10.468524,33.636174],[10.457416,33.632833],[10.464109,33.647432],[10.480135,33.654749],[10.387826,33.678626],[10.28568,33.744252],[10.12307,33.881341],[10.10943,33.922133],[10.095593,33.922798],[10.112999,33.925231],[10.084782,33.932133],[10.03495,34.038721],[10.015849,34.168121],[10.037192,34.173342],[10.04309,34.207159],[10.122257,34.316927],[10.14035,34.322183],[10.154252,34.303386],[10.158317,34.3288],[10.169887,34.323486],[10.189783,34.358181],[10.22107,34.341468],[10.238102,34.364383],[10.284461,34.381136],[10.292486,34.404009],[10.321967,34.392093],[10.349765,34.402741],[10.345464,34.42741],[10.372988,34.419343],[10.470109,34.511501],[10.59224,34.537694],[10.605436,34.58583],[10.644742,34.62998],[10.702331,34.658808],[10.722926,34.651814],[10.739525,34.671423],[10.736204,34.698579],[10.750756,34.693851],[10.737884,34.709216],[10.748097,34.725023],[10.76249,34.710445],[10.769662,34.731238],[10.780901,34.722193],[10.780478,34.753366],[10.872126,34.798542],[10.866058,34.824155],[10.908733,34.87025],[10.919704,34.865453],[10.926132,34.966056],[11.006623,35.01433],[11.024506,35.043821],[11.024403,35.111003],[11.050041,35.150214],[11.061121,35.14603],[11.051936,35.154259],[11.088767,35.160903],[11.119247,35.223654],[11.156621,35.228394],[11.159581,35.2146],[11.166906,35.2303],[11.100065,35.267002],[11.034825,35.343843],[11.033233,35.380701],[11.050056,35.390935],[11.043173,35.443229],[11.059919,35.494852],[11.082481,35.508377],[11.057819,35.509339],[11.033519,35.538397],[11.050252,35.623579],[10.8321,35.697952],[10.817917,35.71687],[10.843951,35.768042],[10.834292,35.789585],[10.740196,35.765139],[10.647923,35.813907],[10.652117,35.826762],[10.529694,35.978935],[10.517287,36.028531],[10.48105,36.059604],[10.466488,36.135463],[10.477304,36.236453],[10.523252,36.345275],[10.569584,36.395368],[10.616564,36.392255],[10.697321,36.431901],[10.811684,36.459946],[10.879124,36.602684],[10.961644,36.709921],[10.953652,36.717924],[11.05461,36.812454],[11.114899,36.832309],[11.136042,36.874374],[11.109112,36.898556],[11.097898,36.957186],[11.05872,37.009156],[11.058939,37.034431],[11.078183,37.047444],[11.034717,37.088564],[11.036513,37.0772],[10.972353,37.050149],[10.907141,37.054305],[10.911137,37.00684],[10.895683,37.010352],[10.870754,36.977497],[10.742391,36.894317],[10.699758,36.878975],[10.607955,36.883083],[10.569448,36.842483],[10.548722,36.769156],[10.478438,36.738281],[10.508588,36.726929],[10.472646,36.736698],[10.411862,36.714572],[10.365988,36.72146],[10.292523,36.764623],[10.28201,36.793146],[10.310863,36.80655],[10.353758,36.873188],[10.322277,36.892969],[10.318425,36.916992],[10.248442,36.942803],[10.201112,36.984282],[10.169919,37.054657],[10.218407,37.110104],[10.136232,37.142293],[10.153578,37.165463],[10.221789,37.168452],[10.222416,37.154354],[10.22544,37.168465],[10.24885,37.169526],[10.225376,37.154989],[10.231684,37.150244],[10.28149,37.180234],[10.218643,37.185212],[10.153973,37.226946],[10.087793,37.239982],[10.070385,37.270554],[9.977502,37.247004],[9.888688,37.271897],[9.821014,37.225757],[9.931103,37.224558],[9.926838,37.176649],[9.86536,37.135532],[9.815523,37.140787],[9.78208,37.181702],[9.786226,37.20895],[9.774187,37.20166],[9.759645,37.221955],[9.79926,37.218039],[9.809783,37.233913],[9.783379,37.220683],[9.783053,37.236615],[9.824376,37.237399],[9.881909,37.272496],[9.865754,37.332004],[9.836284,37.339055],[9.811604,37.326771],[9.744202,37.34591],[9.666996,37.338446],[9.591479,37.2983],[9.559714,37.305603],[9.457347,37.263701],[9.389096,37.265018],[9.338107,37.233884],[9.256896,37.215583],[9.223916,37.218275],[9.215245,37.240232],[9.12364,37.162221],[9.027776,37.139161],[8.977839,37.104802],[8.922962,37.036716],[8.781584,36.952138],[8.712079,36.967662],[8.63719,36.936407],[8.612897,36.94223],[8.42642,36.895193],[8.35942,36.923069],[8.271485,36.916894],[8.226941,36.951931],[8.084093,36.887813],[7.910678,36.844029],[7.843891,36.842942],[7.768952,36.863733],[7.761131,36.885386],[7.778779,36.902602],[7.767469,36.89494],[7.761917,36.896305],[7.782294,36.90512],[7.761095,36.928838],[7.792252,36.970145],[7.71066,36.950081],[7.659119,36.97977],[7.621854,36.96217],[7.568312,36.985333],[7.51229,37.043059],[7.408365,37.04026],[7.381563,37.063828],[7.388462,37.083947],[7.337751,37.064801],[7.29688,37.082278],[7.274248,37.066178],[7.232452,37.087741],[7.169719,37.081158],[7.255223,37.027262],[7.26225,36.982531],[7.24698,36.990474],[7.16304,36.915868],[7.120513,36.907534],[7.086495,36.920441],[6.930914,36.880552],[6.881256,36.896691],[6.88194,36.932178],[6.848054,36.934813],[6.849242,36.95729],[6.816403,36.947954],[6.786331,36.962012],[6.769916,36.94489],[6.752213,36.96396],[6.720604,36.944789],[6.637068,36.955958],[6.631454,36.974021],[6.570301,36.982262],[6.582592,37.016023],[6.566036,37.010416],[6.569955,37.028017],[6.540082,37.033603],[6.549656,37.054553],[6.519873,37.054387],[6.50959,37.077127],[6.401813,37.084846],[6.337516,37.068899],[6.262779,37.024935],[6.239532,36.982316],[6.261046,36.941824],[6.212406,36.908534],[5.89177,36.816788],[5.88684,36.827868],[5.877453,36.817048],[5.8869,36.830328],[5.899153,36.834473],[5.808751,36.806112],[5.774198,36.814194],[5.768893,36.829005],[5.688038,36.818526],[5.677054,36.796688],[5.571092,36.765741],[5.552927,36.714944],[5.500157,36.677846],[5.302324,36.637027],[5.220122,36.64763],[5.101971,36.696259],[5.076922,36.732837],[5.106764,36.777043],[5.017793,36.793178],[5.016146,36.807134],[4.964089,36.817121],[4.921875,36.850725],[4.75907,36.895324],[4.704902,36.87952],[4.568107,36.882241],[4.510332,36.884737],[4.441643,36.91015],[4.383953,36.890037],[4.309134,36.895332],[4.296595,36.908204],[4.206005,36.892176],[4.153358,36.907825],[4.111687,36.889817],[3.953364,36.897393],[3.917094,36.910915],[3.923244,36.923242],[3.892527,36.923205],[3.72985,36.884345],[3.686717,36.844174],[3.558511,36.805068],[3.557933,36.793007],[3.499118,36.769312],[3.337553,36.783536],[3.230046,36.815283],[3.230793,36.774955],[3.157017,36.741696],[3.078807,36.752406],[3.060277,36.766648],[3.069684,36.788822],[3.011383,36.820181],[2.894891,36.805304],[2.894504,36.779934],[2.837463,36.762375],[2.843014,36.737812],[2.794865,36.691115],[2.56718,36.594093],[2.426911,36.594716],[2.408528,36.604873],[2.403645,36.634169],[2.347903,36.64529],[2.000322,36.565648],[1.91292,36.578652],[1.654771,36.554968],[1.580763,36.53407],[1.523656,36.542657],[1.489631,36.52742],[1.343322,36.551608],[1.296605,36.5101],[1.181075,36.513999],[0.942045,36.449547],[0.911034,36.398266],[0.870811,36.372288],[0.805607,36.366413],[0.760129,36.334806],[0.658611,36.330315],[0.475136,36.231056],[0.345482,36.194793],[0.329215,36.161239],[0.290432,36.134847],[0.210845,36.110781],[0.134721,36.041945],[0.026169,35.859375],[-0.099162,35.790306],[-0.157288,35.78935],[-0.277617,35.820068],[-0.308582,35.848372],[-0.295888,35.877845],[-0.33793,35.896217],[-0.33934,35.909743],[-0.385795,35.908172],[-0.41926,35.881629],[-0.489862,35.875834],[-0.482585,35.845336],[-0.503479,35.790678],[-0.52835,35.768162],[-0.554972,35.776091],[-0.634717,35.710176],[-0.701679,35.72206],[-0.703125,35.742746],[-0.768807,35.747797],[-0.790703,35.773137],[-0.824311,35.769539],[-0.850274,35.723567],[-0.884771,35.70641],[-0.938038,35.728342],[-0.992132,35.679344],[-1.045722,35.667271],[-1.067619,35.631228],[-1.103643,35.624528],[-1.154567,35.574527],[-1.198094,35.574558],[-1.237004,35.438776],[-1.284288,35.357815],[-1.332661,35.347648],[-1.386968,35.304688],[-1.462722,35.308935],[-1.510497,35.277115],[-1.552523,35.271306],[-1.57624,35.240975],[-1.63792,35.213323],[-1.658808,35.176333],[-1.704656,35.178002],[-1.77484,35.119112],[-1.805449,35.132348],[-1.906849,35.084906],[-2.058818,35.070668],[-2.154964,35.101495],[-2.226255,35.087121],[-2.421906,35.148073],[-2.489699,35.100037],[-2.56707,35.081254],[-2.741472,35.121606],[-2.766613,35.135628],[-2.819548,35.177959],[-2.845664,35.193562],[-2.745807,35.112142],[-2.755766,35.09863],[-2.809827,35.102308],[-2.902527,35.148508],[-2.92688,35.190422],[-2.898735,35.212602],[-2.923727,35.224008],[-2.92672,35.252672],[-2.844618,35.195343],[-2.917964,35.258599],[-2.921917,35.264586],[-2.913738,35.276204],[-2.913784,35.277405],[-2.916491,35.282931]]]]}}