{"type":"Feature","properties":{"name":"Scotian Shelf Federal Marine Bioregion (Canada)","source":"Fisheries and Oceans Canada (DFO), Marine Planning and Conservation Directorate, Federal Marine Bioregions","source_url":"https://open.canada.ca/data/en/dataset/23eb8b56-dac8-4efc-be7c-b8fa11ba62e9","source_record":"23eb8b56-dac8-4efc-be7c-b8fa11ba62e9","license":"Open Government Licence - Canada","components":["Scotian Shelf"],"retrieved":"2026-10-07","note":"Reprojected from Canada Albers Equal Area Conic (NAD83) to WGS84, the Albers edges densified at 2 km first. Interior rings that are islands are dropped: land is excluded by sst_daily holding ocean cells only, not by the geometry. Parts holding no 0.05-degree cell centre are dropped. This is Canada's own marine-planning framework, not a maritime limit: the dataset describes its boundaries as fuzzy and revisable on ecosystem grounds. Longitudes are 0-360, as everywhere else in this project.","simplify_tolerance_deg":0.005,"dfo_area_km2":416296,"cells":18391,"cells_moved_by_simplification":39},"geometry":{"type":"MultiPolygon","coordinates":[[[[303.95273,41.99516],[303.71205,41.79567],[303.45471,41.61237],[303.05709,41.3605],[302.71291,41.17626],[302.3626,41.02119],[302.02392,40.89688],[301.67595,40.79407],[301.30351,40.70869],[300.84683,40.63667],[300.3673,40.59662],[299.8603,40.5924],[299.42374,40.61715],[298.99427,40.67085],[298.57294,40.75518],[298.12665,40.87821],[297.7113,41.0271],[297.23031,40.75344],[296.85072,40.57308],[296.45622,40.42356],[295.87664,40.24664],[295.45191,40.14818],[295.01164,40.08112],[294.56526,40.04755],[294.11821,40.04771],[294.21714,40.24608],[294.30083,40.45138],[293.43388,41.49167],[292.5325,42.51888],[292.2575,42.88721],[292.72111,44.18666],[292.69608,44.39338],[292.74803,44.49699],[292.84305,44.58257],[292.89333,44.60646],[292.96111,44.62424],[293.01278,44.69535],[293.11458,44.79419],[293.06742,44.82549],[293.03469,44.82885],[293.02514,44.8416],[293.01786,44.86724],[293.03128,44.91038],[292.97833,44.95391],[292.90584,45.07385],[292.92432,45.08011],[292.95935,45.07382],[292.93135,45.1077],[292.93262,45.12691],[292.96141,45.1269],[292.9645,45.14219],[292.9503,45.15341],[292.96333,45.15594],[292.96017,45.16812],[292.98317,45.15859],[292.99206,45.14482],[292.99617,45.15036],[293.01256,45.14688],[293.01359,45.1701],[293.02791,45.15074],[293.03671,45.18104],[293.04522,45.15525],[293.10068,45.13024],[293.10018,45.11606],[293.12784,45.12748],[293.15294,45.12142],[293.12475,45.11971],[293.10622,45.10405],[293.08258,45.11248],[293.07352,45.09364],[293.07857,45.07157],[293.11153,45.04375],[293.12663,45.05034],[293.13061,45.06195],[293.14623,45.0651],[293.14554,45.08016],[293.15589,45.07294],[293.16776,45.0841],[293.173,45.06325],[293.18339,45.06842],[293.1885,45.0629],[293.17806,45.05148],[293.20351,45.06005],[293.18807,45.04236],[293.22121,45.05571],[293.21456,45.0421],[293.25938,45.0566],[293.25536,45.07866],[293.26495,45.0755],[293.27825,45.08531],[293.27589,45.05742],[293.29935,45.07071],[293.34644,45.07597],[293.35171,45.09464],[293.35866,45.09061],[293.36582,45.09986],[293.36745,45.09204],[293.37461,45.09304],[293.38838,45.10582],[293.38387,45.11438],[293.41173,45.09916],[293.41924,45.11687],[293.40364,45.11513],[293.40449,45.12038],[293.46049,45.13617],[293.47234,45.11783],[293.47877,45.12457],[293.47571,45.13631],[293.51038,45.15253],[293.51132,45.14426],[293.49542,45.12789],[293.51576,45.12677],[293.53332,45.13624],[293.5378,45.12744],[293.51813,45.12168],[293.5145,45.11214],[293.53583,45.05834],[293.54392,45.07373],[293.58167,45.08689],[293.56374,45.09849],[293.58723,45.09546],[293.58852,45.103],[293.61258,45.113],[293.62785,45.10716],[293.61795,45.11812],[293.63116,45.12358],[293.63377,45.11665],[293.64584,45.1189],[293.6481,45.13328],[293.67083,45.12315],[293.6821,45.13602],[293.68561,45.13007],[293.70212,45.13227],[293.70238,45.1451],[293.714,45.13519],[293.73474,45.14482],[293.77939,45.14109],[293.84591,45.1809],[293.84602,45.19005],[293.83421,45.18713],[293.83128,45.21376],[293.85506,45.22304],[293.85513,45.20426],[293.87166,45.22424],[293.8937,45.22417],[293.89545,45.24015],[293.92843,45.24461],[293.94784,45.28259],[293.95412,45.27191],[293.94616,45.25539],[293.96811,45.2727],[293.99303,45.24551],[293.99422,45.23701],[293.98359,45.23201],[293.98548,45.21823],[294.01607,45.2076],[294.03982,45.22188],[294.07486,45.19739],[294.09509,45.19388],[294.1391,45.21082],[294.18796,45.25738],[294.21185,45.26108],[294.25767,45.25044],[294.2801,45.27455],[294.31737,45.27352],[294.34173,45.29115],[294.40424,45.30541],[294.4218,45.30009],[294.46326,45.32041],[294.45278,45.33011],[294.45966,45.34777],[294.51767,45.36668],[294.55051,45.39364],[294.6381,45.42671],[294.65514,45.44428],[294.78953,45.48839],[294.80141,45.48572],[294.81573,45.50061],[294.86053,45.51771],[294.9568,45.53355],[295.01424,45.55316],[295.05358,45.59832],[295.08539,45.60021],[295.12169,45.62416],[295.17407,45.62576],[295.20131,45.6138],[295.2073,45.59274],[295.21764,45.59123],[295.25604,45.64324],[295.27839,45.65389],[295.30546,45.68407],[295.3012,45.70621],[295.31187,45.71774],[295.33117,45.72208],[295.35231,45.7116],[295.35424,45.71663],[295.32452,45.73611],[295.42536,45.82056],[295.42301,45.85432],[295.40881,45.86607],[295.44369,45.87165],[295.44693,45.90543],[295.4633,45.922],[295.43561,45.96381],[295.44254,45.97535],[295.44378,45.95893],[295.47103,45.92423],[295.45258,45.90637],[295.45257,45.85917],[295.48856,45.82804],[295.50469,45.80338],[295.46786,45.73764],[295.44492,45.72888],[295.44504,45.72177],[295.47845,45.71777],[295.50615,45.72474],[295.51341,45.73821],[295.50716,45.75059],[295.51803,45.76415],[295.55981,45.78318],[295.63047,45.85171],[295.6692,45.86841],[295.71269,45.83141],[295.72487,45.83573],[295.75582,45.82266],[295.67011,45.74924],[295.66101,45.74904],[295.66716,45.75298],[295.65902,45.76756],[295.67536,45.78886],[295.70266,45.80323],[295.70358,45.81909],[295.66918,45.82022],[295.64176,45.7985],[295.61905,45.79494],[295.62157,45.7712],[295.58765,45.74822],[295.56655,45.74875],[295.55018,45.73377],[295.56467,45.71541],[295.54177,45.6813],[295.51048,45.67284],[295.51011,45.66209],[295.49253,45.66148],[295.42498,45.60304],[295.41758,45.60746],[295.34787,45.58088],[295.34576,45.56404],[295.32145,45.55162],[295.31158,45.53697],[295.2814,45.53159],[295.15139,45.48014],[295.1427,45.47341],[295.20149,45.4787],[295.20919,45.4698],[295.17025,45.47361],[295.1531,45.45677],[295.13606,45.46341],[295.13198,45.45201],[295.10978,45.44323],[295.10395,45.43078],[295.08576,45.43062],[295.07413,45.41201],[295.05554,45.32979],[295.14833,45.35585],[295.16687,45.3544],[295.20846,45.32365],[295.21696,45.32211],[295.20793,45.33075],[295.21426,45.3361],[295.22931,45.33009],[295.2131,45.3107],[295.22523,45.29238],[295.23962,45.30877],[295.29467,45.31977],[295.29091,45.36063],[295.31244,45.37878],[295.36329,45.39727],[295.43461,45.40867],[295.50199,45.39285],[295.53329,45.3969],[295.60744,45.36544],[295.61723,45.3763],[295.64219,45.37926],[295.66179,45.37358],[295.66529,45.36547],[295.68099,45.38392],[295.67322,45.3948],[295.74452,45.37816],[295.75893,45.38077],[295.74526,45.38787],[295.77073,45.39539],[295.90258,45.40922],[295.91743,45.4036],[295.91733,45.40906],[295.93897,45.41134],[295.93138,45.40139],[295.954,45.40529],[295.93788,45.39073],[295.9611,45.38419],[295.99921,45.38835],[296.01626,45.39926],[296.05119,45.39429],[296.08732,45.37661],[296.07639,45.36603],[296.08182,45.35533],[296.11138,45.34826],[296.1281,45.379],[296.19521,45.39837],[296.2176,45.39451],[296.21814,45.40122],[296.30493,45.38701],[296.32588,45.39484],[296.36831,45.38684],[296.39377,45.39959],[296.38713,45.39159],[296.43656,45.37891],[296.54597,45.36431],[296.57908,45.36817],[296.61234,45.36165],[296.63837,45.37018],[296.65248,45.3718],[296.65995,45.36919],[296.52913,45.33601],[296.51962,45.31812],[296.53252,45.30751],[296.51872,45.28024],[296.5132,45.31117],[296.4689,45.3355],[296.43057,45.31564],[296.31902,45.31574],[296.28261,45.32309],[296.27224,45.31911],[296.27455,45.30787],[296.2556,45.29948],[296.22945,45.3159],[296.19538,45.31269],[296.18545,45.30078],[296.19072,45.29066],[296.13626,45.27816],[296.12657,45.26722],[296.10231,45.27856],[295.99751,45.24533],[295.98626,45.2376],[295.99664,45.22682],[295.94386,45.23401],[295.8306,45.18954],[295.83286,45.16352],[295.80223,45.14849],[295.79719,45.12929],[295.77753,45.10934],[295.75718,45.11323],[295.71366,45.13921],[295.67641,45.13855],[295.66489,45.12907],[295.66386,45.10516],[295.64451,45.09491],[295.62145,45.10026],[295.61109,45.09232],[295.59679,45.09687],[295.63359,45.10667],[295.63501,45.12615],[295.61025,45.11936],[295.59557,45.13092],[295.62261,45.14287],[295.58401,45.15285],[295.60773,45.15046],[295.64858,45.16774],[295.64051,45.19627],[295.61091,45.19565],[295.63766,45.21939],[295.64834,45.25469],[295.67082,45.26826],[295.6735,45.28937],[295.66385,45.30254],[295.61628,45.32202],[295.50495,45.33473],[295.53373,45.32],[295.59731,45.30815],[295.59939,45.28087],[295.54007,45.24436],[295.39593,45.20214],[295.23976,45.17106],[295.04663,45.1028],[294.95784,45.05468],[294.93661,45.05034],[294.91753,45.03153],[294.83639,45.00243],[294.7651,44.95949],[294.70756,44.93986],[294.68458,44.91602],[294.63238,44.90265],[294.48442,44.82255],[294.35791,44.76864],[294.25647,44.71042],[294.23877,44.68612],[294.20801,44.68953],[294.08034,44.60938],[294.06874,44.61648],[294.04695,44.60741],[293.88745,44.49737],[293.8167,44.4344],[293.793,44.40652],[293.79543,44.37737],[293.89336,44.46613],[293.91494,44.47764],[293.9096,44.49053],[293.92794,44.48794],[293.97705,44.52949],[294.00803,44.54307],[294.01909,44.55798],[294.06549,44.57908],[294.09417,44.57008],[294.13122,44.58808],[294.15362,44.57212],[294.10497,44.52092],[294.05455,44.48643],[294.03999,44.49428],[293.97058,44.43842],[293.93543,44.38951],[293.9175,44.38725],[293.91112,44.37088],[293.87977,44.34555],[293.85677,44.22168],[293.84592,44.21568],[293.84135,44.19564],[293.81944,44.18065],[293.78739,44.11194],[293.78726,44.0863],[293.80541,44.09182],[293.82157,44.07486],[293.82079,44.06095],[293.83314,44.04198],[293.82502,44.03117],[293.83837,44.0235],[293.84773,43.99348],[293.83188,43.97293],[293.8492,43.92436],[293.83226,43.90776],[293.84021,43.88885],[293.82974,43.86241],[293.837,43.85266],[293.85065,43.85846],[293.85109,43.81497],[293.86791,43.83233],[293.86118,43.84213],[293.88159,43.84761],[293.86084,43.78897],[293.87108,43.79262],[293.87372,43.7862],[293.86732,43.77822],[293.87652,43.74003],[293.8807,43.73499],[293.89005,43.74246],[293.90885,43.7786],[293.92438,43.76063],[293.92317,43.73879],[293.91816,43.74472],[293.916,43.74],[293.93252,43.72338],[293.93621,43.70396],[293.94459,43.70425],[293.94809,43.7137],[293.9399,43.71934],[293.93816,43.74053],[293.95726,43.74577],[293.9726,43.73036],[293.96771,43.69456],[293.98542,43.68106],[293.99074,43.70805],[294.00935,43.73618],[294.01924,43.72159],[294.01762,43.69121],[294.03803,43.73562],[294.03489,43.74788],[294.01541,43.75392],[294.01617,43.76019],[294.02631,43.75609],[294.01231,43.77508],[294.00356,43.77494],[293.98572,43.81683],[293.98723,43.82209],[294.00041,43.81518],[293.99037,43.83642],[293.9958,43.84505],[294.00532,43.84122],[294.02136,43.84838],[294.0071,43.82491],[294.01443,43.80938],[294.00668,43.81006],[294.00874,43.79841],[294.02442,43.78545],[294.00755,43.78635],[294.02766,43.77519],[294.03217,43.76096],[294.04284,43.7631],[294.04234,43.77937],[294.05123,43.77245],[294.05399,43.7781],[294.03141,43.81189],[294.04797,43.79486],[294.05418,43.79978],[294.07009,43.78029],[294.05975,43.80315],[294.06541,43.79727],[294.0666,43.80453],[294.07524,43.80209],[294.06727,43.81409],[294.06679,43.80748],[294.05302,43.80926],[294.05514,43.82084],[294.06748,43.81771],[294.06045,43.8385],[294.07336,43.81525],[294.07253,43.83429],[294.10531,43.80401],[294.07938,43.81347],[294.11313,43.7671],[294.12364,43.76989],[294.12928,43.75345],[294.13621,43.76862],[294.11936,43.79015],[294.1284,43.79046],[294.14337,43.77295],[294.12775,43.80157],[294.13856,43.81021],[294.15905,43.76645],[294.14846,43.7515],[294.15969,43.75314],[294.16042,43.71981],[294.16865,43.71157],[294.17142,43.72192],[294.18638,43.69034],[294.17975,43.66254],[294.18765,43.60134],[294.19605,43.59205],[294.20859,43.59869],[294.21193,43.61583],[294.21173,43.63598],[294.19932,43.64202],[294.20876,43.68529],[294.22259,43.68268],[294.21706,43.69412],[294.2232,43.69745],[294.23536,43.67351],[294.23317,43.63606],[294.2266,43.60432],[294.21747,43.59764],[294.22122,43.5847],[294.21416,43.56576],[294.2235,43.55185],[294.23857,43.55035],[294.24899,43.53345],[294.25698,43.53919],[294.24846,43.572],[294.26002,43.57066],[294.26688,43.54753],[294.25964,43.5308],[294.27121,43.49231],[294.30366,43.49292],[294.30402,43.49955],[294.32214,43.50259],[294.32902,43.48796],[294.34662,43.4821],[294.34816,43.50946],[294.36207,43.50242],[294.3725,43.51887],[294.38934,43.51848],[294.39556,43.5372],[294.40817,43.53189],[294.39773,43.54794],[294.40896,43.54372],[294.40631,43.55871],[294.42416,43.56563],[294.44294,43.55423],[294.44055,43.54697],[294.45385,43.53423],[294.44341,43.52908],[294.45542,43.51356],[294.5079,43.4901],[294.5149,43.47905],[294.50901,43.46154],[294.52976,43.44891],[294.5327,43.46872],[294.54387,43.48128],[294.528,43.49214],[294.52428,43.50432],[294.50231,43.51431],[294.53468,43.50785],[294.55287,43.52999],[294.54428,43.54969],[294.57094,43.541],[294.58058,43.52391],[294.57865,43.49232],[294.58589,43.47816],[294.59555,43.48625],[294.60618,43.48386],[294.59623,43.49792],[294.59567,43.53629],[294.55914,43.56062],[294.54526,43.56183],[294.5531,43.57902],[294.53591,43.59942],[294.58317,43.5765],[294.59012,43.55679],[294.60242,43.54749],[294.6169,43.54901],[294.62105,43.56562],[294.63343,43.57013],[294.6449,43.54462],[294.6615,43.53661],[294.65107,43.56523],[294.66702,43.57717],[294.63389,43.6088],[294.65409,43.6013],[294.67833,43.60688],[294.68023,43.61314],[294.65596,43.62299],[294.65592,43.63441],[294.66691,43.63217],[294.67218,43.64742],[294.67332,43.67701],[294.65938,43.67796],[294.65895,43.69641],[294.61909,43.73755],[294.62427,43.74569],[294.66152,43.72897],[294.66822,43.74083],[294.66262,43.77037],[294.67125,43.76886],[294.68637,43.74532],[294.67668,43.69083],[294.74429,43.65748],[294.76913,43.67521],[294.76102,43.68204],[294.76848,43.70214],[294.78379,43.69771],[294.7617,43.75016],[294.7426,43.76743],[294.74719,43.77905],[294.76576,43.76618],[294.76237,43.79994],[294.8232,43.69785],[294.83708,43.7047],[294.8309,43.71913],[294.83906,43.7355],[294.8599,43.73682],[294.85486,43.67226],[294.87097,43.65349],[294.87815,43.69322],[294.89505,43.69018],[294.88005,43.70536],[294.8956,43.71393],[294.89511,43.72356],[294.90162,43.71315],[294.90486,43.71734],[294.90932,43.74797],[294.92608,43.75019],[294.9193,43.71937],[294.93062,43.6856],[294.94257,43.71936],[294.95152,43.72029],[294.95839,43.70677],[294.93672,43.69686],[294.97332,43.69389],[294.97817,43.70917],[294.96374,43.71429],[294.99019,43.72598],[294.99654,43.74071],[295.01206,43.74784],[295.02502,43.74423],[295.03021,43.75874],[295.03967,43.75285],[295.03814,43.74501],[295.04573,43.74846],[295.05293,43.77598],[295.06747,43.78204],[295.07673,43.79705],[295.05265,43.83743],[295.03438,43.84254],[295.02776,43.86943],[295.04249,43.86714],[295.05935,43.84909],[295.09179,43.78872],[295.11502,43.79565],[295.10872,43.81942],[295.12589,43.83046],[295.11803,43.84785],[295.08704,43.86722],[295.08518,43.87974],[295.1297,43.86587],[295.14078,43.85091],[295.14321,43.82619],[295.16548,43.81293],[295.16956,43.83731],[295.19294,43.84388],[295.18327,43.86707],[295.21773,43.86654],[295.21028,43.8933],[295.1528,43.91799],[295.15686,43.93228],[295.16552,43.92445],[295.19001,43.95282],[295.2666,43.95245],[295.26194,43.96583],[295.28736,43.9691],[295.30184,43.98719],[295.34069,43.99016],[295.33627,44.02031],[295.30368,44.04021],[295.28349,44.04252],[295.29049,44.05258],[295.30907,44.05502],[295.31379,44.04628],[295.34691,44.04194],[295.38005,44.07436],[295.40337,44.06284],[295.41267,44.0742],[295.42441,44.05913],[295.43497,44.07251],[295.44607,44.07053],[295.43866,44.0829],[295.44339,44.09379],[295.43079,44.10141],[295.43992,44.10734],[295.44857,44.09746],[295.45917,44.10268],[295.45513,44.12197],[295.42543,44.13359],[295.40994,44.11898],[295.40373,44.12967],[295.3704,44.13493],[295.40443,44.13791],[295.38352,44.15521],[295.40687,44.16084],[295.43965,44.14173],[295.43396,44.15777],[295.44692,44.16054],[295.46002,44.15265],[295.47367,44.15502],[295.47745,44.14673],[295.49571,44.14715],[295.47632,44.13826],[295.47892,44.13467],[295.49425,44.14441],[295.50798,44.14118],[295.5068,44.14967],[295.51977,44.15393],[295.52024,44.1815],[295.52921,44.17867],[295.56259,44.19858],[295.56418,44.22899],[295.58613,44.23504],[295.61676,44.2265],[295.58848,44.2365],[295.60407,44.24709],[295.59792,44.25135],[295.63029,44.2606],[295.64704,44.29048],[295.66715,44.28024],[295.6586,44.27999],[295.6743,44.26431],[295.70917,44.26112],[295.71139,44.24241],[295.71881,44.24685],[295.72021,44.26281],[295.73991,44.26702],[295.75307,44.25921],[295.75751,44.26608],[295.74176,44.27572],[295.76602,44.29424],[295.72396,44.28374],[295.69728,44.29621],[295.70654,44.31234],[295.73938,44.31762],[295.74009,44.32506],[295.68341,44.3383],[295.70898,44.32406],[295.70425,44.31688],[295.67087,44.33685],[295.66323,44.33293],[295.65587,44.36459],[295.68134,44.35872],[295.67883,44.36514],[295.69269,44.36941],[295.68375,44.37762],[295.6989,44.37409],[295.70239,44.36121],[295.7122,44.36493],[295.75759,44.35324],[295.77967,44.3592],[295.78227,44.36829],[295.77759,44.3735],[295.76628,44.36664],[295.7674,44.37522],[295.72046,44.38556],[295.7158,44.38246],[295.72475,44.37277],[295.71963,44.37076],[295.71318,44.38252],[295.71042,44.37646],[295.6843,44.38396],[295.70716,44.38039],[295.69923,44.39601],[295.6694,44.39873],[295.73915,44.39958],[295.74441,44.41102],[295.66802,44.40626],[295.65824,44.41054],[295.66505,44.41192],[295.66438,44.4255],[295.6542,44.43764],[295.61981,44.45024],[295.67161,44.44752],[295.69485,44.46572],[295.68954,44.47157],[295.67203,44.46749],[295.68101,44.47315],[295.67746,44.48083],[295.68611,44.48056],[295.68249,44.48909],[295.70463,44.48225],[295.68828,44.49509],[295.69857,44.50944],[295.69065,44.51404],[295.69478,44.52018],[295.6822,44.54524],[295.70241,44.54223],[295.69342,44.55223],[295.69398,44.56677],[295.73379,44.53903],[295.75049,44.54341],[295.75733,44.53568],[295.7822,44.53281],[295.78844,44.53734],[295.78301,44.56145],[295.79314,44.56598],[295.79257,44.57747],[295.81349,44.57609],[295.82282,44.58655],[295.83267,44.58475],[295.83179,44.56995],[295.85589,44.567],[295.88611,44.53488],[295.87651,44.5308],[295.87233,44.50859],[295.88845,44.49941],[295.88071,44.49067],[295.8857,44.47782],[295.92152,44.47053],[295.93509,44.4869],[295.93303,44.50068],[295.95083,44.51167],[295.95188,44.52171],[295.99309,44.50662],[295.98979,44.51855],[295.99739,44.51977],[295.97848,44.53188],[295.98115,44.54147],[295.96318,44.56875],[295.93651,44.58701],[295.94583,44.62108],[295.93396,44.63268],[295.9646,44.62551],[296.00736,44.65297],[296.01941,44.64362],[296.03227,44.65274],[296.03534,44.67056],[296.04955,44.65331],[296.07787,44.6696],[296.09065,44.66475],[296.08188,44.67899],[296.09465,44.68212],[296.09608,44.67254],[296.10997,44.68616],[296.10106,44.66342],[296.07644,44.65535],[296.07306,44.64163],[296.0598,44.63283],[296.08231,44.64504],[296.07833,44.6367],[296.08736,44.63381],[296.06221,44.62154],[296.07115,44.60921],[296.06111,44.60489],[296.08004,44.59297],[296.07189,44.58618],[296.06946,44.56311],[296.05974,44.55653],[296.06302,44.5377],[296.04922,44.52516],[296.06261,44.52092],[296.06296,44.505],[296.08333,44.49045],[296.12884,44.48812],[296.13341,44.49164],[296.11859,44.50356],[296.13621,44.51008],[296.13175,44.50265],[296.1439,44.49616],[296.13856,44.49262],[296.16182,44.49187],[296.15216,44.52482],[296.17571,44.52389],[296.17454,44.49801],[296.1819,44.49744],[296.19628,44.51516],[296.19661,44.52884],[296.21072,44.53599],[296.21235,44.52352],[296.18318,44.48438],[296.19562,44.47153],[296.2196,44.46816],[296.21661,44.47256],[296.22574,44.47487],[296.21451,44.49449],[296.23528,44.52554],[296.22618,44.50414],[296.23769,44.49067],[296.2282,44.48663],[296.23618,44.47428],[296.2623,44.46451],[296.26669,44.47078],[296.25177,44.4814],[296.27584,44.47206],[296.27221,44.45071],[296.29361,44.45806],[296.28053,44.4703],[296.28737,44.47456],[296.34254,44.46408],[296.36471,44.47022],[296.34948,44.44031],[296.35249,44.43211],[296.37283,44.44171],[296.38123,44.46082],[296.39578,44.4639],[296.39679,44.46971],[296.38377,44.47372],[296.40292,44.47441],[296.38863,44.49201],[296.39909,44.49396],[296.40633,44.48241],[296.42546,44.48006],[296.41281,44.46408],[296.41216,44.45774],[296.42183,44.4575],[296.44741,44.46803],[296.44796,44.49164],[296.46338,44.48088],[296.48027,44.50113],[296.44293,44.55546],[296.45606,44.58632],[296.44718,44.60076],[296.38198,44.63919],[296.43186,44.61769],[296.43805,44.62042],[296.43616,44.63783],[296.39818,44.6727],[296.38268,44.67545],[296.37195,44.66383],[296.3433,44.6811],[296.33946,44.70295],[296.32402,44.71339],[296.33603,44.72486],[296.34455,44.72323],[296.34286,44.71565],[296.39152,44.70007],[296.39512,44.69442],[296.38414,44.68997],[296.39207,44.67971],[296.41536,44.66688],[296.43942,44.66566],[296.46071,44.63841],[296.54965,44.58871],[296.56415,44.59593],[296.56082,44.60747],[296.5676,44.6134],[296.58248,44.61122],[296.58629,44.63058],[296.57981,44.64097],[296.5919,44.64636],[296.67503,44.64207],[296.69035,44.63045],[296.71963,44.62701],[296.71317,44.64328],[296.7173,44.65388],[296.7444,44.65449],[296.74357,44.66353],[296.7633,44.6775],[296.75779,44.696],[296.74618,44.69794],[296.74071,44.71907],[296.75153,44.73785],[296.76862,44.70666],[296.78446,44.70345],[296.78655,44.69135],[296.77775,44.68698],[296.78429,44.67299],[296.79432,44.67453],[296.79446,44.68733],[296.81262,44.68353],[296.82514,44.69516],[296.81768,44.71105],[296.84311,44.73647],[296.83165,44.73993],[296.84736,44.77948],[296.84989,44.74333],[296.83391,44.70553],[296.85084,44.687],[296.83045,44.68592],[296.84388,44.67865],[296.85626,44.68738],[296.85776,44.70655],[296.87254,44.71735],[296.88415,44.74135],[296.87337,44.78966],[296.89671,44.78371],[296.89067,44.73776],[296.91095,44.71809],[296.93608,44.71364],[296.9334,44.70618],[296.92191,44.70546],[296.93032,44.68711],[296.94259,44.68574],[296.95296,44.67208],[296.98297,44.69542],[296.99429,44.71897],[296.96362,44.73234],[296.95963,44.74662],[296.94361,44.75219],[296.92816,44.77435],[296.94352,44.77509],[296.95952,44.7572],[296.96723,44.76651],[296.96066,44.77878],[296.9938,44.77663],[296.99397,44.75869],[296.98308,44.7404],[297.004,44.71955],[296.99473,44.70719],[297.00011,44.69665],[297.05117,44.7248],[297.10545,44.72604],[297.12385,44.71146],[297.13187,44.71814],[297.11628,44.73421],[297.13931,44.72716],[297.14601,44.70154],[297.18298,44.70984],[297.18243,44.72186],[297.19582,44.71079],[297.20269,44.71284],[297.19586,44.71633],[297.20063,44.72007],[297.18062,44.72672],[297.16304,44.7459],[297.18144,44.74399],[297.20169,44.76578],[297.15435,44.80202],[297.11997,44.81503],[297.16127,44.81129],[297.18587,44.78094],[297.20114,44.77425],[297.2374,44.77137],[297.2436,44.77526],[297.23803,44.78656],[297.28922,44.78841],[297.294,44.8041],[297.32698,44.7935],[297.34325,44.77271],[297.35149,44.77931],[297.32424,44.8068],[297.34984,44.79805],[297.36183,44.8135],[297.37414,44.81026],[297.36734,44.82103],[297.37997,44.82745],[297.38178,44.8466],[297.39385,44.83792],[297.39541,44.82282],[297.40785,44.82289],[297.41738,44.83706],[297.43505,44.80035],[297.45424,44.7871],[297.43943,44.81138],[297.44587,44.82032],[297.42538,44.83234],[297.43833,44.8428],[297.42991,44.86775],[297.46561,44.84553],[297.49109,44.85788],[297.51148,44.89176],[297.46331,44.91292],[297.45724,44.92443],[297.52458,44.89307],[297.52197,44.87168],[297.53051,44.85721],[297.51657,44.85354],[297.51417,44.84274],[297.54557,44.82165],[297.54974,44.836],[297.54184,44.84451],[297.5513,44.85222],[297.53784,44.85466],[297.57316,44.85687],[297.57164,44.86376],[297.58469,44.87307],[297.60539,44.87121],[297.58157,44.88573],[297.58443,44.89885],[297.60306,44.89838],[297.6191,44.91464],[297.62477,44.89473],[297.6486,44.89347],[297.6549,44.88417],[297.65417,44.9228],[297.66602,44.90639],[297.67388,44.91313],[297.68935,44.90782],[297.69797,44.91953],[297.73376,44.9295],[297.72913,44.93314],[297.73683,44.93486],[297.73548,44.94263],[297.75862,44.94565],[297.74672,44.97425],[297.76302,44.95662],[297.77594,44.95418],[297.78731,44.96223],[297.79186,44.94461],[297.81641,44.95316],[297.81274,44.93425],[297.81977,44.93202],[297.83843,44.95875],[297.83428,44.97374],[297.84884,44.95693],[297.86156,44.96589],[297.89993,44.94888],[297.87454,44.96612],[297.90976,44.96864],[297.92002,44.96287],[297.9202,44.97052],[297.93305,44.96097],[297.92478,44.97623],[297.94943,44.97005],[297.97129,44.97861],[297.99981,44.97682],[298.01032,44.98741],[298.00554,44.99397],[297.90278,44.99999],[297.89882,45.00597],[297.95845,45.00291],[297.97397,45.01416],[297.96931,45.02738],[297.98916,45.02091],[297.98165,45.01135],[297.98849,45.00425],[298.00221,45.02945],[298.03694,45.023],[298.05157,45.01032],[298.05141,45.03226],[298.04129,45.04193],[298.04724,45.04932],[298.0205,45.06971],[298.04931,45.0578],[298.06346,45.0374],[298.10232,45.0243],[298.14671,45.0363],[298.15703,45.046],[298.14773,45.06311],[298.12922,45.07233],[298.13293,45.07882],[298.16355,45.07145],[298.15169,45.06425],[298.17852,45.06517],[298.18039,45.07943],[298.15534,45.1062],[298.21599,45.08642],[298.22141,45.08817],[298.21713,45.09531],[298.2382,45.09999],[298.24786,45.09124],[298.2706,45.08874],[298.26918,45.10669],[298.29918,45.08951],[298.31407,45.09503],[298.34614,45.09014],[298.33286,45.1063],[298.31073,45.11593],[298.35469,45.12402],[298.28898,45.17435],[298.27283,45.19283],[298.26864,45.21322],[298.19271,45.2444],[298.2198,45.24144],[298.27547,45.21853],[298.28651,45.19315],[298.31591,45.16137],[298.33899,45.15812],[298.34964,45.16995],[298.32832,45.20218],[298.35883,45.1594],[298.40591,45.14549],[298.42338,45.15197],[298.421,45.15999],[298.4326,45.16487],[298.43121,45.15608],[298.44495,45.14988],[298.46299,45.166],[298.53439,45.14996],[298.54979,45.1649],[298.54389,45.17953],[298.58553,45.1633],[298.61744,45.17673],[298.62786,45.17185],[298.64685,45.18559],[298.68437,45.18967],[298.68283,45.20076],[298.65336,45.19881],[298.64386,45.18923],[298.64107,45.19903],[298.61324,45.20261],[298.65337,45.24214],[298.67532,45.23604],[298.66864,45.24449],[298.676,45.2461],[298.67291,45.25352],[298.69183,45.2511],[298.72631,45.26356],[298.71838,45.25127],[298.73981,45.24333],[298.75217,45.25271],[298.75569,45.24585],[298.78358,45.24698],[298.78873,45.26353],[298.7924,45.25216],[298.80846,45.24631],[298.80187,45.2317],[298.79189,45.23978],[298.7879,45.22578],[298.80057,45.22857],[298.80518,45.20913],[298.81533,45.21874],[298.82529,45.21195],[298.811,45.23712],[298.81955,45.24465],[298.81386,45.2547],[298.8452,45.26523],[298.83537,45.27215],[298.82731,45.30085],[298.84317,45.27034],[298.8849,45.28314],[298.86823,45.26985],[298.85914,45.24992],[298.84435,45.24221],[298.85944,45.23881],[298.8465,45.23537],[298.83946,45.22208],[298.84536,45.2108],[298.85399,45.21632],[298.87139,45.20653],[298.89403,45.217],[298.89095,45.22164],[298.92353,45.22676],[298.90287,45.23645],[298.90827,45.23913],[298.95603,45.23683],[298.94343,45.2414],[298.94716,45.25694],[298.96564,45.25492],[298.96554,45.2695],[298.97594,45.27213],[298.94427,45.30046],[298.97891,45.28757],[299.00221,45.29439],[298.99914,45.27798],[299.01757,45.27139],[299.0222,45.276],[299.014,45.28893],[299.02119,45.28886],[299.01094,45.29299],[299.02276,45.29754],[299.02755,45.30927],[299.01865,45.30713],[299.0082,45.31678],[299.038,45.32319],[298.99642,45.34025],[298.9338,45.35042],[298.89664,45.34224],[298.84806,45.35843],[298.80427,45.35581],[298.79426,45.34743],[298.78625,45.35504],[298.75654,45.34769],[298.74997,45.3524],[298.7384,45.34703],[298.74793,45.34243],[298.73443,45.33799],[298.68609,45.35248],[298.62026,45.3448],[298.61906,45.35041],[298.53876,45.35246],[298.49512,45.39903],[298.50585,45.40373],[298.49731,45.40609],[298.47743,45.44404],[298.44193,45.45464],[298.39262,45.4571],[298.45632,45.45806],[298.48644,45.43977],[298.49377,45.44214],[298.48538,45.43484],[298.49526,45.43321],[298.49897,45.41974],[298.5232,45.40097],[298.516,45.39499],[298.52283,45.39],[298.56696,45.40246],[298.59201,45.42037],[298.60972,45.41934],[298.6201,45.40995],[298.64318,45.42723],[298.70608,45.43973],[298.72415,45.4564],[298.73836,45.45452],[298.75935,45.48097],[298.77092,45.48295],[298.75729,45.49517],[298.76252,45.51061],[298.75397,45.52286],[298.72853,45.5225],[298.67187,45.5459],[298.63131,45.58234],[298.61486,45.58553],[298.61073,45.61723],[298.60128,45.63125],[298.57182,45.64194],[298.55538,45.65522],[298.56397,45.65069],[298.56076,45.65704],[298.5708,45.66044],[298.61643,45.63611],[298.6323,45.61602],[298.6493,45.60814],[298.62558,45.60677],[298.64906,45.5908],[298.65769,45.57367],[298.70814,45.54711],[298.70763,45.55426],[298.71757,45.5538],[298.72116,45.56169],[298.70478,45.57342],[298.73308,45.57875],[298.7483,45.59581],[298.77041,45.58715],[298.76446,45.59662],[298.82163,45.60181],[298.8462,45.58871],[298.82563,45.58181],[298.82041,45.57172],[298.7994,45.56791],[298.83568,45.56461],[298.92672,45.59103],[298.92852,45.59934],[298.91723,45.59949],[298.91917,45.60499],[298.93386,45.60387],[298.93356,45.59539],[298.95868,45.59566],[298.98589,45.60731],[298.96484,45.60872],[298.96971,45.61879],[298.95665,45.62084],[298.95759,45.63388],[298.98799,45.6179],[299.00265,45.63439],[299.02063,45.61953],[299.0079,45.61609],[299.01574,45.61266],[299.05001,45.62478],[299.01896,45.63784],[299.06076,45.63627],[299.04901,45.63145],[299.06127,45.62298],[299.06436,45.6294],[299.08688,45.62966],[299.06838,45.62236],[299.08234,45.622],[299.10353,45.63765],[299.0934,45.64131],[299.09315,45.65451],[299.10393,45.64363],[299.10997,45.64857],[299.10483,45.6507],[299.12915,45.65133],[299.15127,45.63507],[299.13552,45.64101],[299.14582,45.62808],[299.13242,45.63306],[299.12828,45.61922],[299.20567,45.61129],[299.22141,45.60082],[299.23939,45.60795],[299.26044,45.58834],[299.25355,45.5737],[299.29967,45.57632],[299.31431,45.56577],[299.32477,45.5717],[299.31142,45.57745],[299.31985,45.59107],[299.3737,45.60256],[299.3829,45.61535],[299.40309,45.60798],[299.42712,45.62938],[299.43299,45.62782],[299.4282,45.62325],[299.47011,45.63106],[299.46175,45.63317],[299.46407,45.64025],[299.47618,45.64321],[299.47854,45.62666],[299.49981,45.62998],[299.50374,45.64446],[299.485,45.645],[299.50395,45.6515],[299.50729,45.6601],[299.51663,45.64272],[299.50482,45.6322],[299.51669,45.63883],[299.56051,45.6395],[299.56536,45.64662],[299.57925,45.6434],[299.58435,45.65535],[299.59972,45.65278],[299.64728,45.67427],[299.66646,45.70041],[299.64603,45.70263],[299.65923,45.70664],[299.62746,45.72916],[299.6159,45.729],[299.62604,45.73387],[299.65917,45.71707],[299.67023,45.70235],[299.70299,45.711],[299.67238,45.70695],[299.67756,45.71214],[299.66572,45.71538],[299.66817,45.72078],[299.70969,45.71674],[299.70389,45.70516],[299.71905,45.70249],[299.7631,45.71287],[299.74449,45.71572],[299.74359,45.72214],[299.77282,45.72377],[299.78003,45.74539],[299.80674,45.77352],[299.86711,45.78619],[299.88174,45.78149],[299.91778,45.80357],[299.92283,45.81989],[299.90718,45.81573],[299.87518,45.82379],[299.86416,45.84478],[299.86131,45.83889],[299.83339,45.8403],[299.82697,45.85611],[299.84402,45.87472],[299.87692,45.88453],[299.9339,45.87121],[299.94367,45.87817],[300.00634,45.87673],[300.02906,45.89744],[300.0067,45.89745],[300.03778,45.92311],[300.03644,45.90658],[300.07663,45.91672],[300.08341,45.92115],[300.07006,45.9287],[300.07261,45.93408],[300.088,45.9282],[300.1177,45.94222],[300.13474,45.94173],[300.14011,45.949],[300.13447,45.95683],[300.15119,45.94675],[300.16834,45.95582],[300.17207,45.94993],[300.16412,45.94445],[300.1791,45.94154],[300.21103,45.95057],[300.19309,45.96095],[300.19612,45.96701],[300.18502,45.97793],[300.15354,45.99365],[300.15894,46.00699],[300.17703,46.00831],[300.1647,46.01564],[300.10836,46.00527],[300.06938,46.00711],[300.04048,46.01519],[300.03101,46.03033],[300.04126,46.04652],[300.10281,46.05325],[300.11133,46.06113],[300.10703,46.06852],[300.1358,46.07458],[300.20173,46.12808],[300.15136,46.11105],[300.12038,46.11103],[300.12802,46.10574],[300.11753,46.09392],[300.12723,46.09424],[300.10797,46.08835],[300.10645,46.09913],[300.09456,46.10624],[300.10796,46.11657],[300.11318,46.1107],[300.14783,46.16168],[300.1837,46.16963],[300.97775,46.64302],[301.74715,45.53774],[302.50312,44.38958],[303.23485,43.21443],[303.95273,41.99516]]]]}}