{"type":"Feature","properties":{"name":"Tasman Sea (IHO)","source":"Flanders Marine Institute (VLIZ), Marine Regions, IHO Sea Areas v3 (IHO S-23, 1953)","source_url":"https://marineregions.org/mrgid/4365","license":"CC-BY 4.0","components":["Tasman Sea"],"retrieved":"2026-10-02","note":"Interior rings dropped (land inside the region is excluded by sst_daily holding ocean cells only). Longitudes are continuous across the region, on the 0-360 frame where the region allows and as negative degrees east where it crosses the prime meridian.","simplify_tolerance_deg":0.01,"outer_area_km2":3337451,"cells":140617,"cells_moved_by_simplification":118},"geometry":{"type":"MultiPolygon","coordinates":[[[[159.03333,-30.0],[159.3,-31.783333],[172.146063,-34.144141],[172.119744,-34.150851],[172.141839,-34.17013],[172.15653,-34.147337],[172.996002,-34.40362],[172.969575,-34.425193],[172.856632,-34.41373],[172.851084,-34.434335],[172.812256,-34.453404],[172.717116,-34.440211],[172.67944,-34.420058],[172.670265,-34.461969],[172.642316,-34.476741],[172.689131,-34.49008],[172.703532,-34.523901],[172.732212,-34.529494],[172.850072,-34.627786],[173.141125,-34.980469],[173.174473,-35.063815],[173.168649,-35.136548],[173.133934,-35.177675],[173.0653,-35.165322],[173.055482,-35.194862],[173.162795,-35.293231],[173.200043,-35.27898],[173.153913,-35.300053],[173.212218,-35.378456],[173.233036,-35.355016],[173.227421,-35.336143],[173.247688,-35.334982],[173.246302,-35.320458],[173.249011,-35.314905],[173.252873,-35.314793],[173.248131,-35.336299],[173.230497,-35.340328],[173.260469,-35.344998],[173.230718,-35.358282],[173.218793,-35.386003],[173.356387,-35.523013],[173.375061,-35.515783],[173.388017,-35.432895],[173.408011,-35.430832],[173.392841,-35.408129],[173.48134,-35.400396],[173.466011,-35.372547],[173.486197,-35.386242],[173.541085,-35.374683],[173.545598,-35.334658],[173.529579,-35.317666],[173.522104,-35.275544],[173.542338,-35.255828],[173.525179,-35.275581],[173.550174,-35.33939],[173.590023,-35.345539],[173.611292,-35.314991],[173.602555,-35.347933],[173.557598,-35.356],[173.521466,-35.417783],[173.538904,-35.425982],[173.545034,-35.41007],[173.549615,-35.408791],[173.553747,-35.412366],[173.554175,-35.418278],[173.569132,-35.411681],[173.583887,-35.420838],[173.584577,-35.425638],[173.554452,-35.419618],[173.547899,-35.409651],[173.540988,-35.426886],[173.522385,-35.424353],[173.50526,-35.391371],[173.4991,-35.432253],[173.468803,-35.403536],[173.437816,-35.413584],[173.441683,-35.432076],[173.422784,-35.419866],[173.41694,-35.469337],[173.402195,-35.472536],[173.410954,-35.485537],[173.363917,-35.54781],[173.417043,-35.587667],[173.436391,-35.637659],[173.666593,-35.86762],[173.925075,-36.163368],[174.00053,-36.2746],[174.012164,-36.344485],[174.044433,-36.394958],[174.164086,-36.381266],[174.181961,-36.364215],[174.180115,-36.333076],[174.158499,-36.300851],[174.131616,-36.30159],[174.158066,-36.290642],[174.156384,-36.276964],[174.132089,-36.260081],[174.102566,-36.262951],[174.108425,-36.250766],[174.07921,-36.234472],[174.071648,-36.203029],[173.967834,-36.113999],[173.958849,-36.055942],[173.912599,-36.018804],[173.865372,-35.953491],[173.873734,-35.940709],[173.917321,-35.928373],[173.91907,-35.902408],[173.896528,-35.898087],[173.892605,-35.895741],[173.890262,-35.891019],[173.892653,-35.877036],[173.896875,-35.873531],[173.918252,-35.87148],[173.895595,-35.874973],[173.891251,-35.890421],[173.919847,-35.901067],[173.921135,-35.925084],[173.914102,-35.932063],[173.871854,-35.947104],[173.86784,-35.954957],[173.96337,-36.051478],[173.974309,-36.111799],[174.044173,-36.166663],[174.120148,-36.169962],[174.153509,-36.214372],[174.237243,-36.264259],[174.274224,-36.234093],[174.29304,-36.238205],[174.286982,-36.215503],[174.268792,-36.216236],[174.261002,-36.193258],[174.224483,-36.20217],[174.239067,-36.185571],[174.203962,-36.182581],[174.234718,-36.183125],[174.22884,-36.170624],[174.209139,-36.158264],[174.194907,-36.166896],[174.184265,-36.15751],[174.198988,-36.146361],[174.181227,-36.143546],[174.220664,-36.127578],[174.226479,-36.159423],[174.230849,-36.134559],[174.251441,-36.12217],[174.235657,-36.172896],[174.293104,-36.178665],[174.265512,-36.184901],[174.295144,-36.211768],[174.31614,-36.205123],[174.3146,-36.22622],[174.362566,-36.20295],[174.368026,-36.169577],[174.385635,-36.154851],[174.372733,-36.124843],[174.388603,-36.144966],[174.415982,-36.138371],[174.419771,-36.144765],[174.387065,-36.148064],[174.390533,-36.158404],[174.372236,-36.176577],[174.396691,-36.171883],[174.374634,-36.179692],[174.376956,-36.203756],[174.321002,-36.236203],[174.358737,-36.273035],[174.323609,-36.266095],[174.304552,-36.242949],[174.27041,-36.261459],[174.270523,-36.285884],[174.341085,-36.316963],[174.374395,-36.276031],[174.390044,-36.270613],[174.380772,-36.283983],[174.398345,-36.28801],[174.404067,-36.279779],[174.453613,-36.251654],[174.46701,-36.259505],[174.474231,-36.24293],[174.474192,-36.260423],[174.460559,-36.26096],[174.45314,-36.253538],[174.391832,-36.31001],[174.354929,-36.323132],[174.281183,-36.304791],[174.263464,-36.340654],[174.262306,-36.321549],[174.25647,-36.31464],[174.249934,-36.377486],[174.278806,-36.392498],[174.323336,-36.3844],[174.356458,-36.41177],[174.383471,-36.405528],[174.385466,-36.386145],[174.415443,-36.376637],[174.396679,-36.343212],[174.415881,-36.35344],[174.410107,-36.366612],[174.425424,-36.374041],[174.391814,-36.392177],[174.44109,-36.424699],[174.408989,-36.449378],[174.405233,-36.476722],[174.443221,-36.555105],[174.419002,-36.56513],[174.431479,-36.578632],[174.408537,-36.584736],[174.4398,-36.597398],[174.41485,-36.614268],[174.422939,-36.619508],[174.441991,-36.644371],[174.419487,-36.61825],[174.385322,-36.616043],[174.375648,-36.591879],[174.369334,-36.623852],[174.362523,-36.583876],[174.378091,-36.564989],[174.302607,-36.527301],[174.235426,-36.428024],[174.204634,-36.438303],[174.197864,-36.462796],[174.201002,-36.435309],[174.225878,-36.427059],[174.203761,-36.427995],[174.169449,-36.448269],[174.160818,-36.476197],[174.416633,-36.809041],[174.428925,-36.879061],[174.466948,-36.948485],[174.483457,-37.047319],[174.557048,-37.02203],[174.566692,-36.999504],[174.611731,-37.020712],[174.603561,-37.000165],[174.619212,-36.972413],[174.632968,-36.979461],[174.681582,-36.934358],[174.772471,-36.924636],[174.829153,-36.936198],[174.81843,-36.948875],[174.756578,-36.940426],[174.774777,-36.968805],[174.741679,-36.99278],[174.773194,-37.00938],[174.764451,-37.01896],[174.816737,-37.018121],[174.802839,-36.99064],[174.817552,-36.993446],[174.815608,-37.010421],[174.850343,-37.034763],[174.853838,-37.022719],[174.858025,-37.051621],[174.878937,-37.041363],[174.870129,-37.054283],[174.904684,-37.044129],[174.929569,-37.058925],[174.875204,-37.079207],[174.851008,-37.056577],[174.789947,-37.110079],[174.793684,-37.09136],[174.776525,-37.088349],[174.739622,-37.125802],[174.689708,-37.137296],[174.706404,-37.152217],[174.739311,-37.14959],[174.745069,-37.166228],[174.770996,-37.158543],[174.787492,-37.16098],[174.791736,-37.163699],[174.74542,-37.178297],[174.726737,-37.152902],[174.703145,-37.157866],[174.719402,-37.21371],[174.738398,-37.224546],[174.728608,-37.240519],[174.708832,-37.233165],[174.719726,-37.216627],[174.693552,-37.198261],[174.699073,-37.151086],[174.678734,-37.159437],[174.689533,-37.148026],[174.661972,-37.139892],[174.668816,-37.106267],[174.649089,-37.085646],[174.664687,-37.069061],[174.659147,-37.044181],[174.627034,-37.035767],[174.53598,-37.057681],[174.685035,-37.347259],[174.719004,-37.380105],[174.743843,-37.369019],[174.752902,-37.328258],[174.77,-37.324264],[174.759417,-37.342471],[174.812559,-37.318896],[174.847884,-37.272782],[174.859801,-37.266414],[174.882699,-37.264238],[174.920713,-37.277853],[174.939024,-37.28595],[174.951294,-37.300877],[174.975606,-37.287797],[175.000376,-37.281933],[174.949947,-37.302932],[174.922025,-37.279865],[174.861177,-37.267628],[174.839764,-37.300837],[174.812434,-37.32123],[174.784691,-37.332568],[174.741714,-37.385321],[174.714738,-37.389693],[174.702793,-37.374474],[174.702155,-37.436984],[174.747397,-37.505058],[174.839055,-37.799574],[174.870801,-37.788944],[174.864591,-37.774705],[174.901435,-37.790872],[174.906257,-37.759629],[174.918655,-37.743223],[174.930617,-37.755045],[174.936489,-37.736829],[174.96503,-37.772686],[174.926837,-37.770831],[174.912835,-37.786626],[174.927969,-37.795701],[174.950777,-37.779599],[174.968953,-37.78808],[174.973708,-37.801676],[174.948328,-37.788712],[174.947912,-37.807882],[174.9381,-37.789461],[174.902814,-37.813193],[174.879289,-37.794247],[174.862647,-37.82219],[174.864937,-37.799599],[174.843505,-37.803714],[174.825177,-37.821973],[174.776212,-37.83065],[174.756317,-37.864281],[174.794624,-38.007308],[174.832519,-37.992345],[174.815411,-37.964378],[174.847681,-37.940545],[174.889225,-37.960834],[174.848426,-38.02349],[174.822934,-38.018255],[174.824971,-38.006488],[174.797073,-38.020317],[174.780558,-38.080247],[174.811149,-38.079602],[174.838958,-38.042132],[174.847718,-38.061616],[174.855492,-38.042568],[174.860597,-38.056119],[174.88772,-38.048588],[174.89026,-38.06498],[174.901479,-38.056491],[174.909118,-38.054251],[174.893747,-38.069117],[174.915365,-38.076032],[174.903612,-38.08371],[174.915566,-38.090636],[174.865749,-38.098468],[174.889246,-38.118242],[174.867203,-38.120975],[174.859171,-38.099969],[174.849239,-38.115509],[174.848203,-38.102534],[174.828349,-38.108098],[174.818023,-38.128107],[174.841579,-38.118017],[174.857581,-38.140196],[174.856748,-38.146279],[174.852725,-38.150396],[174.850018,-38.129766],[174.834984,-38.133256],[174.828477,-38.156378],[174.804678,-38.119531],[174.796638,-38.13499],[174.777804,-38.133138],[174.777981,-38.110391],[174.765244,-38.119242],[174.774668,-38.087518],[174.73444,-38.123798],[174.677238,-38.113847],[174.713044,-38.201888],[174.714147,-38.306353],[174.716123,-38.296819],[174.736062,-38.291137],[174.654922,-38.384603],[174.634292,-38.385694],[174.645061,-38.45717],[174.615129,-38.702684],[174.632484,-38.698125],[174.649598,-38.713701],[174.612252,-38.706222],[174.619043,-38.737056],[174.606208,-38.739558],[174.584331,-38.812629],[174.594485,-38.816663],[174.43947,-38.964041],[174.363728,-38.992703],[174.242123,-38.983331],[174.229607,-38.989186],[174.237344,-38.999177],[174.199182,-38.987728],[174.087897,-39.050304],[174.028678,-39.054991],[174.003464,-39.085343],[173.912211,-39.119448],[173.79118,-39.19211],[173.751214,-39.280357],[173.794124,-39.415165],[173.949012,-39.539945],[174.078023,-39.577945],[174.198861,-39.587374],[174.298649,-39.626874],[174.354589,-39.660833],[174.418293,-39.732276],[174.488845,-39.772691],[174.484442,-39.762145],[174.485139,-39.758821],[174.559592,-39.817229],[174.683278,-39.849133],[174.707809,-39.834416],[174.718742,-39.836842],[174.686501,-39.850673],[174.719031,-39.868128],[174.798208,-39.858346],[174.877354,-39.877548],[174.933428,-39.902344],[174.982436,-39.94779],[175.045596,-39.944717],[175.058431,-39.932845],[175.050027,-39.918519],[175.051144,-39.914575],[175.058161,-39.906158],[175.067866,-39.901828],[175.053854,-39.914423],[175.060492,-39.93206],[175.044791,-39.948337],[174.988369,-39.948912],[175.097233,-40.039955],[175.107959,-40.029274],[175.10034,-40.04243],[175.143933,-40.080956],[175.189782,-40.156421],[175.222302,-40.293162],[175.236819,-40.287681],[175.213804,-40.47191],[175.228963,-40.46695],[175.242841,-40.475208],[175.234221,-40.490375],[175.254163,-40.493597],[175.259381,-40.497589],[175.258689,-40.507083],[175.233889,-40.494055],[175.232263,-40.489129],[175.238588,-40.474368],[175.209386,-40.486086],[175.161108,-40.66225],[175.07429,-40.804722],[175.013536,-40.877083],[174.984336,-40.882449],[174.971734,-40.948523],[174.939009,-41.00025],[174.843568,-41.053655],[174.866867,-41.102576],[174.891044,-41.086719],[174.912458,-41.101776],[174.867523,-41.104102],[174.842274,-41.131091],[174.860868,-41.093633],[174.80413,-41.111179],[174.7606,-41.16638],[174.739439,-41.171695],[174.712945,-41.218976],[174.664879,-41.246097],[174.643214,-41.23793],[174.612194,-41.28545],[174.657721,-41.34263],[174.715698,-41.363771],[174.744218,-41.34703],[174.791559,-41.350354],[174.799572,-41.32858],[174.820007,-41.346162],[174.839072,-41.33259],[174.837023,-41.295869],[174.825334,-41.284608],[174.802338,-41.315867],[174.803986,-41.285902],[174.779471,-41.28719],[174.786822,-41.267071],[174.854564,-41.225564],[174.900551,-41.229544],[174.905826,-41.281686],[174.847891,-41.359504],[174.875485,-41.387524],[174.86728,-41.410094],[174.918449,-41.439726],[175.042224,-41.373688],[175.141176,-41.396971],[175.108237,-41.382644],[175.144256,-41.3681],[175.145067,-41.398521],[175.216446,-41.432639],[175.194129,-41.52607],[175.217724,-41.540333],[175.234621,-41.607734],[175.286985,-41.612277],[174.276244,-41.733832],[174.194614,-41.720526],[174.159914,-41.669135],[174.16784,-41.604994],[174.149289,-41.557548],[174.06187,-41.500833],[174.12514,-41.547643],[174.089897,-41.558818],[174.080344,-41.536832],[174.076033,-41.554482],[174.059657,-41.551739],[174.062319,-41.53491],[174.090248,-41.527505],[174.030959,-41.497112],[174.061329,-41.500173],[174.033139,-41.475576],[174.031973,-41.442685],[174.01564,-41.440928],[174.068229,-41.388639],[174.072905,-41.357261],[174.089794,-41.35932],[174.104554,-41.339368],[174.115809,-41.299367],[174.148908,-41.284406],[174.139176,-41.314839],[174.160301,-41.288082],[174.188745,-41.292702],[174.159097,-41.327322],[174.139206,-41.325111],[174.14591,-41.333921],[174.130948,-41.339018],[174.132926,-41.344405],[174.125035,-41.343569],[174.11862,-41.352792],[174.192758,-41.337269],[174.201592,-41.311255],[174.213374,-41.325634],[174.237821,-41.319612],[174.24497,-41.308594],[174.224659,-41.292192],[174.284158,-41.269181],[174.275322,-41.257486],[174.295488,-41.250203],[174.288378,-41.235062],[174.317449,-41.213917],[174.254728,-41.243855],[174.264934,-41.251896],[174.253239,-41.259041],[174.246491,-41.244772],[174.185818,-41.25038],[174.210092,-41.266589],[174.202128,-41.275948],[174.17662,-41.250145],[174.134686,-41.257393],[174.146071,-41.231889],[174.083695,-41.246111],[174.07495,-41.255646],[174.087709,-41.268661],[174.065824,-41.251757],[174.041056,-41.267532],[174.049349,-41.251498],[174.03658,-41.254363],[174.010375,-41.285869],[174.00912,-41.27197],[173.994607,-41.279453],[174.009761,-41.258697],[173.906007,-41.277902],[173.97312,-41.253546],[173.963117,-41.226948],[173.96681,-41.224054],[173.983064,-41.25085],[173.998734,-41.243774],[173.993517,-41.219773],[174.027088,-41.240634],[174.030743,-41.211],[174.039567,-41.230811],[174.047091,-41.210355],[174.070275,-41.20577],[174.063903,-41.223095],[174.076528,-41.229881],[174.094781,-41.202489],[174.119702,-41.220239],[174.125598,-41.193106],[174.156568,-41.213976],[174.152801,-41.173785],[174.179952,-41.180269],[174.16926,-41.202464],[174.202907,-41.184384],[174.185048,-41.174129],[174.20073,-41.154392],[174.160688,-41.149607],[174.147007,-41.108965],[174.163605,-41.116876],[174.179963,-41.088708],[174.181911,-41.123615],[174.195852,-41.124533],[174.185961,-41.139673],[174.220934,-41.141802],[174.209236,-41.119018],[174.247054,-41.122482],[174.234553,-41.092653],[174.272287,-41.06865],[174.27339,-41.04404],[174.298589,-41.03451],[174.31483,-40.99401],[174.289158,-41.032815],[174.241523,-41.040261],[174.218646,-41.071356],[174.167892,-41.042779],[174.184251,-41.029707],[174.198854,-41.040098],[174.195567,-41.012118],[174.217235,-41.009037],[174.231176,-40.985131],[174.180831,-41.010809],[174.156328,-40.967945],[174.147589,-40.978565],[174.162069,-40.984562],[174.14188,-41.019266],[174.097072,-40.994783],[174.107156,-41.052194],[174.06556,-41.014184],[174.065552,-40.995823],[174.046096,-41.002118],[174.04738,-41.017267],[174.008684,-41.010142],[174.022819,-40.976395],[173.994724,-40.968787],[174.000395,-40.990439],[173.964865,-40.991775],[173.987779,-41.015162],[173.93502,-41.018695],[173.953208,-41.03056],[173.93386,-41.039581],[173.983804,-41.031643],[173.976202,-41.056337],[174.008908,-41.017978],[174.048814,-41.021026],[174.048229,-41.052688],[174.009912,-41.059206],[174.046094,-41.106405],[173.985612,-41.100469],[173.99348,-41.136145],[173.974092,-41.128201],[173.965857,-41.150225],[173.950996,-41.114976],[173.977187,-41.081391],[173.933022,-41.084121],[173.929941,-41.114273],[173.900939,-41.121563],[173.921507,-41.124568],[173.867972,-41.140929],[173.900373,-41.149704],[173.867514,-41.15386],[173.896592,-41.168251],[173.87315,-41.208782],[173.969309,-41.172928],[173.966342,-41.189934],[174.001683,-41.194751],[173.98753,-41.18226],[174.045111,-41.158735],[174.05186,-41.178955],[174.121381,-41.171742],[174.073262,-41.194511],[174.023438,-41.184989],[174.03288,-41.200829],[173.96954,-41.217298],[173.937457,-41.218607],[173.9466,-41.200657],[173.862068,-41.219217],[173.927119,-41.224463],[173.806983,-41.268259],[173.826554,-41.285802],[173.848768,-41.281037],[173.841122,-41.290892],[173.806131,-41.286169],[173.77962,-41.262697],[173.771972,-41.283716],[173.759561,-41.26358],[173.743381,-41.274246],[173.737834,-41.27015],[173.750833,-41.265476],[173.739535,-41.260355],[173.804314,-41.254995],[173.793619,-41.2355],[173.821578,-41.250484],[173.850319,-41.240885],[173.843534,-41.218133],[173.864819,-41.175386],[173.829521,-41.173038],[173.848442,-41.151896],[173.785961,-41.174049],[173.778965,-41.153545],[173.837349,-41.14466],[173.853934,-41.132394],[173.845825,-41.11398],[173.883695,-41.121298],[173.888138,-41.100736],[173.858739,-41.097208],[173.868937,-41.079237],[173.907164,-41.091189],[173.907516,-41.069343],[173.945592,-41.067114],[173.951384,-41.062327],[173.829875,-41.052858],[173.808429,-41.091478],[173.794976,-41.082958],[173.783294,-41.113664],[173.773473,-41.104821],[173.761721,-41.118609],[173.772854,-41.094865],[173.753698,-41.098237],[173.779533,-41.086217],[173.786936,-41.056778],[173.76949,-41.052573],[173.810617,-41.032274],[173.772871,-41.020474],[173.827621,-40.989084],[173.813015,-41.018221],[173.862487,-41.020919],[173.877352,-41.002157],[173.919294,-40.995775],[173.930148,-40.983095],[173.901197,-40.98752],[173.906763,-40.966568],[173.955107,-40.967424],[173.951813,-40.941452],[173.975107,-40.938423],[173.958423,-40.92257],[173.982702,-40.90816],[173.996761,-40.947508],[174.014074,-40.936904],[174.023438,-40.910714],[173.978519,-40.904667],[173.9785,-40.888354],[173.90664,-40.927462],[173.918444,-40.941965],[173.882864,-40.956563],[173.860879,-40.987615],[173.832786,-40.982843],[173.855345,-40.930089],[173.834937,-40.924016],[173.82949,-40.945605],[173.80485,-40.953181],[173.809029,-40.968174],[173.785259,-40.966492],[173.796801,-40.984589],[173.778441,-40.990115],[173.765353,-40.973898],[173.747485,-41.005513],[173.734795,-40.99647],[173.72561,-41.013446],[173.70202,-41.01289],[173.670998,-41.036093],[173.688398,-41.056323],[173.744755,-41.033277],[173.739857,-41.047636],[173.76235,-41.046186],[173.663935,-41.077288],[173.665412,-41.11077],[173.647029,-41.088269],[173.614874,-41.101576],[173.637078,-41.079366],[173.593823,-41.052086],[173.530162,-41.103363],[173.545498,-41.103201],[173.547574,-41.105714],[173.514436,-41.104336],[173.48233,-41.155939],[173.43279,-41.174421],[173.40208,-41.156247],[173.324566,-41.201764],[173.29389,-41.235973],[173.264009,-41.254954],[173.258856,-41.262204],[173.294736,-41.237219],[173.324021,-41.204545],[173.311607,-41.25],[173.206532,-41.298485],[173.220671,-41.304674],[173.202552,-41.3306],[173.163549,-41.318489],[173.163967,-41.295929],[173.140856,-41.282933],[173.095565,-41.291137],[173.104765,-41.277437],[173.072393,-41.262643],[173.107889,-41.251243],[173.084689,-41.210177],[173.043911,-41.16241],[173.05115,-41.186294],[173.004878,-41.14643],[173.016807,-41.126483],[173.023939,-41.138534],[173.034593,-41.098335],[173.00148,-41.063721],[173.02311,-41.046386],[173.020973,-41.016523],[172.996856,-41.015743],[173.007916,-40.992072],[173.069596,-40.961627],[173.066659,-40.946701],[173.058401,-40.956434],[173.04322,-40.947884],[173.062232,-40.938082],[173.051109,-40.917271],[173.063594,-40.905251],[173.046941,-40.889442],[173.065725,-40.879149],[173.05822,-40.857157],[173.005646,-40.872004],[173.023881,-40.855016],[173.00564,-40.825971],[173.012584,-40.805475],[172.98929,-40.780218],[172.952963,-40.789506],[172.947926,-40.823277],[172.9214,-40.799203],[172.890536,-40.830732],[172.84259,-40.83253],[172.861254,-40.837096],[172.857288,-40.8428],[172.815634,-40.818679],[172.811142,-40.831894],[172.794266,-40.79968],[172.729879,-40.768967],[172.69018,-40.716358],[172.690844,-40.728842],[172.680218,-40.733614],[172.686886,-40.678652],[172.656211,-40.675194],[172.675808,-40.675157],[172.653308,-40.657447],[172.669957,-40.641495],[172.681618,-40.660889],[172.684753,-40.584046],[172.755105,-40.515838],[172.889564,-40.520706],[173.017599,-40.552214],[172.931023,-40.520234],[172.815907,-40.505342],[172.647408,-40.505194],[172.547581,-40.579787],[172.568335,-40.584619],[172.574684,-40.568089],[172.613201,-40.568671],[172.623677,-40.554044],[172.633063,-40.57271],[172.619884,-40.594544],[172.581402,-40.58849],[172.567829,-40.596419],[172.579639,-40.611727],[172.554799,-40.618127],[172.55725,-40.605245],[172.510646,-40.629607],[172.544592,-40.60617],[172.529701,-40.583902],[172.441458,-40.631451],[172.289559,-40.754578],[172.217914,-40.773895],[172.131173,-40.849144],[172.094558,-40.916361],[172.111539,-41.030632],[172.098707,-41.104213],[172.109116,-41.214232],[172.095991,-41.246543],[172.116673,-41.251952],[172.097497,-41.25668],[172.093993,-41.263844],[172.107011,-41.270059],[172.096291,-41.288007],[172.092904,-41.271822],[172.064006,-41.385294],[171.984347,-41.444639],[171.937771,-41.519256],[171.948657,-41.529117],[171.93547,-41.522286],[171.875789,-41.606516],[171.714382,-41.722213],[171.674413,-41.738758],[171.631281,-41.747172],[171.619065,-41.744328],[171.654797,-41.74017],[171.589141,-41.726912],[171.603184,-41.777805],[171.600531,-41.806772],[171.617171,-41.810418],[171.634362,-41.825703],[171.655023,-41.829178],[171.657603,-41.831546],[171.635166,-41.827537],[171.598959,-41.808015],[171.587273,-41.727151],[171.546572,-41.749971],[171.456406,-41.75226],[171.450239,-41.775967],[171.471477,-41.82048],[171.463374,-41.847952],[171.459722,-41.814342],[171.456131,-41.886022],[171.416401,-41.917804],[171.393013,-42.018431],[171.365939,-42.030488],[171.359492,-42.071393],[171.32489,-42.113265],[171.303816,-42.269942],[171.239891,-42.374614],[171.215806,-42.382424],[171.190957,-42.438953],[171.210266,-42.447785],[171.189528,-42.439124],[171.140439,-42.54593],[171.056751,-42.64321],[170.95374,-42.72031],[170.982804,-42.726229],[170.998555,-42.744581],[171.005225,-42.758039],[170.945537,-42.724996],[170.860867,-42.830712],[170.722872,-42.929007],[170.57804,-43.002574],[170.409021,-43.041634],[170.437883,-43.059165],[170.441093,-43.07566],[170.4593,-43.094237],[170.459867,-43.102083],[170.43891,-43.079663],[170.433641,-43.061678],[170.40261,-43.049973],[170.360152,-43.089619],[170.385531,-43.089047],[170.387718,-43.109029],[170.370394,-43.106724],[170.380905,-43.092723],[170.364882,-43.106252],[170.324734,-43.107522],[170.349873,-43.094347],[170.260468,-43.108022],[170.30637,-43.125172],[170.258131,-43.118064],[170.174449,-43.210815],[170.049297,-43.284055],[169.975724,-43.360989],[169.793527,-43.420809],[169.687822,-43.548117],[169.648011,-43.553321],[169.58785,-43.60448],[169.553582,-43.585729],[169.502238,-43.626737],[169.458398,-43.623079],[169.43429,-43.638937],[169.427495,-43.623256],[169.376284,-43.639155],[169.345265,-43.670413],[169.15537,-43.748343],[169.032064,-43.835712],[169.056532,-43.856739],[169.050667,-43.867487],[169.059353,-43.876551],[169.054844,-43.887659],[169.076431,-43.899172],[169.087597,-43.916304],[169.10709,-43.923291],[169.110999,-43.928128],[169.085701,-43.922135],[169.058067,-43.894936],[169.053123,-43.885929],[169.057821,-43.877812],[169.048178,-43.868423],[169.051684,-43.854525],[169.029959,-43.835942],[168.979739,-43.872459],[168.91555,-43.89171],[168.888604,-43.906501],[168.926774,-43.890591],[168.916303,-43.896573],[168.935477,-43.904161],[168.886579,-43.90761],[168.840148,-43.952167],[168.787019,-43.974349],[168.820835,-43.96368],[168.793315,-43.975887],[168.800801,-43.997443],[168.783169,-43.977178],[168.67425,-43.993038],[168.671989,-44.007417],[168.680829,-44.009606],[168.712682,-44.027219],[168.729582,-44.049005],[168.729761,-44.054925],[168.719269,-44.141852],[168.713058,-44.15273],[168.69475,-44.163541],[168.704446,-44.177326],[168.671136,-44.228166],[168.700169,-44.173897],[168.693009,-44.162441],[168.718093,-44.141014],[168.708622,-44.11206],[168.725105,-44.079648],[168.725523,-44.046504],[168.670425,-44.008825],[168.674588,-43.990191],[168.630088,-43.989344],[168.614541,-43.973074],[168.624269,-43.956508],[168.512974,-44.001921],[168.364185,-44.007628],[168.380786,-44.038517],[168.369334,-44.026697],[168.327158,-44.049246],[168.325391,-44.08349],[168.271669,-44.113888],[168.252884,-44.152876],[168.104602,-44.242658],[168.051698,-44.258338],[168.120246,-44.290696],[168.093597,-44.328549],[167.993166,-44.327586],[168.007087,-44.338925],[168.00438,-44.365284],[168.016875,-44.371371],[168.016944,-44.382952],[168.057012,-44.412596],[168.076952,-44.517131],[168.056305,-44.510719],[168.052225,-44.458735],[168.030271,-44.427677],[168.0374,-44.408584],[167.999561,-44.362228],[168.00349,-44.350733],[168.002942,-44.338441],[167.986379,-44.376844],[167.930113,-44.389882],[167.87229,-44.434878],[167.843217,-44.484928],[167.815578,-44.495877],[167.830236,-44.525812],[167.817047,-44.599512],[167.913213,-44.624067],[167.924168,-44.664252],[167.911952,-44.671011],[167.928542,-44.682491],[167.911952,-44.68528],[167.872776,-44.626272],[167.805947,-44.60262],[167.782696,-44.571796],[167.750091,-44.58005],[167.737847,-44.603662],[167.632389,-44.641927],[167.662979,-44.684809],[167.614037,-44.65922],[167.565307,-44.685284],[167.560182,-44.718032],[167.591583,-44.740176],[167.530191,-44.730069],[167.494089,-44.753333],[167.547523,-44.801261],[167.499486,-44.853915],[167.530167,-44.881675],[167.492109,-44.863554],[167.488565,-44.847247],[167.538399,-44.80206],[167.489535,-44.77684],[167.447218,-44.773244],[167.393443,-44.814499],[167.354761,-44.824219],[167.403868,-44.929488],[167.38389,-44.936555],[167.442319,-44.983403],[167.411978,-44.973214],[167.38178,-44.997702],[167.402685,-44.9604],[167.355458,-44.945139],[167.376693,-44.910612],[167.340345,-44.844893],[167.325919,-44.844132],[167.269883,-44.868457],[167.22303,-44.912321],[167.241067,-44.926716],[167.217658,-44.923044],[167.187415,-44.95011],[167.194855,-44.960932],[167.175607,-44.956887],[167.136001,-44.985486],[167.14974,-45.010308],[167.177695,-45.007081],[167.30481,-45.051294],[167.125659,-45.004052],[167.091407,-45.025828],[167.107836,-45.071013],[167.137198,-45.09469],[167.198467,-45.096316],[167.217847,-45.109058],[167.139897,-45.103547],[167.143126,-45.134199],[167.1675,-45.143608],[167.165369,-45.151411],[167.133123,-45.131336],[167.131991,-45.101102],[167.078681,-45.05073],[167.024717,-45.095321],[167.07211,-45.124514],[167.106282,-45.176865],[167.134397,-45.170149],[167.14818,-45.177282],[167.103054,-45.184541],[167.042297,-45.114908],[167.01298,-45.1041],[166.97361,-45.138278],[166.993284,-45.165527],[166.967477,-45.194013],[167.010064,-45.279402],[167.109709,-45.277031],[167.170876,-45.253163],[167.142974,-45.27705],[167.161152,-45.307737],[167.190126,-45.319635],[167.167654,-45.318176],[167.126166,-45.282361],[167.034745,-45.293159],[167.006913,-45.317089],[167.083836,-45.35977],[167.163209,-45.465255],[167.134475,-45.443222],[167.058044,-45.505034],[167.115633,-45.432162],[167.069951,-45.36366],[167.037262,-45.354497],[167.020315,-45.379028],[167.038044,-45.395594],[167.018359,-45.414219],[166.982052,-45.406065],[166.917624,-45.42469],[166.976539,-45.399542],[167.017354,-45.405807],[167.001835,-45.371819],[167.028337,-45.351562],[166.961945,-45.320503],[166.896845,-45.342223],[166.951167,-45.31907],[166.84365,-45.27552],[166.766921,-45.359746],[166.771006,-45.378962],[166.853489,-45.414301],[166.863986,-45.383318],[166.872551,-45.41876],[166.905128,-45.433705],[166.887491,-45.439982],[166.8709,-45.41957],[166.848966,-45.420024],[166.802104,-45.39512],[166.75211,-45.400794],[166.710603,-45.470813],[166.724025,-45.498243],[166.691702,-45.499471],[166.668986,-45.558162],[166.686658,-45.583618],[166.739154,-45.579662],[166.808061,-45.548886],[166.870876,-45.543036],[166.866582,-45.522447],[166.898635,-45.527978],[166.978333,-45.50255],[166.881947,-45.549482],[166.961416,-45.546342],[166.994831,-45.554535],[166.987284,-45.564044],[166.86888,-45.552479],[166.722987,-45.602534],[166.733711,-45.665101],[166.854498,-45.6302],[166.930102,-45.625972],[166.968518,-45.604801],[166.935805,-45.631689],[166.751783,-45.667596],[166.728277,-45.727945],[166.820307,-45.704592],[166.930176,-45.726671],[166.953479,-45.695769],[166.963431,-45.697266],[166.948071,-45.720642],[166.979569,-45.717275],[166.838022,-45.762954],[166.838202,-45.769662],[166.855217,-45.767331],[166.856461,-45.773672],[166.768783,-45.763538],[166.622351,-45.79096],[166.570902,-45.81656],[166.596432,-45.795348],[166.521638,-45.79384],[166.448665,-45.816242],[166.429765,-45.839698],[166.439804,-45.882768],[166.425565,-45.905071],[166.45153,-45.942003],[166.447587,-45.995053],[166.461056,-46.010158],[166.473102,-45.996108],[166.497949,-46.002178],[166.596073,-45.970463],[166.685083,-45.869353],[166.706447,-45.858723],[166.647482,-45.949358],[166.771055,-45.948795],[166.753774,-45.952591],[166.770481,-45.967581],[166.619022,-45.987582],[166.598216,-46.01574],[166.608296,-46.05346],[166.592275,-46.029708],[166.582309,-46.063484],[166.564785,-46.071776],[166.575943,-46.093562],[166.614165,-46.059846],[166.645247,-46.083293],[166.676131,-46.05157],[166.687802,-46.064203],[166.685748,-46.051488],[166.725278,-46.018145],[166.735543,-46.021855],[166.69717,-46.054688],[166.714332,-46.077203],[166.740123,-46.038196],[166.739034,-46.059322],[166.765671,-46.051196],[166.738142,-46.016882],[166.787495,-45.985611],[166.774846,-45.9785],[166.851358,-45.968497],[166.916924,-45.926482],[166.855011,-45.98113],[166.77352,-46.001939],[166.780895,-46.046813],[166.73679,-46.064083],[166.733527,-46.092417],[166.72418,-46.072239],[166.707912,-46.091728],[166.71336,-46.11302],[166.617748,-46.142501],[166.607519,-46.156715],[166.639016,-46.172042],[166.640098,-46.194992],[166.678453,-46.202008],[166.669507,-46.210353],[166.768473,-46.215449],[166.776489,-46.233179],[166.810285,-46.213816],[166.931165,-46.210096],[166.930881,-46.22319],[166.956132,-46.230108],[167.019465,-46.227888],[167.107069,-46.257775],[167.215969,-46.263027],[167.25605,-46.247205],[167.34375,-46.251953],[167.364149,-46.229313],[167.353094,-46.194656],[167.393587,-46.177439],[167.403963,-46.151783],[167.507455,-46.15548],[167.624291,-46.191255],[167.715818,-46.261905],[167.730105,-46.297161],[167.686528,-46.323242],[167.730119,-46.335231],[167.73426,-46.366026],[167.782655,-46.391049],[167.829273,-46.368891],[167.884236,-46.392704],[167.878967,-46.36981],[167.911785,-46.357451],[168.038542,-46.384983],[168.021563,-46.359626],[167.959939,-46.339806],[167.948612,-46.324232],[168.001569,-46.338538],[167.998677,-46.327869],[168.017336,-46.332822],[168.011608,-46.321421],[168.019449,-46.328964],[168.011818,-46.354766],[168.021765,-46.357561],[168.071615,-46.339274],[168.128176,-46.346921],[168.20278,-46.398226],[168.275314,-46.500475],[168.306154,-46.494769],[168.303045,-46.468748],[168.265861,-46.461989],[168.262144,-46.451887],[168.271765,-46.430406],[168.255054,-46.422402],[168.245579,-46.413913],[168.271185,-46.427385],[168.273326,-46.430914],[168.271519,-46.442308],[168.265637,-46.456352],[168.281346,-46.461066],[168.330082,-46.451659],[168.324611,-46.423975],[168.337683,-46.406843],[168.34644,-46.472963],[168.35375,-46.467984],[168.381795,-46.484685],[168.293386,-46.508755],[168.296647,-46.533609],[168.278859,-46.539604],[168.288306,-46.511921],[168.223074,-46.517558],[168.229458,-46.552667],[168.267087,-46.556098],[168.274519,-46.584439],[168.310202,-46.594098],[168.32777,-46.624728],[168.360196,-46.612085],[168.307263,-46.589247],[168.300975,-46.550344],[168.333407,-46.5513],[168.349663,-46.535387],[168.371296,-46.548055],[168.362646,-46.55537],[168.377225,-46.57394],[168.449417,-46.5609],[168.515185,-46.575364],[168.526583,-46.591359],[168.511209,-46.597842],[168.458122,-46.578464],[168.4343,-46.575321],[168.428154,-46.578975],[168.448704,-46.582466],[168.438273,-46.586889],[168.415249,-46.571619],[168.360069,-46.59909],[168.432382,-46.607342],[168.576921,-46.590373],[168.563781,-46.587463],[168.582074,-46.575115],[168.549899,-46.559057],[168.595795,-46.552753],[168.673163,-46.569811],[168.599511,-46.568602],[168.59328,-46.585882],[168.71421,-46.568612],[168.796422,-46.581845],[168.720864,-46.568372],[168.777625,-46.568327],[168.770927,-46.557692],[168.831357,-46.609031],[168.826365,-46.63904],[168.846767,-46.658921],[168.53644,-46.744213],[168.528278,-46.735231],[168.511571,-46.757987],[168.480309,-46.752867],[168.121845,-46.862646],[168.083267,-46.855044],[168.091858,-46.832895],[168.009272,-46.794553],[167.977363,-46.720822],[167.92498,-46.699689],[167.86806,-46.683345],[167.829237,-46.70422],[167.787487,-46.687284],[167.722603,-46.711425],[167.719214,-46.743734],[167.703513,-46.753971],[167.718038,-46.787233],[167.700777,-46.795918],[167.751127,-46.848345],[167.758407,-46.868541],[167.745921,-46.875039],[167.766113,-46.887024],[167.765659,-46.921072],[167.713423,-46.963938],[167.679965,-46.963686],[167.682771,-46.938792],[167.664789,-46.947425],[167.679652,-46.968057],[167.668402,-46.978052],[167.684958,-46.978799],[167.679444,-46.997515],[167.70033,-47.003225],[167.684646,-47.01487],[167.69141,-47.03348],[167.705226,-47.033248],[167.715284,-47.049516],[167.620082,-47.041587],[167.558541,-47.09072],[167.567351,-47.113305],[167.587793,-47.114612],[167.553915,-47.154832],[167.573557,-47.150372],[167.567613,-47.176291],[167.466012,-47.216468],[167.452244,-47.278456],[167.489737,-47.270939],[167.490254,-47.285557],[167.536712,-47.290204],[166.591712,-48.027366],[166.563056,-48.0325],[166.573259,-48.035654],[166.12112,-50.518119],[166.050207,-50.532512],[166.091536,-50.552265],[166.099203,-50.579398],[166.068379,-50.64527],[166.084556,-50.666981],[166.027931,-50.715685],[165.877867,-50.76961],[165.88929,-50.780246],[165.868341,-50.799264],[165.882776,-50.841411],[165.9152,-50.83101],[165.919659,-50.812847],[165.93566,-50.840699],[166.014749,-50.852789],[166.026288,-50.843744],[165.993247,-50.818824],[166.015365,-50.820303],[166.013663,-50.807909],[165.981956,-50.785851],[165.992746,-50.772406],[166.011532,-50.79902],[166.037569,-50.803344],[166.006887,-50.770588],[166.018649,-50.745482],[166.061031,-50.763527],[166.069512,-50.80777],[166.036384,-50.824139],[166.061644,-50.823818],[166.054492,-50.862842],[165.98057,-50.865342],[165.91956,-50.835781],[165.918731,-50.851778],[165.897087,-50.855036],[165.912643,-50.866916],[146.872615,-43.636988],[146.922228,-43.597576],[146.920971,-43.570298],[146.887877,-43.57903],[146.904256,-43.561262],[146.888919,-43.552597],[146.900628,-43.516886],[146.916346,-43.547018],[146.951703,-43.534234],[146.952321,-43.513919],[146.978414,-43.492985],[146.944795,-43.511493],[146.929775,-43.495811],[146.942158,-43.478665],[147.002265,-43.479169],[146.983434,-43.454555],[146.917358,-43.446192],[146.928817,-43.436831],[146.920599,-43.41716],[146.950662,-43.447558],[146.972551,-43.432551],[147.017113,-43.443785],[147.017055,-43.403506],[147.06018,-43.357101],[147.019581,-43.334019],[147.006902,-43.342942],[146.972152,-43.327137],[147.004274,-43.335621],[147.012373,-43.316367],[147.045886,-43.31274],[147.067354,-43.332623],[147.079482,-43.294708],[147.100327,-43.290764],[147.064865,-43.249275],[146.964787,-43.191106],[146.974611,-43.169152],[146.960567,-43.160863],[146.980606,-43.159344],[146.972991,-43.139212],[147.022804,-43.072504],[147.0446,-43.048021],[146.984829,-43.189563],[147.062636,-43.225207],[147.083443,-43.207226],[147.072687,-43.202043],[147.087441,-43.191729],[147.080512,-43.169461],[147.093783,-43.168954],[147.11458,-43.210182],[147.091711,-43.21881],[147.089468,-43.244815],[147.141431,-43.24905],[147.14271,-43.272074],[147.167168,-43.283356],[147.216475,-43.281473],[147.242344,-43.26861],[147.260326,-43.22871],[147.255404,-43.188048],[147.239919,-43.176528],[147.263002,-43.130759],[147.248798,-43.123376],[147.300757,-43.092304],[147.258155,-43.071371],[147.278957,-43.034088],[147.271661,-43.01855],[147.285467,-43.010757],[147.314385,-43.059969],[147.344011,-43.052355],[147.324443,-42.98325],[147.36238,-42.924733],[147.333671,-42.901516],[147.341952,-42.878317],[147.319568,-42.853799],[147.33082,-42.844795],[147.315008,-42.846413],[147.325584,-42.833972],[147.256636,-42.815355],[147.259723,-42.791559],[147.283349,-42.789814],[147.253598,-42.786731],[147.253666,-42.765943],[147.207232,-42.74052],[147.155181,-42.752262],[147.142191,-42.768389],[147.103096,-42.782306],[147.192968,-42.727496],[147.255167,-42.757522],[147.257009,-42.745821],[147.264686,-42.778701],[147.292498,-42.788364],[147.281132,-42.801171],[147.322549,-42.817169],[147.344218,-42.850866],[147.360693,-42.8491],[147.352783,-42.876098],[147.404489,-42.885039],[147.416952,-42.907856],[147.408458,-42.939393],[147.421953,-42.93988],[147.43584,-42.908546],[147.484839,-42.911435],[147.492392,-42.926163],[147.464297,-42.923645],[147.445612,-42.965128],[147.44491,-42.978488],[147.478264,-42.981402],[147.469727,-43.026777],[147.431008,-43.027857],[147.409095,-42.962723],[147.391399,-42.97611],[147.417159,-43.054526],[147.521643,-43.021298],[147.524364,-42.992647],[147.55379,-42.986467],[147.542089,-42.959355],[147.538675,-42.963685],[147.535329,-42.964535],[147.527207,-42.961863],[147.539211,-42.974547],[147.529661,-42.985319],[147.509462,-42.966981],[147.518141,-42.952104],[147.538465,-42.961949],[147.53044,-42.930872],[147.495201,-42.911162],[147.505741,-42.862633],[147.566679,-42.837684],[147.612887,-42.845973],[147.578357,-42.824851],[147.520534,-42.827456],[147.512892,-42.811651],[147.479542,-42.825525],[147.475042,-42.815167],[147.489199,-42.813806],[147.436971,-42.785133],[147.459168,-42.776794],[147.449655,-42.769395],[147.447626,-42.75686],[147.468228,-42.771298],[147.454262,-42.783417],[147.486,-42.802831],[147.513019,-42.783173],[147.535629,-42.80494],[147.535299,-42.776274],[147.560277,-42.797491],[147.58844,-42.799073],[147.595325,-42.786247],[147.608823,-42.804883],[147.596254,-42.813763],[147.621279,-42.845893],[147.605151,-42.869317],[147.652054,-42.878409],[147.678827,-42.865126],[147.676513,-42.873874],[147.639174,-42.88227],[147.669023,-42.901845],[147.722243,-42.886961],[147.766286,-42.907017],[147.792754,-42.892272],[147.816561,-42.900682],[147.813021,-42.936851],[147.864984,-42.946916],[147.810993,-42.962819],[147.855399,-42.983587],[147.83735,-42.991641],[147.846842,-43.012893],[147.924464,-43.018036],[147.87226,-43.023348],[147.859229,-43.05686],[147.841168,-43.029991],[147.840385,-43.061162],[147.806324,-43.046901],[147.77331,-43.05453],[147.766667,-43.032542],[147.751072,-43.044249],[147.740446,-43.014246],[147.72805,-43.025383],[147.708404,-43.007855],[147.736079,-42.970065],[147.726125,-42.950356],[147.705554,-42.956474],[147.675886,-42.934748],[147.664208,-42.942945],[147.68072,-42.990373],[147.618199,-43.008286],[147.626683,-43.073343],[147.684355,-43.102366],[147.741099,-43.097371],[147.744757,-43.110945],[147.730149,-43.10044],[147.71675,-43.104763],[147.731973,-43.12411],[147.703385,-43.122133],[147.686102,-43.13866],[147.694319,-43.167495],[147.714769,-43.179205],[147.716071,-43.198642],[147.777293,-43.214428],[147.787773,-43.237319],[147.799264,-43.240664],[147.798152,-43.217447],[147.84226,-43.188723],[147.874968,-43.206368],[147.876061,-43.191589],[147.85371,-43.181822],[147.870986,-43.152086],[147.86036,-43.164986],[147.846411,-43.154829],[147.866225,-43.137435],[147.851383,-43.124079],[147.862833,-43.108804],[147.866228,-43.129049],[147.885545,-43.122932],[147.893411,-43.138693],[147.89588,-43.191125],[147.946176,-43.194624],[147.948294,-43.216265],[147.982192,-43.225451],[148.011655,-43.22208],[147.964102,-43.185983],[148.010241,-43.137331],[147.95517,-43.137046],[147.980438,-43.123259],[147.981076,-43.106561],[147.945677,-43.060652],[147.950933,-43.035052],[147.926314,-43.022003],[148.002813,-42.960399],[147.984198,-42.94141],[147.998518,-42.913003],[147.957412,-42.881984],[147.976352,-42.870359],[147.940491,-42.877206],[147.920846,-42.842501],[147.891608,-42.842476],[147.860951,-42.874962],[147.90324,-42.882447],[147.90379,-42.903866],[147.875885,-42.888775],[147.812289,-42.890625],[147.830004,-42.867769],[147.844657,-42.874051],[147.835685,-42.860791],[147.862169,-42.820463],[147.88118,-42.845139],[147.869712,-42.806641],[147.878531,-42.77124],[147.90024,-42.743888],[147.946671,-42.728498],[147.939329,-42.699863],[147.962675,-42.679415],[147.93411,-42.648289],[147.957546,-42.650766],[147.931759,-42.63213],[147.946169,-42.606955],[147.90257,-42.566102],[147.861374,-42.558687],[147.914486,-42.548069],[147.898769,-42.522679],[147.911358,-42.510076],[147.929184,-42.547782],[147.949,-42.55361],[147.968294,-42.521033],[147.994426,-42.527043],[148.011528,-42.509985],[147.995164,-42.490118],[148.011006,-42.44159],[147.983801,-42.439663],[147.99951,-42.432567],[147.981981,-42.406219],[148.027165,-42.350922],[148.018301,-42.315404],[147.991277,-42.314283],[147.95862,-42.352321],[147.933786,-42.342695],[147.957865,-42.3421],[147.946514,-42.336488],[147.971056,-42.332571],[148.016041,-42.285049],[148.028432,-42.260767],[148.011952,-42.243554],[148.084574,-42.167432],[148.085184,-42.125931],[148.070431,-42.111854],[148.128075,-42.092231],[148.234399,-42.097264],[148.120106,-42.077125],[148.165502,-42.051637],[148.144041,-42.032472],[148.153778,-42.005493],[148.171275,-41.997571],[148.19881,-42.020392],[148.217229,-41.988588],[148.245751,-41.991663],[148.215041,-42.035314],[148.172824,-42.043602],[148.156588,-42.073013],[148.220588,-42.068947],[148.208257,-42.077446],[148.241199,-42.091622],[148.247093,-42.116955],[148.300963,-42.12985],[148.258891,-42.166125],[148.291206,-42.190436],[148.25099,-42.230461],[148.259744,-42.254076],[148.287075,-42.25885],[148.294733,-42.283225],[148.31267,-42.278044],[148.356647,-42.194062],[148.356779,-42.17945],[148.297822,-42.167176],[148.345376,-42.119393],[148.285456,-42.039769],[148.290009,-41.981215],[148.311115,-41.96105],[148.30403,-41.935517],[148.323745,-41.916997],[148.304403,-41.891515],[148.313399,-41.869936],[148.277051,-41.855593],[148.263829,-41.814604],[148.280893,-41.761616],[148.305005,-41.748204],[148.302593,-41.739326],[148.296883,-41.740646],[148.278358,-41.730897],[148.276456,-41.723102],[148.287126,-41.733703],[148.288841,-41.668689],[148.320922,-41.622028],[148.316861,-41.576132],[148.285905,-41.553714],[148.275893,-41.50343],[148.268621,-41.503838],[148.250009,-41.485868],[148.26999,-41.501663],[148.265832,-41.463301],[148.249908,-41.456384],[148.244337,-41.464749],[148.237323,-41.459928],[148.244187,-41.46229],[148.249195,-41.455839],[148.267491,-41.456957],[148.327043,-41.308594],[148.359865,-41.275543],[148.331973,-41.279323],[148.309402,-41.317436],[148.272735,-41.339168],[148.248666,-41.329323],[148.277251,-41.315031],[148.279899,-41.279081],[148.294836,-41.283394],[148.290818,-41.303825],[148.306619,-41.302968],[148.339,-41.260463],[148.296929,-41.247913],[148.272856,-41.20346],[148.285859,-41.167901],[148.269854,-41.126873],[148.298293,-41.064377],[148.252334,-41.050689],[148.291574,-41.033181],[148.286725,-41.04831],[148.296422,-41.06157],[148.301887,-41.030797],[148.350034,-40.995708],[148.482456,-40.435131],[148.41666,-40.26666],[148.300763,-40.129708],[148.287292,-40.075976],[148.278647,-40.116511],[148.223222,-40.121308],[148.287029,-40.07202],[148.289346,-39.967763],[148.180238,-39.94885],[148.00003,-39.774342],[148.004787,-39.642013],[149.919167,-37.569167],[149.904642,-37.543248],[149.978708,-37.502095],[149.975935,-37.471027],[149.95508,-37.467198],[149.977215,-37.456983],[149.949013,-37.372702],[149.969643,-37.310237],[149.942362,-37.280945],[149.967122,-37.25091],[149.925719,-37.252727],[149.918782,-37.242818],[149.92675,-37.223612],[149.937846,-37.246834],[149.988821,-37.239759],[150.052315,-37.262441],[150.01512,-37.215323],[150.006335,-37.141369],[149.988149,-37.140769],[149.95396,-37.101878],[149.888898,-37.12131],[149.894732,-37.102229],[149.910948,-37.112133],[149.893857,-37.096689],[149.859941,-37.097545],[149.878817,-37.077558],[149.917641,-37.074019],[149.907107,-37.044523],[149.944824,-37.055527],[149.948879,-37.017683],[149.925879,-36.996985],[149.941624,-36.948613],[149.889914,-36.959692],[149.910618,-36.976871],[149.886775,-36.976964],[149.874645,-36.960708],[149.877814,-36.945989],[149.886962,-36.966732],[149.887312,-36.95871],[149.914982,-36.947128],[149.903876,-36.918108],[149.919985,-36.894961],[149.891152,-36.917092],[149.876748,-36.893092],[149.914987,-36.887896],[149.93178,-36.902246],[149.94032,-36.902884],[149.934629,-36.884033],[149.917902,-36.883289],[149.949995,-36.856155],[149.933786,-36.837004],[149.958405,-36.788624],[149.931134,-36.794145],[149.924448,-36.779163],[149.946223,-36.780043],[149.962841,-36.791555],[149.991752,-36.725271],[149.972491,-36.701728],[149.950667,-36.706779],[149.962968,-36.711807],[149.958557,-36.719393],[149.929961,-36.720633],[149.92023,-36.7168],[149.956136,-36.716128],[149.960867,-36.713048],[149.949175,-36.710818],[149.951282,-36.704446],[149.996601,-36.692949],[149.983466,-36.680151],[149.999196,-36.686018],[150.020529,-36.630757],[150.005703,-36.599293],[150.017092,-36.592286],[150.022372,-36.627577],[150.068745,-36.553871],[150.042715,-36.525794],[150.060986,-36.524748],[150.05311,-36.48896],[150.085075,-36.427997],[150.05012,-36.427453],[150.070146,-36.422125],[150.083025,-36.37196],[150.069697,-36.3633],[150.065464,-36.384942],[150.048664,-36.389858],[150.055686,-36.373742],[150.029561,-36.355987],[150.030107,-36.3477],[150.056942,-36.363089],[150.060074,-36.359478],[150.05084,-36.346012],[150.053218,-36.34313],[150.080694,-36.367281],[150.11633,-36.329303],[150.11238,-36.327115],[150.109692,-36.316563],[150.113614,-36.30834],[150.115296,-36.326935],[150.135788,-36.311427],[150.133132,-36.291102],[150.107251,-36.283553],[150.120397,-36.280455],[150.114113,-36.266295],[150.125698,-36.261979],[150.129735,-36.287939],[150.14883,-36.266629],[150.137705,-36.212985],[150.132419,-36.216125],[150.12131,-36.210393],[150.121643,-36.226282],[150.108983,-36.23014],[150.114881,-36.219915],[150.071736,-36.22797],[150.061462,-36.209731],[150.075619,-36.225373],[150.103246,-36.206514],[150.109385,-36.213618],[150.125702,-36.208671],[150.133027,-36.212944],[150.126287,-36.129541],[150.104927,-36.130727],[150.114477,-36.118373],[150.126851,-36.127176],[150.139147,-36.103956],[150.133622,-36.07323],[150.106678,-36.053921],[150.101909,-36.064045],[150.071919,-36.087105],[150.093128,-36.067912],[150.056691,-36.068862],[150.046686,-36.066106],[150.044521,-36.062545],[150.099962,-36.063869],[150.093709,-36.054454],[150.110914,-36.048116],[150.090396,-36.033748],[150.10595,-36.030669],[150.120638,-36.036133],[150.123794,-36.064885],[150.142265,-36.063841],[150.109105,-36.00516],[150.127306,-36.005624],[150.1404,-36.047662],[150.165041,-36.013657],[150.151315,-35.980258],[150.162094,-35.908004],[150.079548,-35.907578],[150.068288,-35.902158],[150.066122,-35.892604],[150.089469,-35.907087],[150.149622,-35.90475],[150.163983,-35.866784],[150.192105,-35.859375],[150.178785,-35.852404],[150.190335,-35.838139],[150.180466,-35.826135],[150.235564,-35.835324],[150.224779,-35.826988],[150.238007,-35.818191],[150.225371,-35.808697],[150.237623,-35.80246],[150.235091,-35.771795],[150.213241,-35.761647],[150.208847,-35.729341],[150.171767,-35.698923],[150.137186,-35.707297],[150.137607,-35.72279],[150.118623,-35.694533],[150.124374,-35.672097],[150.148623,-35.663644],[150.137839,-35.656242],[150.138327,-35.617587],[150.140625,-35.6164],[150.154647,-35.621884],[150.146055,-35.60982],[150.14822,-35.606698],[150.158071,-35.607668],[150.148275,-35.598687],[150.150246,-35.595733],[150.158787,-35.59517],[150.158963,-35.608911],[150.147413,-35.610324],[150.156883,-35.622354],[150.139153,-35.618801],[150.151194,-35.66891],[150.125349,-35.676741],[150.139771,-35.702554],[150.1742,-35.691481],[150.276773,-35.72373],[150.3063,-35.685977],[150.304829,-35.641018],[150.271376,-35.655723],[150.260302,-35.622899],[150.269134,-35.617557],[150.277471,-35.642674],[150.324487,-35.639312],[150.32306,-35.613644],[150.408013,-35.530105],[150.390129,-35.469466],[150.450146,-35.399695],[150.437446,-35.379101],[150.43836,-35.387857],[150.415601,-35.387154],[150.432472,-35.378976],[150.423481,-35.369831],[150.440224,-35.35808],[150.432247,-35.369868],[150.447713,-35.393672],[150.493954,-35.36817],[150.474653,-35.337608],[150.487632,-35.324011],[150.467084,-35.300794],[150.503515,-35.270181],[150.439875,-35.260779],[150.460635,-35.254057],[150.452043,-35.227823],[150.471625,-35.24624],[150.464199,-35.258104],[150.494365,-35.265762],[150.48893,-35.259322],[150.500148,-35.250276],[150.494309,-35.263174],[150.511867,-35.268807],[150.545381,-35.248383],[150.530966,-35.240583],[150.540095,-35.216133],[150.593473,-35.18962],[150.590619,-35.171519],[150.604255,-35.15625],[150.594972,-35.15235],[150.585316,-35.137293],[150.598532,-35.127056],[150.544677,-35.122525],[150.568141,-35.112602],[150.550419,-35.102451],[150.58566,-35.088654],[150.620239,-35.106007],[150.613343,-35.116323],[150.63735,-35.117171],[150.650022,-35.094779],[150.659484,-35.126258],[150.632049,-35.149067],[150.594345,-35.143415],[150.606049,-35.155048],[150.593823,-35.183028],[150.685224,-35.165279],[150.695183,-35.2011],[150.725131,-35.171749],[150.755119,-35.170739],[150.764669,-35.124545],[150.73536,-35.137526],[150.698743,-35.121492],[150.698618,-35.071057],[150.675973,-35.068023],[150.663012,-35.019596],[150.674521,-35.029154],[150.730637,-34.99429],[150.786076,-34.992746],[150.767634,-35.01497],[150.7876,-35.036287],[150.773044,-35.079102],[150.7834,-35.071553],[150.805255,-35.094921],[150.833821,-35.075027],[150.844104,-35.004711],[150.802257,-35.00851],[150.774911,-34.942283],[150.769878,-34.96505],[150.750568,-34.963762],[150.756544,-34.936417],[150.772621,-34.941064],[150.784697,-34.930326],[150.767505,-34.925118],[150.769532,-34.901074],[150.739416,-34.908962],[150.758211,-34.926411],[150.742868,-34.918826],[150.714224,-34.934667],[150.701576,-34.93686],[150.737019,-34.906943],[150.68134,-34.862764],[150.646963,-34.856339],[150.569365,-34.875494],[150.536398,-34.867844],[150.551864,-34.851533],[150.49957,-34.865819],[150.511076,-34.88211],[150.494508,-34.868392],[150.49769,-34.864996],[150.547062,-34.849919],[150.555241,-34.85145],[150.55511,-34.861258],[150.539033,-34.867543],[150.569507,-34.872974],[150.663432,-34.851293],[150.718376,-34.874275],[150.748597,-34.859027],[150.788195,-34.785291],[150.813806,-34.771177],[150.825706,-34.783054],[150.866406,-34.67151],[150.853236,-34.663124],[150.862696,-34.628163],[150.858007,-34.628539],[150.850142,-34.618211],[150.845923,-34.619001],[150.851273,-34.617746],[150.859724,-34.627154],[150.866235,-34.604414],[150.904361,-34.596835],[150.874164,-34.587636],[150.866869,-34.536107],[150.799141,-34.558774],[150.812242,-34.507068],[150.83752,-34.500608],[150.833161,-34.486354],[150.885166,-34.491639],[150.862819,-34.529588],[150.873232,-34.542053],[150.895339,-34.502518],[150.921408,-34.494226],[150.886729,-34.455435],[150.903196,-34.463005],[150.90263,-34.40495],[150.931048,-34.368836],[150.918961,-34.357121],[150.927637,-34.317635],[150.987871,-34.232394],[151.127993,-34.137737],[151.171875,-34.089007],[151.168364,-34.075161],[151.091875,-34.087592],[151.105715,-34.07132],[151.082241,-34.056198],[151.101923,-34.059314],[151.109115,-34.044497],[151.111274,-34.072002],[151.135114,-34.055904],[151.140649,-34.074126],[151.148917,-34.054947],[151.154104,-34.073382],[151.167403,-34.039756],[151.214504,-34.041703],[151.230369,-34.026866],[151.222866,-34.001339],[151.189438,-34.007278],[151.179392,-34.024751],[151.158506,-34.020214],[151.181224,-34.011282],[151.162977,-34.000667],[151.141686,-34.01498],[151.155037,-34.030553],[151.138327,-34.035679],[151.126364,-34.010591],[151.111918,-34.019795],[151.117674,-33.992473],[151.131202,-33.983404],[151.121675,-34.000652],[151.139208,-34.003166],[151.17238,-33.947266],[151.17965,-33.967186],[151.18484,-33.951777],[151.192617,-33.97401],[151.193833,-33.954543],[151.220007,-33.967026],[151.20904,-33.982073],[151.22675,-33.977124],[151.250182,-34.001886],[151.252814,-33.964703],[151.266726,-33.967781],[151.25807,-33.920704],[151.286054,-33.89217],[151.280984,-33.832933],[151.267363,-33.869898],[151.231646,-33.874369],[151.230377,-33.857723],[151.22084,-33.868575],[151.208802,-33.853655],[151.188951,-33.874686],[151.174421,-33.870949],[151.196387,-33.858839],[151.185534,-33.846164],[151.150594,-33.871911],[151.144483,-33.862942],[151.164413,-33.855676],[151.153629,-33.841888],[151.142583,-33.85313],[151.124116,-33.845739],[151.127921,-33.860389],[151.119369,-33.86453],[151.120388,-33.841694],[151.100002,-33.843728],[151.093802,-33.824233],[151.077302,-33.839193],[151.084188,-33.822076],[151.063198,-33.825263],[151.048882,-33.824066],[151.046487,-33.82114],[151.092659,-33.819566],[151.134945,-33.844409],[151.141838,-33.835863],[151.160236,-33.843904],[151.180814,-33.835871],[151.169229,-33.838844],[151.143994,-33.829271],[151.142191,-33.806977],[151.146116,-33.82842],[151.181947,-33.829699],[151.181006,-33.841982],[151.218305,-33.852374],[151.231567,-33.837555],[151.246491,-33.853509],[151.269274,-33.826892],[151.252641,-33.82684],[151.246559,-33.803277],[151.239178,-33.816379],[151.219583,-33.818364],[151.232334,-33.806348],[151.217935,-33.791262],[151.233035,-33.788298],[151.214082,-33.78411],[151.202679,-33.773378],[151.203538,-33.769398],[151.221798,-33.783151],[151.230753,-33.773755],[151.238587,-33.797868],[151.234636,-33.802312],[151.249689,-33.800731],[151.262121,-33.81803],[151.275357,-33.809714],[151.26641,-33.797865],[151.286087,-33.800529],[151.298929,-33.824344],[151.307997,-33.808222],[151.287745,-33.790845],[151.302698,-33.767817],[151.29504,-33.747248],[151.317608,-33.741623],[151.299812,-33.72526],[151.307042,-33.703862],[151.29337,-33.721315],[151.269804,-33.715573],[151.314022,-33.696592],[151.342542,-33.624083],[151.324904,-33.596859],[151.335598,-33.582247],[151.323128,-33.579917],[151.32742,-33.621002],[151.316384,-33.61438],[151.304826,-33.635182],[151.308119,-33.661302],[151.303839,-33.665845],[151.284755,-33.644292],[151.273345,-33.656248],[151.28342,-33.621903],[151.302786,-33.620523],[151.304561,-33.603405],[151.292782,-33.60506],[151.310736,-33.579052],[151.294023,-33.571769],[151.250315,-33.588475],[151.254841,-33.603068],[151.219128,-33.599218],[151.220905,-33.631186],[151.248396,-33.645351],[151.217501,-33.632779],[151.205128,-33.615101],[151.195195,-33.628213],[151.214717,-33.641993],[151.190142,-33.633474],[151.18625,-33.62178],[151.173181,-33.627355],[151.164102,-33.658034],[151.159789,-33.659802],[151.169305,-33.625982],[151.213321,-33.607669],[151.190797,-33.591576],[151.233031,-33.593967],[151.247105,-33.57849],[151.231234,-33.561683],[151.223339,-33.574219],[151.214965,-33.571268],[151.232429,-33.546977],[151.200778,-33.547987],[151.175715,-33.513586],[151.148373,-33.537616],[151.164066,-33.550681],[151.151247,-33.553026],[151.158165,-33.57383],[151.134038,-33.571458],[151.140067,-33.583008],[151.118981,-33.589155],[151.125584,-33.597562],[151.125349,-33.620437],[151.117682,-33.627623],[151.122604,-33.596167],[151.110191,-33.587672],[151.131629,-33.56811],[151.151021,-33.562583],[151.145694,-33.542146],[151.124786,-33.541749],[151.143314,-33.529484],[151.115028,-33.512845],[151.154007,-33.523931],[151.144645,-33.488524],[151.15922,-33.462891],[151.142633,-33.47486],[151.120586,-33.465042],[151.104565,-33.482883],[151.091419,-33.480942],[151.080107,-33.448421],[151.076957,-33.460736],[151.07305,-33.462844],[151.065836,-33.461206],[151.061257,-33.44291],[151.050481,-33.442388],[151.030092,-33.427603],[151.031154,-33.405775],[150.993319,-33.400363],[150.986637,-33.378821],[150.980016,-33.39909],[150.965289,-33.412476],[150.952466,-33.414705],[150.955358,-33.424899],[150.951117,-33.428579],[150.942783,-33.425966],[150.938933,-33.415208],[150.927948,-33.433166],[150.921922,-33.432025],[150.9196,-33.428433],[150.921772,-33.419062],[150.894518,-33.427529],[150.901014,-33.4357],[150.876908,-33.453513],[150.89772,-33.450551],[150.904037,-33.462892],[150.905881,-33.47015],[150.904415,-33.473135],[150.89983,-33.475095],[150.871806,-33.473398],[150.879692,-33.485664],[150.87806,-33.492922],[150.870413,-33.497778],[150.872115,-33.50094],[150.890425,-33.486484],[150.872936,-33.50271],[150.868498,-33.498259],[150.878353,-33.487418],[150.870813,-33.477026],[150.871421,-33.472025],[150.904787,-33.469968],[150.897691,-33.452895],[150.884242,-33.457235],[150.874823,-33.453117],[150.897621,-33.434741],[150.892246,-33.43014],[150.901765,-33.418656],[150.923589,-33.416485],[150.928159,-33.431626],[150.939047,-33.41272],[150.951621,-33.425925],[150.950327,-33.413556],[150.977336,-33.396661],[150.980958,-33.372448],[150.99337,-33.382412],[150.99857,-33.400343],[151.032624,-33.403768],[151.03444,-33.427072],[151.063811,-33.442076],[151.071113,-33.461027],[151.079561,-33.445877],[151.09725,-33.481097],[151.115335,-33.464036],[151.123309,-33.462794],[151.144314,-33.471458],[151.146277,-33.451982],[151.166492,-33.437053],[151.157616,-33.416591],[151.171165,-33.437455],[151.151219,-33.458429],[151.160064,-33.460409],[151.165099,-33.466234],[151.159548,-33.511858],[151.182478,-33.501859],[151.199168,-33.535878],[151.194488,-33.48974],[151.213715,-33.472559],[151.232147,-33.473219],[151.230356,-33.456506],[151.237684,-33.453654],[151.236294,-33.475711],[151.197362,-33.496066],[151.227901,-33.530627],[151.231899,-33.50734],[151.264695,-33.485132],[151.236867,-33.511587],[151.258591,-33.570904],[151.271395,-33.560974],[151.26598,-33.555337],[151.26742,-33.547531],[151.260256,-33.543942],[151.26372,-33.52943],[151.272742,-33.526312],[151.266833,-33.555213],[151.305639,-33.556567],[151.312268,-33.530324],[151.350447,-33.515018],[151.330964,-33.498779],[151.336816,-33.484826],[151.300711,-33.495986],[151.31818,-33.485923],[151.307997,-33.467432],[151.324854,-33.474698],[151.313241,-33.45955],[151.332416,-33.436542],[151.322433,-33.434657],[151.320272,-33.431077],[151.337278,-33.429394],[151.341648,-33.450521],[151.367149,-33.439918],[151.341849,-33.480942],[151.370403,-33.491879],[151.365195,-33.477434],[151.38204,-33.471866],[151.378366,-33.499264],[151.356846,-33.489427],[151.347142,-33.502931],[151.362634,-33.522738],[151.335903,-33.522441],[151.34536,-33.546818],[151.368672,-33.528594],[151.415609,-33.524255],[151.42917,-33.50326],[151.418678,-33.489447],[151.447181,-33.485756],[151.423217,-33.460217],[151.452447,-33.451317],[151.444333,-33.423511],[151.485085,-33.398885],[151.505041,-33.352722],[151.495299,-33.336804],[151.471067,-33.36545],[151.443166,-33.348721],[151.441763,-33.330207],[151.468506,-33.328542],[151.445088,-33.311502],[151.465022,-33.301494],[151.458395,-33.290318],[151.445364,-33.292113],[151.454461,-33.28573],[151.467362,-33.300051],[151.49497,-33.263989],[151.51873,-33.261926],[151.508431,-33.218133],[151.56402,-33.242358],[151.521085,-33.261969],[151.545416,-33.278301],[151.50257,-33.326941],[151.502376,-33.344667],[151.572795,-33.29049],[151.563878,-33.249338],[151.625798,-33.197822],[151.638587,-33.176095],[151.630649,-33.152204],[151.665835,-33.089003],[151.640795,-33.095952],[151.63398,-33.070219],[151.59625,-33.161502],[151.589944,-33.119793],[151.579967,-33.103191],[151.583375,-33.123977],[151.553553,-33.14491],[151.571596,-33.154605],[151.567415,-33.176296],[151.541322,-33.144117],[151.529131,-33.159754],[151.526642,-33.139424],[151.509977,-33.138309],[151.54168,-33.126209],[151.537969,-33.115154],[151.565025,-33.118415],[151.564863,-33.100528],[151.549139,-33.089864],[151.513179,-33.105255],[151.512761,-33.091161],[151.524936,-33.091518],[151.535404,-33.084227],[151.522272,-33.090402],[151.514326,-33.090372],[151.503457,-33.087497],[151.492445,-33.080758],[151.507691,-33.087545],[151.521587,-33.088692],[151.533047,-33.082413],[151.510615,-33.081212],[151.535148,-33.082308],[151.554452,-33.061161],[151.613445,-33.082554],[151.580641,-33.069211],[151.599591,-33.041307],[151.579008,-33.03302],[151.594413,-33.027679],[151.613831,-33.050165],[151.619267,-33.047358],[151.597633,-32.997831],[151.584163,-32.996027],[151.588742,-32.989572],[151.617304,-33.005535],[151.614713,-32.962024],[151.643594,-32.974567],[151.628116,-33.015437],[151.656647,-33.03451],[151.639223,-33.055369],[151.640154,-33.084685],[151.659293,-33.084509],[151.671409,-33.049482],[151.728751,-33.010727],[151.738483,-32.962211],[151.804095,-32.915798],[151.784735,-32.925516],[151.764367,-32.924935],[151.758741,-32.915783],[151.76035,-32.908228],[151.776968,-32.923031],[151.767551,-32.893551],[151.747752,-32.881739],[151.728152,-32.878867],[151.712746,-32.870265],[151.697482,-32.849582],[151.720539,-32.873742],[151.743844,-32.876828],[151.772915,-32.889486],[151.774117,-32.901908],[151.784726,-32.892099],[151.774629,-32.856701],[151.737098,-32.850394],[151.730272,-32.83894],[151.696156,-32.832555],[151.683437,-32.823009],[151.681397,-32.81732],[151.683916,-32.813589],[151.706309,-32.803095],[151.695483,-32.794525],[151.693999,-32.79116],[151.695883,-32.787686],[151.736684,-32.761905],[151.6967,-32.788888],[151.70751,-32.804269],[151.68267,-32.817619],[151.729153,-32.836118],[151.738847,-32.849124],[151.780663,-32.856565],[151.781365,-32.827861],[151.807583,-32.82762],[151.789154,-32.857388],[151.785163,-32.919867],[151.808479,-32.879439],[151.912613,-32.826591],[152.038985,-32.78737],[152.115359,-32.792668],[152.122777,-32.768361],[152.170542,-32.76069],[152.188296,-32.711676],[152.090414,-32.727927],[152.064058,-32.698252],[152.071621,-32.732156],[152.057979,-32.715743],[152.060354,-32.744288],[152.051674,-32.752948],[152.019762,-32.746366],[151.965695,-32.776585],[151.922576,-32.782748],[152.043101,-32.737519],[151.990174,-32.7195],[151.944174,-32.739053],[151.933447,-32.740097],[151.930437,-32.736857],[151.97847,-32.705012],[151.977828,-32.68872],[151.957503,-32.692211],[151.942389,-32.675963],[151.96968,-32.666091],[151.956794,-32.61684],[151.942661,-32.618253],[151.939374,-32.614276],[151.968641,-32.589214],[151.964086,-32.579591],[151.960748,-32.536751],[151.967397,-32.582393],[151.998338,-32.57375],[151.944143,-32.612651],[151.959437,-32.61463],[151.974426,-32.660403],[152.02977,-32.664778],[152.04199,-32.679761],[152.060557,-32.646529],[152.050119,-32.677037],[152.071114,-32.689703],[152.113969,-32.681578],[152.120931,-32.658517],[152.163647,-32.675253],[152.157745,-32.66089],[152.167463,-32.647451],[152.166573,-32.640165],[152.170713,-32.636217],[152.171916,-32.673035],[152.16343,-32.677806],[152.14668,-32.678434],[152.177406,-32.679438],[152.190443,-32.700156],[152.205155,-32.701301],[152.186542,-32.68678],[152.200286,-32.641793],[152.284941,-32.594936],[152.330279,-32.531053],[152.416374,-32.483163],[152.539705,-32.443771],[152.518851,-32.427377],[152.518217,-32.39587],[152.471712,-32.398368],[152.459321,-32.379497],[152.478269,-32.369229],[152.503,-32.391087],[152.514077,-32.375663],[152.520111,-32.38968],[152.533741,-32.379918],[152.551355,-32.333337],[152.521766,-32.311204],[152.523829,-32.288496],[152.570043,-32.214345],[152.507504,-32.176461],[152.511009,-32.192985],[152.494005,-32.202997],[152.531919,-32.226927],[152.510415,-32.241402],[152.524975,-32.273017],[152.508971,-32.313756],[152.527313,-32.331671],[152.498093,-32.342164],[152.492018,-32.303776],[152.445733,-32.272594],[152.475758,-32.235873],[152.44174,-32.211517],[152.432717,-32.22881],[152.435854,-32.210842],[152.39448,-32.196463],[152.40046,-32.216321],[152.388731,-32.234452],[152.403224,-32.265066],[152.394839,-32.276472],[152.385864,-32.234308],[152.394181,-32.217013],[152.37889,-32.202208],[152.392079,-32.190681],[152.362087,-32.185233],[152.416683,-32.19359],[152.42376,-32.177734],[152.433282,-32.205894],[152.476151,-32.184397],[152.463564,-32.163875],[152.46423,-32.157799],[152.468818,-32.152282],[152.481424,-32.180254],[152.50909,-32.174043],[152.510386,-32.123252],[152.548198,-32.074358],[152.542869,-32.038376],[152.598477,-31.945173],[152.540547,-31.943391],[152.5241,-31.919427],[152.481785,-31.910522],[152.425247,-31.939065],[152.420228,-31.938712],[152.41537,-31.928574],[152.419961,-31.92204],[152.437658,-31.910591],[152.417164,-31.929875],[152.4283,-31.936912],[152.504377,-31.896751],[152.54642,-31.906042],[152.566108,-31.877269],[152.594692,-31.877483],[152.614318,-31.858742],[152.627253,-31.879346],[152.661291,-31.889194],[152.75385,-31.845441],[152.734454,-31.8313],[152.739033,-31.802905],[152.805283,-31.729895],[152.792412,-31.712942],[152.802958,-31.683704],[152.850083,-31.641749],[152.803118,-31.650985],[152.801141,-31.669551],[152.789421,-31.680818],[152.771444,-31.68603],[152.757002,-31.717942],[152.738071,-31.723178],[152.727985,-31.70312],[152.749777,-31.682686],[152.745298,-31.69916],[152.758941,-31.69659],[152.759294,-31.672392],[152.776423,-31.68186],[152.798427,-31.668282],[152.795527,-31.638901],[152.834129,-31.636168],[152.85323,-31.533463],[152.864929,-31.525289],[152.859807,-31.548398],[152.938645,-31.473909],[152.923695,-31.429485],[152.897719,-31.425251],[152.901801,-31.406288],[152.886632,-31.420796],[152.873613,-31.422361],[152.85511,-31.404912],[152.829467,-31.406158],[152.785977,-31.435797],[152.764194,-31.441797],[152.808045,-31.41711],[152.779477,-31.399626],[152.774832,-31.417392],[152.76879,-31.399858],[152.79565,-31.3966],[152.810089,-31.414199],[152.831863,-31.401587],[152.852306,-31.400524],[152.835388,-31.376888],[152.835801,-31.369354],[152.840035,-31.365823],[152.871843,-31.417958],[152.89025,-31.413929],[152.87282,-31.412564],[152.888385,-31.388456],[152.888064,-31.402226],[152.908334,-31.406346],[152.913579,-31.42485],[152.929401,-31.373222],[152.97637,-31.314544],[152.963997,-31.305554],[152.973807,-31.279498],[152.959698,-31.23773],[152.983124,-31.192487],[152.977183,-31.170634],[153.066512,-31.055673],[153.042919,-31.044922],[153.037437,-31.012537],[153.088354,-30.912287],[153.077497,-30.878388],[153.053598,-30.886922],[153.028065,-30.872528],[153.016399,-30.881256],[153.024934,-30.910647],[153.014242,-30.900784],[153.009509,-30.915757],[153.031554,-30.919024],[153.036487,-30.932896],[152.984362,-30.962796],[152.977244,-30.976696],[152.988621,-30.984994],[152.987249,-30.994474],[152.943221,-31.027009],[152.922987,-31.000667],[152.909727,-31.023054],[152.847952,-31.069121],[152.920117,-30.999213],[152.927598,-31.000608],[152.93815,-31.009596],[152.943865,-31.025481],[152.952888,-31.006469],[152.978014,-31.000453],[152.986841,-30.988356],[152.975958,-30.97721],[152.980395,-30.963831],[153.031526,-30.924853],[153.008951,-30.920861],[153.011191,-30.893815],[152.996559,-30.886174],[153.001472,-30.898848],[152.99905,-30.902223],[152.994124,-30.902902],[152.989825,-30.879448],[153.001999,-30.853363],[152.993722,-30.827216],[152.993251,-30.796886],[153.003246,-30.857631],[153.022821,-30.872153],[152.987721,-30.731355],[153.009909,-30.654269],[152.984389,-30.702402],[153.003206,-30.656698],[152.964664,-30.704821],[152.941923,-30.711682],[152.911933,-30.703382],[152.912496,-30.698353],[152.953823,-30.706723],[152.990223,-30.653093],[153.02028,-30.648674],[153.011192,-30.602743],[153.007738,-30.60861],[153.000692,-30.610963],[153.032485,-30.503472],[153.023513,-30.503516],[153.020418,-30.488745],[153.01142,-30.500052],[153.006258,-30.499338],[153.004058,-30.493009],[153.019091,-30.486483],[153.026484,-30.493483],[153.04086,-30.468383],[153.021703,-30.441439],[153.013915,-30.443462],[153.007541,-30.457461],[153.0007,-30.459124],[153.01143,-30.443542],[153.022129,-30.439694],[153.040046,-30.460205],[153.042802,-30.468534],[153.028741,-30.49209],[153.031799,-30.499236],[153.078344,-30.43279],[153.072352,-30.417829],[153.098822,-30.378328],[153.081807,-30.382952],[153.082109,-30.377896],[153.104749,-30.377722],[153.109758,-30.355995],[153.101867,-30.353702],[153.094973,-30.343764],[153.095379,-30.33892],[153.105862,-30.353597],[153.151865,-30.31154],[153.14193,-30.303628],[153.155147,-30.305072],[153.139283,-30.297572],[153.139512,-30.259414],[153.16385,-30.214705],[153.158334,-30.212214],[153.156675,-30.200968],[153.160503,-30.21029],[153.207796,-30.157098],[153.213177,-30.110313],[153.192333,-30.105159],[153.207873,-30.068391],[153.194681,-30.051942],[153.220913,-30.0],[159.03333,-30.0]]]]}}